{"type":"FeatureCollection","features":[{"type":"Feature","properties":{"osm_id":151750878,"railway":"rail","name":null,"usage":null},"geometry":{"type":"LineString","coordinates":[[33.692775,-16.12111],[33.693173,-16.12156],[33.693329,-16.121683],[33.693526,-16.121816],[33.693752,-16.121961],[33.694049,-16.122137],[33.694475,-16.122355],[33.694837,-16.122504],[33.695318,-16.122607],[33.695906,-16.122647],[33.696439,-16.1226],[33.70091,-16.122058],[33.701419,-16.121988],[33.701655,-16.121955],[33.704072,-16.121662],[33.708446,-16.121123],[33.709998,-16.120931],[33.712753,-16.12059],[33.713337,-16.120507],[33.713698,-16.120429],[33.714913,-16.12015],[33.715236,-16.120083],[33.715459,-16.120046],[33.716182,-16.119986],[33.718271,-16.119816],[33.72035,-16.119597],[33.720662,-16.119587],[33.720919,-16.119585],[33.721151,-16.119598],[33.721413,-16.119625],[33.72177,-16.119689],[33.721926,-16.119721],[33.724228,-16.120382],[33.724616,-16.120482],[33.724837,-16.120523],[33.725074,-16.120541],[33.725314,-16.120545]]}},{"type":"Feature","properties":{"osm_id":192528818,"railway":"rail","name":null,"usage":null},"geometry":{"type":"LineString","coordinates":[[33.796877,-16.131891],[33.795305,-16.133442],[33.79455,-16.134231],[33.793883,-16.134898],[33.793387,-16.135396],[33.793065,-16.135719],[33.792905,-16.135897],[33.792771,-16.136048],[33.792632,-16.136212],[33.792487,-16.136406],[33.792403,-16.136529],[33.792198,-16.136883],[33.792099,-16.13709],[33.792027,-16.137263],[33.791956,-16.137467],[33.791886,-16.137717],[33.791838,-16.137938],[33.791724,-16.138543]]}},{"type":"Feature","properties":{"osm_id":259656630,"railway":"rail","name":null,"usage":null},"geometry":{"type":"LineString","coordinates":[[33.73502,-16.119592],[33.735692,-16.119535],[33.736165,-16.119495],[33.738738,-16.119273],[33.739501,-16.119202],[33.741181,-16.118998],[33.741728,-16.118941],[33.742031,-16.118927],[33.742407,-16.118938],[33.74273,-16.118982],[33.743035,-16.119043],[33.743409,-16.119152],[33.743659,-16.119256],[33.744,-16.119437],[33.745298,-16.120203],[33.746,-16.120614],[33.746363,-16.120767],[33.74678,-16.120854],[33.747351,-16.120894],[33.748134,-16.120908],[33.750934,-16.121025],[33.751179,-16.121031],[33.751366,-16.121031],[33.751547,-16.121018],[33.751692,-16.120978],[33.751868,-16.120911]]}},{"type":"Feature","properties":{"osm_id":259656632,"railway":"rail","name":null,"usage":null},"geometry":{"type":"LineString","coordinates":[[33.702454,-16.120792],[33.702616,-16.121064],[33.70277,-16.121286],[33.702918,-16.121418],[33.703084,-16.121532],[33.703277,-16.121617],[33.703463,-16.121663],[33.704072,-16.121662]]}},{"type":"Feature","properties":{"osm_id":259656633,"railway":"rail","name":null,"usage":null},"geometry":{"type":"LineString","coordinates":[[33.701655,-16.121955],[33.701966,-16.121879],[33.702078,-16.121817],[33.702191,-16.121728],[33.70227,-16.121656],[33.702331,-16.121574],[33.702393,-16.121475],[33.702439,-16.121377],[33.702474,-16.121269],[33.702495,-16.121165],[33.702494,-16.12103],[33.702484,-16.12092],[33.702454,-16.120792],[33.702164,-16.120127]]}},{"type":"Feature","properties":{"osm_id":259656634,"railway":"rail","name":null,"usage":null},"geometry":{"type":"LineString","coordinates":[[33.730572,-16.122595],[33.730479,-16.122363],[33.730368,-16.122131],[33.730203,-16.121907],[33.730057,-16.121762],[33.729928,-16.121656],[33.729772,-16.121572],[33.729647,-16.121524],[33.729533,-16.121491],[33.728862,-16.121295],[33.728658,-16.121237],[33.728464,-16.121181],[33.72834,-16.121146],[33.728079,-16.12107],[33.726496,-16.120613],[33.726194,-16.120531],[33.725882,-16.120509]]}},{"type":"Feature","properties":{"osm_id":324770219,"railway":"rail","name":null,"usage":null},"geometry":{"type":"LineString","coordinates":[[33.734275,-16.119707],[33.733654,-16.119809],[33.726735,-16.120465],[33.726245,-16.120467]]}},{"type":"Feature","properties":{"osm_id":324770220,"railway":"rail","name":null,"usage":null},"geometry":{"type":"LineString","coordinates":[[33.73536,-16.119599],[33.73502,-16.119592],[33.726116,-16.12043]]}},{"type":"Feature","properties":{"osm_id":324770223,"railway":"rail","name":null,"usage":null},"geometry":{"type":"LineString","coordinates":[[33.726116,-16.12043],[33.726813,-16.120319],[33.727481,-16.120255]]}},{"type":"Feature","properties":{"osm_id":324770227,"railway":"rail","name":null,"usage":null},"geometry":{"type":"LineString","coordinates":[[33.733307,-16.119882],[33.733096,-16.119961],[33.732942,-16.12003],[33.732688,-16.120174],[33.732427,-16.120327],[33.731042,-16.121212],[33.730891,-16.121356],[33.730786,-16.121485],[33.730661,-16.121708],[33.730569,-16.121993],[33.730537,-16.12228],[33.730572,-16.122595],[33.73086,-16.123491],[33.731145,-16.124411]]}},{"type":"Feature","properties":{"osm_id":346003263,"railway":"rail","name":null,"usage":null},"geometry":{"type":"LineString","coordinates":[[33.973402,-16.069587],[33.973651,-16.06935],[33.973885,-16.069158],[33.975426,-16.067942],[33.976866,-16.066807],[33.977931,-16.065951],[33.978154,-16.065756],[33.978347,-16.065582],[33.978481,-16.065449],[33.978647,-16.065285],[33.978864,-16.065043],[33.979094,-16.064797],[33.979248,-16.064656]]}},{"type":"Feature","properties":{"osm_id":346003265,"railway":"rail","name":null,"usage":null},"geometry":{"type":"LineString","coordinates":[[33.980655,-16.062282],[33.980481,-16.062691],[33.9803,-16.063061],[33.980086,-16.063462],[33.979922,-16.063751],[33.979678,-16.064142],[33.979516,-16.064384],[33.979339,-16.064618],[33.979065,-16.064953],[33.97879,-16.06526],[33.978484,-16.065568],[33.978205,-16.065827],[33.977954,-16.066038],[33.977604,-16.06632],[33.977051,-16.06676],[33.976028,-16.067573],[33.975076,-16.068323],[33.973805,-16.069328],[33.97345,-16.069599],[33.973236,-16.069746],[33.972937,-16.069949]]}},{"type":"Feature","properties":{"osm_id":346182805,"railway":"rail","name":null,"usage":"main"},"geometry":{"type":"LineString","coordinates":[[33.795134,-16.162301],[33.795017,-16.161795],[33.794669,-16.160222],[33.794448,-16.159274],[33.793296,-16.154094],[33.792893,-16.152237],[33.792578,-16.150792],[33.7921,-16.148658],[33.79112,-16.144376],[33.790956,-16.14365],[33.790899,-16.143148],[33.790909,-16.142603],[33.790992,-16.142077],[33.791117,-16.14143],[33.791353,-16.140138]]}},{"type":"Feature","properties":{"osm_id":346364303,"railway":"rail","name":null,"usage":"main"},"geometry":{"type":"LineString","coordinates":[[33.809314,-16.12432],[33.809054,-16.124614],[33.808761,-16.124892],[33.808431,-16.125126],[33.808073,-16.125333],[33.807682,-16.125497],[33.807286,-16.125629],[33.805245,-16.12608],[33.8045,-16.126261],[33.803888,-16.126467],[33.803309,-16.126696],[33.802606,-16.127041],[33.801995,-16.127423],[33.801498,-16.127776],[33.800951,-16.128224],[33.800219,-16.128807],[33.799767,-16.129181],[33.799763,-16.129185],[33.798392,-16.130229],[33.795372,-16.132385],[33.794159,-16.133256],[33.7936,-16.133651],[33.793355,-16.133864],[33.792958,-16.134308],[33.792607,-16.134846],[33.792389,-16.135272],[33.792276,-16.135585],[33.792231,-16.135725],[33.792179,-16.135884],[33.792127,-16.136092],[33.791884,-16.137293],[33.791806,-16.137787],[33.791453,-16.139634],[33.791353,-16.140138]]}},{"type":"Feature","properties":{"osm_id":346365622,"railway":"rail","name":null,"usage":"main"},"geometry":{"type":"LineString","coordinates":[[33.965666,-16.004599],[33.965138,-16.004961],[33.960907,-16.007866],[33.959728,-16.008685],[33.959163,-16.009094],[33.958446,-16.009655],[33.958007,-16.010114],[33.957588,-16.010685],[33.956746,-16.012068],[33.955909,-16.01346],[33.954372,-16.016089],[33.953039,-16.018315],[33.951564,-16.020632],[33.951086,-16.021431],[33.950597,-16.022303],[33.949624,-16.023987],[33.948966,-16.025067],[33.948291,-16.02606],[33.947405,-16.027161],[33.94405,-16.031202],[33.943192,-16.032225],[33.938516,-16.03775],[33.933981,-16.043136],[33.931954,-16.045621],[33.931035,-16.046721],[33.929566,-16.04826],[33.923219,-16.054541],[33.920106,-16.057655],[33.916703,-16.061033],[33.907437,-16.070178]]}},{"type":"Feature","properties":{"osm_id":398188344,"railway":"rail","name":null,"usage":null},"geometry":{"type":"LineString","coordinates":[[33.70091,-16.122058],[33.70065,-16.12214],[33.700363,-16.122264],[33.700042,-16.122449],[33.699618,-16.122704],[33.699308,-16.122829],[33.698834,-16.122933],[33.696456,-16.123225],[33.696028,-16.123227],[33.695636,-16.123168],[33.695269,-16.123061],[33.694923,-16.122906],[33.694591,-16.122717],[33.693752,-16.121961]]}},{"type":"Feature","properties":{"osm_id":398188345,"railway":"rail","name":null,"usage":null},"geometry":{"type":"LineString","coordinates":[[33.701419,-16.121988],[33.701025,-16.121979],[33.700677,-16.121925],[33.700348,-16.121811],[33.699979,-16.121711],[33.699697,-16.121669],[33.699386,-16.121647],[33.698953,-16.12167],[33.695986,-16.12204],[33.695756,-16.122107],[33.6955,-16.122205],[33.69522,-16.122278],[33.694993,-16.122315],[33.694797,-16.122326],[33.694618,-16.122315],[33.694465,-16.122279],[33.694315,-16.122241],[33.694049,-16.122137]]}},{"type":"Feature","properties":{"osm_id":417197999,"railway":"rail","name":null,"usage":"main"},"geometry":{"type":"LineString","coordinates":[[33.796877,-16.131891],[33.796942,-16.131835],[33.797615,-16.131257],[33.798441,-16.130541],[33.799133,-16.129967],[33.799812,-16.12938],[33.801263,-16.128135],[33.801622,-16.127855],[33.801852,-16.127688],[33.802165,-16.127487],[33.802456,-16.127311],[33.802721,-16.127163],[33.803084,-16.126976],[33.803393,-16.126828],[33.803631,-16.126726],[33.80394,-16.126603],[33.804307,-16.12647],[33.804748,-16.126331],[33.804962,-16.126277],[33.805305,-16.126195],[33.805668,-16.126128],[33.805959,-16.126087],[33.806236,-16.126059],[33.806543,-16.126035],[33.806833,-16.126017],[33.80707,-16.12601],[33.807408,-16.126009],[33.807965,-16.126026],[33.809706,-16.126096],[33.81164,-16.126166],[33.815502,-16.126316],[33.81969,-16.126468],[33.82302,-16.126594],[33.823694,-16.126603],[33.824138,-16.126589],[33.824513,-16.126559],[33.824889,-16.126508],[33.825288,-16.126446],[33.825751,-16.126353],[33.826153,-16.126246],[33.826517,-16.12614],[33.82993,-16.125018],[33.832061,-16.12429],[33.832798,-16.124065],[33.833099,-16.123986],[33.833445,-16.123907],[33.833939,-16.123813],[33.834316,-16.123759],[33.834669,-16.123727],[33.835134,-16.123705],[33.837471,-16.123631],[33.843662,-16.123437],[33.848711,-16.1233],[33.849048,-16.12327],[33.84931,-16.12324],[33.849552,-16.123192],[33.849815,-16.123118],[33.850021,-16.12305],[33.850249,-16.122969],[33.850479,-16.122867],[33.850681,-16.12276],[33.850927,-16.122618],[33.851146,-16.122482],[33.851366,-16.122322],[33.851517,-16.122194],[33.851712,-16.122014],[33.852674,-16.12105],[33.853972,-16.119743],[33.856168,-16.117453],[33.856305,-16.117324],[33.856489,-16.11718],[33.856646,-16.117075],[33.856801,-16.116983],[33.85697,-16.116894],[33.857099,-16.116836],[33.857246,-16.116781],[33.857436,-16.116717],[33.857598,-16.116678],[33.85782,-16.11664],[33.858031,-16.116624],[33.858232,-16.116617],[33.858455,-16.116623],[33.858677,-16.116647],[33.858893,-16.116694],[33.859117,-16.116759],[33.859295,-16.116826],[33.859659,-16.117006],[33.859807,-16.117101],[33.860117,-16.117337],[33.861467,-16.118689],[33.861805,-16.119013],[33.862059,-16.119215],[33.862237,-16.119334],[33.862427,-16.119436],[33.862614,-16.119523],[33.862812,-16.119597],[33.862993,-16.119651],[33.863171,-16.119692],[33.863376,-16.119726],[33.863523,-16.119734],[33.863737,-16.119732],[33.863931,-16.119718],[33.864101,-16.119692],[33.864311,-16.11965],[33.864496,-16.119593],[33.864699,-16.119516],[33.86489,-16.119435],[33.86506,-16.11935],[33.865241,-16.119239],[33.865428,-16.119096],[33.865616,-16.118927],[33.865798,-16.118746],[33.86676,-16.117687],[33.86773,-16.116606],[33.868412,-16.115858],[33.870826,-16.11314],[33.87112,-16.112871],[33.871376,-16.112649],[33.871657,-16.112447],[33.871903,-16.112301],[33.872143,-16.112168],[33.87244,-16.112024],[33.872745,-16.111916],[33.873108,-16.111809],[33.873414,-16.111732],[33.873751,-16.111687],[33.874034,-16.111671],[33.874385,-16.111665],[33.87465,-16.111684],[33.876367,-16.111944],[33.881647,-16.112808],[33.882222,-16.112891],[33.882601,-16.112935],[33.882886,-16.112955],[33.883155,-16.112949],[33.88346,-16.112931],[33.88378,-16.112892],[33.884095,-16.112829],[33.884476,-16.112734],[33.885088,-16.112548],[33.887352,-16.111871],[33.891398,-16.110657],[33.899716,-16.10815],[33.902107,-16.107419],[33.903959,-16.106862],[33.905511,-16.10639],[33.907411,-16.105825],[33.908937,-16.105363],[33.910197,-16.104977],[33.910601,-16.104865],[33.91091,-16.104792],[33.911234,-16.104718],[33.911532,-16.104669],[33.911883,-16.104621],[33.912189,-16.104588],[33.912791,-16.104548],[33.91372,-16.104483],[33.914694,-16.104412],[33.916373,-16.104282],[33.918034,-16.10415],[33.919865,-16.104],[33.92194,-16.103848],[33.922311,-16.103817],[33.922681,-16.103765],[33.922981,-16.103695],[33.923292,-16.103597],[33.923543,-16.103505],[33.923743,-16.103426],[33.923992,-16.103309],[33.924211,-16.103179],[33.924419,-16.103046],[33.924582,-16.102938],[33.924758,-16.102802],[33.924939,-16.102639],[33.925167,-16.10242],[33.92535,-16.102222],[33.925526,-16.102001],[33.925762,-16.101675],[33.92604,-16.101282],[33.926383,-16.100793],[33.927271,-16.099528],[33.928884,-16.097234],[33.92994,-16.095734],[33.931113,-16.094078],[33.931908,-16.092934],[33.932645,-16.091876],[33.933332,-16.090924],[33.933546,-16.090668],[33.933752,-16.090487],[33.933976,-16.090306],[33.934173,-16.090152],[33.934456,-16.089993],[33.9347,-16.089873],[33.935016,-16.089746],[33.935386,-16.089647],[33.93572,-16.089579],[33.936025,-16.089548],[33.93632,-16.089537],[33.936554,-16.089552],[33.936856,-16.089587],[33.937144,-16.089642],[33.937492,-16.089743],[33.938681,-16.090106],[33.942546,-16.09127],[33.942939,-16.091358],[33.94345,-16.091441],[33.943772,-16.09147],[33.944093,-16.091465],[33.944433,-16.091438],[33.944791,-16.09139],[33.945098,-16.091331],[33.945419,-16.091231],[33.945742,-16.091113],[33.946034,-16.09098],[33.946312,-16.090827],[33.946641,-16.09061],[33.946999,-16.090341],[33.947654,-16.089825],[33.950387,-16.087646],[33.962257,-16.078328],[33.964163,-16.07683],[33.966662,-16.074885],[33.967488,-16.074221],[33.968785,-16.073213],[33.970379,-16.07197],[33.971726,-16.070909],[33.972937,-16.069949],[33.973402,-16.069587]]}},{"type":"Feature","properties":{"osm_id":603828980,"railway":"rail","name":null,"usage":null},"geometry":{"type":"LineString","coordinates":[[33.791724,-16.138543],[33.791651,-16.13894],[33.791453,-16.139634]]}},{"type":"Feature","properties":{"osm_id":622099436,"railway":"rail","name":null,"usage":"main"},"geometry":{"type":"LineString","coordinates":[[33.809786,-16.123702],[33.809314,-16.12432]]}},{"type":"Feature","properties":{"osm_id":678526363,"railway":"rail","name":null,"usage":"main"},"geometry":{"type":"LineString","coordinates":[[33.73536,-16.119599],[33.736493,-16.119506],[33.739514,-16.119248],[33.740745,-16.11916],[33.741116,-16.119153],[33.741482,-16.119172],[33.741757,-16.11921],[33.742055,-16.119263],[33.742398,-16.119349],[33.742675,-16.119441],[33.742899,-16.119536],[33.743167,-16.119656],[33.743557,-16.119857],[33.743955,-16.120089],[33.745155,-16.120806],[33.749203,-16.123175],[33.751289,-16.124402],[33.751581,-16.12461],[33.751806,-16.124813],[33.752019,-16.125041],[33.752292,-16.125379],[33.752492,-16.125694],[33.752689,-16.126082],[33.752825,-16.126506],[33.752931,-16.126971],[33.752991,-16.127435],[33.753115,-16.128323],[33.753191,-16.128933],[33.753837,-16.133348],[33.753864,-16.133743],[33.75387,-16.134169],[33.753846,-16.134583],[33.753712,-16.135621],[33.753483,-16.137104],[33.753467,-16.137208],[33.753314,-16.138248],[33.753295,-16.138625],[33.753312,-16.138934],[33.75336,-16.139253],[33.753396,-16.139421]]}},{"type":"Feature","properties":{"osm_id":679342689,"railway":"rail","name":null,"usage":"main"},"geometry":{"type":"LineString","coordinates":[[33.877329,-16.10009],[33.876883,-16.100519]]}},{"type":"Feature","properties":{"osm_id":679342690,"railway":"rail","name":null,"usage":"main"},"geometry":{"type":"LineString","coordinates":[[33.876883,-16.100519],[33.876255,-16.101045],[33.875819,-16.101477],[33.875338,-16.102024],[33.873235,-16.105054],[33.873037,-16.105339],[33.872806,-16.105624],[33.872549,-16.105874],[33.872279,-16.106114],[33.871562,-16.106661],[33.870838,-16.107226],[33.870607,-16.107463],[33.870376,-16.1077],[33.870052,-16.108142],[33.869366,-16.109206],[33.869,-16.109658],[33.868659,-16.109973],[33.86829,-16.110247],[33.867905,-16.110476],[33.867565,-16.110623],[33.86716,-16.110746],[33.866718,-16.110833],[33.86585,-16.110864],[33.865109,-16.11073],[33.864656,-16.11056],[33.864202,-16.110351],[33.861105,-16.108685],[33.860008,-16.10808],[33.859564,-16.107883],[33.859085,-16.107716],[33.858558,-16.107569],[33.858078,-16.107496],[33.857658,-16.107471],[33.856879,-16.107513],[33.856174,-16.107636],[33.855693,-16.107748],[33.855066,-16.107989],[33.854508,-16.108234],[33.854011,-16.108516],[33.852401,-16.109365],[33.850801,-16.110228],[33.848613,-16.1114],[33.847023,-16.112244],[33.845466,-16.113071],[33.84369,-16.114029],[33.83781,-16.117184],[33.837336,-16.117404],[33.836987,-16.117551],[33.836714,-16.117638],[33.836515,-16.117687],[33.836276,-16.117728],[33.836016,-16.117764],[33.835735,-16.117777],[33.835423,-16.117764],[33.835177,-16.117741],[33.834882,-16.11769],[33.834597,-16.11762],[33.834267,-16.117515],[33.833412,-16.117164],[33.832805,-16.11693],[33.832515,-16.116804],[33.832112,-16.116656],[33.831584,-16.116474],[33.83102,-16.116323],[33.830216,-16.116164],[33.829648,-16.116097],[33.829114,-16.116061],[33.828648,-16.116059],[33.828142,-16.116076],[33.827689,-16.116105],[33.827383,-16.116135],[33.822874,-16.116519],[33.817317,-16.116996],[33.81663,-16.117102],[33.816074,-16.117251],[33.815583,-16.117429],[33.815005,-16.117721],[33.814515,-16.118029],[33.814196,-16.118246],[33.813916,-16.118476],[33.813609,-16.118773],[33.813366,-16.11906],[33.813026,-16.119479],[33.812379,-16.120333],[33.811705,-16.1212],[33.811045,-16.122064],[33.810484,-16.122778],[33.809786,-16.123702]]}},{"type":"Feature","properties":{"osm_id":679342691,"railway":"rail","name":null,"usage":"main"},"geometry":{"type":"LineString","coordinates":[[33.907051,-16.070562],[33.90614,-16.07151],[33.905486,-16.072242],[33.904817,-16.07328],[33.904402,-16.074128],[33.90413,-16.074888],[33.90214,-16.08321],[33.901485,-16.085915],[33.901143,-16.087285],[33.900921,-16.087866],[33.90063,-16.088459],[33.900117,-16.089195],[33.899645,-16.089712],[33.89424,-16.094901],[33.891149,-16.097796],[33.890724,-16.098191],[33.890244,-16.098552],[33.889833,-16.098764],[33.889471,-16.098914],[33.88906,-16.09903],[33.888626,-16.09909],[33.888215,-16.099108],[33.887842,-16.09909],[33.887559,-16.099049],[33.887279,-16.098994],[33.886925,-16.098893],[33.886482,-16.098713],[33.886112,-16.09851],[33.885519,-16.098099],[33.884583,-16.097453],[33.884217,-16.097234],[33.883943,-16.097109],[33.883451,-16.09694],[33.883024,-16.09686],[33.882505,-16.096827],[33.88204,-16.09684],[33.881624,-16.096923],[33.881139,-16.097052],[33.880711,-16.097226],[33.880388,-16.097417],[33.880064,-16.097646],[33.877329,-16.10009]]}},{"type":"Feature","properties":{"osm_id":679342692,"railway":"rail","name":null,"usage":"main"},"geometry":{"type":"LineString","coordinates":[[33.907437,-16.070178],[33.907051,-16.070562]]}},{"type":"Feature","properties":{"osm_id":838081127,"railway":"rail","name":null,"usage":"main"},"geometry":{"type":"LineString","coordinates":[[33.792352,-16.135658],[33.792603,-16.135491],[33.792783,-16.135369],[33.792987,-16.135213],[33.793368,-16.134892],[33.793627,-16.134668],[33.794102,-16.134262],[33.796877,-16.131891]]}},{"type":"Feature","properties":{"osm_id":838081128,"railway":"rail","name":null,"usage":"main"},"geometry":{"type":"LineString","coordinates":[[33.792089,-16.135805],[33.792219,-16.135738],[33.792352,-16.135658]]}},{"type":"Feature","properties":{"osm_id":838081129,"railway":"rail","name":null,"usage":"main"},"geometry":{"type":"LineString","coordinates":[[33.753602,-16.140036],[33.753811,-16.1404],[33.754,-16.140691],[33.754259,-16.141004],[33.754449,-16.141202],[33.754726,-16.141455],[33.754997,-16.141647],[33.755212,-16.141778],[33.755474,-16.1419],[33.755671,-16.141972],[33.756479,-16.142193],[33.7597,-16.143061],[33.767067,-16.145067],[33.769171,-16.145654],[33.770505,-16.146008],[33.771049,-16.146113],[33.771622,-16.146187],[33.772218,-16.146226],[33.772766,-16.146234],[33.773193,-16.146231],[33.773732,-16.146177],[33.774423,-16.146065],[33.77493,-16.145965],[33.775487,-16.145808],[33.776031,-16.145618],[33.776573,-16.1454],[33.777055,-16.145163],[33.777605,-16.144858],[33.777787,-16.144742]]}},{"type":"Feature","properties":{"osm_id":838081130,"railway":"rail","name":null,"usage":"main"},"geometry":{"type":"LineString","coordinates":[[33.753396,-16.139421],[33.753459,-16.139649],[33.753525,-16.139852],[33.753602,-16.140036]]}},{"type":"Feature","properties":{"osm_id":1001465503,"railway":"rail","name":null,"usage":null},"geometry":{"type":"LineString","coordinates":[[33.692715,-16.121183],[33.693023,-16.1215],[33.693156,-16.121618],[33.693252,-16.121685],[33.693393,-16.121761],[33.693526,-16.121816]]}},{"type":"Feature","properties":{"osm_id":1001465504,"railway":"rail","name":null,"usage":null},"geometry":{"type":"LineString","coordinates":[[33.725314,-16.120545],[33.725351,-16.120541],[33.725654,-16.120535]]}},{"type":"Feature","properties":{"osm_id":1075921654,"railway":"rail","name":null,"usage":"main"},"geometry":{"type":"LineString","coordinates":[[33.778142,-16.144504],[33.778405,-16.144313],[33.77921,-16.143625],[33.779841,-16.142996],[33.780283,-16.142444],[33.781927,-16.140295],[33.782949,-16.138997],[33.783458,-16.138343],[33.783702,-16.138043],[33.783986,-16.137746],[33.784393,-16.137417],[33.784925,-16.137074],[33.785368,-16.136883],[33.785806,-16.136717],[33.786313,-16.136599],[33.786893,-16.136527],[33.78915,-16.136383],[33.790272,-16.136293],[33.790895,-16.136204],[33.791492,-16.136057],[33.791894,-16.135895],[33.792089,-16.135805]]}},{"type":"Feature","properties":{"osm_id":1075921655,"railway":"rail","name":null,"usage":"main"},"geometry":{"type":"LineString","coordinates":[[33.777787,-16.144742],[33.77803,-16.144586],[33.778142,-16.144504]]}},{"type":"Feature","properties":{"osm_id":1088920084,"railway":"rail","name":null,"usage":"main"},"geometry":{"type":"LineString","coordinates":[[33.725654,-16.120535],[33.725882,-16.120509],[33.726245,-16.120467],[33.734275,-16.119707],[33.73536,-16.119599]]}},{"type":"Feature","properties":{"osm_id":1088920085,"railway":"rail","name":null,"usage":null},"geometry":{"type":"LineString","coordinates":[[33.726116,-16.12043],[33.725351,-16.120541]]}},{"type":"Feature","properties":{"osm_id":1088920098,"railway":"rail","name":null,"usage":"main"},"geometry":{"type":"LineString","coordinates":[[33.979248,-16.064656],[33.979332,-16.064542],[33.97949,-16.064321],[33.979596,-16.064159],[33.979745,-16.063931],[33.979959,-16.063566],[33.980118,-16.063287],[33.980286,-16.062983],[33.980507,-16.062561],[33.980655,-16.062282],[33.980796,-16.062018],[33.981264,-16.061144],[33.982153,-16.059441],[33.983079,-16.057658],[33.984049,-16.055823],[33.985944,-16.052185],[33.986434,-16.051269],[33.986586,-16.051017],[33.986737,-16.050792],[33.986888,-16.050587],[33.987081,-16.050351],[33.987291,-16.050123],[33.98758,-16.049851],[33.987853,-16.049625],[33.988191,-16.049386],[33.988605,-16.049136],[33.989017,-16.048923],[33.98941,-16.048762],[33.989738,-16.048656],[33.990125,-16.04856],[33.991127,-16.048377],[33.9931,-16.048033],[33.995298,-16.047643],[33.997216,-16.047293],[33.999998,-16.0468],[34.003718,-16.046135],[34.013511,-16.044395],[34.021468,-16.04299],[34.021864,-16.04292],[34.023552,-16.042619],[34.024093,-16.042493],[34.024591,-16.042348],[34.025027,-16.042201],[34.02536,-16.042056],[34.025974,-16.041767],[34.026634,-16.041412],[34.029864,-16.039681],[34.031259,-16.038923],[34.032611,-16.038248],[34.037069,-16.035856],[34.040753,-16.033945],[34.041194,-16.033755],[34.042329,-16.033332],[34.043689,-16.03285],[34.048178,-16.031218],[34.051352,-16.030081],[34.05272,-16.029594],[34.054168,-16.029068],[34.057331,-16.027906]]}},{"type":"Feature","properties":{"osm_id":1088920099,"railway":"rail","name":null,"usage":"main"},"geometry":{"type":"LineString","coordinates":[[33.973402,-16.069587],[33.974722,-16.06855],[33.976035,-16.067513],[33.976878,-16.066846],[33.977967,-16.065973],[33.978169,-16.065793],[33.978397,-16.065588],[33.978668,-16.065322],[33.978908,-16.065057],[33.979121,-16.064812],[33.979248,-16.064656]]}},{"type":"Feature","properties":{"osm_id":1209004907,"railway":"rail","name":null,"usage":null},"geometry":{"type":"LineString","coordinates":[[33.795134,-16.162301],[33.795038,-16.161684],[33.794857,-16.160851],[33.792772,-16.151424],[33.791115,-16.144138],[33.791018,-16.143697],[33.790972,-16.14332],[33.790958,-16.142887],[33.790986,-16.142493],[33.791042,-16.142123],[33.791447,-16.139997],[33.791651,-16.13894]]}},{"type":"Feature","properties":{"osm_id":1209004908,"railway":"rail","name":null,"usage":null},"geometry":{"type":"LineString","coordinates":[[33.791447,-16.139997],[33.791431,-16.140308],[33.791075,-16.142205],[33.791036,-16.142505],[33.791006,-16.142778],[33.791006,-16.143106],[33.79104,-16.143477],[33.791089,-16.143802],[33.792998,-16.152234],[33.795072,-16.161583],[33.79513,-16.16182],[33.795189,-16.162097],[33.795221,-16.16245],[33.795038,-16.161684]]}},{"type":"Feature","properties":{"osm_id":1209004909,"railway":"rail","name":null,"usage":null},"geometry":{"type":"LineString","coordinates":[[33.795072,-16.161583],[33.795005,-16.160978],[33.791137,-16.143834],[33.791076,-16.143402],[33.79105,-16.143026],[33.79106,-16.142699],[33.791102,-16.142311],[33.791392,-16.140787],[33.791431,-16.140308]]}},{"type":"Feature","properties":{"osm_id":1209004910,"railway":"rail","name":null,"usage":null},"geometry":{"type":"LineString","coordinates":[[33.791353,-16.140138],[33.791212,-16.140597],[33.79107,-16.141288],[33.790869,-16.142394],[33.790837,-16.142772],[33.790839,-16.143128],[33.790877,-16.143553],[33.790952,-16.143973],[33.791049,-16.144352],[33.792261,-16.149608],[33.792408,-16.150265],[33.792921,-16.152607],[33.793006,-16.152991],[33.793088,-16.153377],[33.793155,-16.153682],[33.794599,-16.160166],[33.794854,-16.161312],[33.795017,-16.161795]]}},{"type":"Feature","properties":{"osm_id":1209004911,"railway":"rail","name":null,"usage":null},"geometry":{"type":"LineString","coordinates":[[33.794857,-16.160851],[33.794669,-16.160222]]}},{"type":"Feature","properties":{"osm_id":1209004912,"railway":"rail","name":null,"usage":null},"geometry":{"type":"LineString","coordinates":[[33.793296,-16.154094],[33.793155,-16.153682]]}},{"type":"Feature","properties":{"osm_id":1209004913,"railway":"rail","name":null,"usage":null},"geometry":{"type":"LineString","coordinates":[[33.793088,-16.153377],[33.793143,-16.153996]]}},{"type":"Feature","properties":{"osm_id":1209004914,"railway":"rail","name":null,"usage":null},"geometry":{"type":"LineString","coordinates":[[33.793006,-16.152991],[33.792817,-16.152466]]}},{"type":"Feature","properties":{"osm_id":1209004915,"railway":"rail","name":null,"usage":null},"geometry":{"type":"LineString","coordinates":[[33.792921,-16.152607],[33.792893,-16.152237]]}},{"type":"Feature","properties":{"osm_id":1209004916,"railway":"rail","name":null,"usage":null},"geometry":{"type":"LineString","coordinates":[[33.792408,-16.150265],[33.792475,-16.150875]]}},{"type":"Feature","properties":{"osm_id":1209004917,"railway":"rail","name":null,"usage":null},"geometry":{"type":"LineString","coordinates":[[33.792261,-16.149608],[33.792032,-16.148938]]}},{"type":"Feature","properties":{"osm_id":1209004918,"railway":"rail","name":null,"usage":null},"geometry":{"type":"LineString","coordinates":[[33.791212,-16.140597],[33.791038,-16.141216],[33.790827,-16.142282],[33.790789,-16.142635],[33.790785,-16.143023],[33.790809,-16.143399],[33.790873,-16.143802],[33.790954,-16.144188],[33.792032,-16.148938],[33.792475,-16.150875],[33.792662,-16.151738],[33.792817,-16.152466],[33.793143,-16.153996],[33.793499,-16.155545],[33.794418,-16.159672],[33.794645,-16.160709],[33.794891,-16.161786],[33.795112,-16.162437],[33.794854,-16.161312]]}},{"type":"Feature","properties":{"osm_id":1209004919,"railway":"rail","name":null,"usage":null},"geometry":{"type":"LineString","coordinates":[[33.794418,-16.159672],[33.794599,-16.160166]]}},{"type":"Feature","properties":{"osm_id":1209004920,"railway":"rail","name":null,"usage":null},"geometry":{"type":"LineString","coordinates":[[33.794645,-16.160709],[33.79448,-16.16018],[33.793545,-16.156035],[33.793499,-16.155545]]}},{"type":"Feature","properties":{"osm_id":1209004921,"railway":"rail","name":null,"usage":null},"geometry":{"type":"LineString","coordinates":[[33.795134,-16.162301],[33.796512,-16.168516],[33.796613,-16.168848],[33.796846,-16.169322],[33.797124,-16.169691],[33.797367,-16.169929],[33.797832,-16.170254],[33.798301,-16.170472],[33.798775,-16.170573],[33.79922,-16.170609],[33.799608,-16.170583],[33.800057,-16.170485],[33.800481,-16.170321],[33.800843,-16.170105],[33.801163,-16.169864],[33.801535,-16.169446],[33.801783,-16.169024],[33.801962,-16.168511],[33.802032,-16.168094],[33.802026,-16.167645],[33.801968,-16.167231],[33.801845,-16.166847],[33.801594,-16.166404],[33.801262,-16.166007],[33.800825,-16.165655],[33.800393,-16.165424],[33.799874,-16.16525],[33.797216,-16.16462],[33.79675,-16.16446],[33.796414,-16.164267],[33.79609,-16.164019],[33.79581,-16.163728],[33.795573,-16.163387],[33.795428,-16.163114],[33.795297,-16.162749],[33.795221,-16.16245]]}},{"type":"Feature","properties":{"osm_id":1209004922,"railway":"rail","name":null,"usage":null},"geometry":{"type":"LineString","coordinates":[[33.795189,-16.162097],[33.795343,-16.162724],[33.795474,-16.163079],[33.795625,-16.163366],[33.795846,-16.163683],[33.79612,-16.163969],[33.796442,-16.164221],[33.796752,-16.164403],[33.797255,-16.164586],[33.797703,-16.164685],[33.799264,-16.165054],[33.799854,-16.165199],[33.800407,-16.165378],[33.800829,-16.165596],[33.801308,-16.165978],[33.80164,-16.166383],[33.80189,-16.166819],[33.802022,-16.167216],[33.802073,-16.167632],[33.802073,-16.168088],[33.80202,-16.168533],[33.801823,-16.169064],[33.801584,-16.169481],[33.80121,-16.169899],[33.80088,-16.170138],[33.800518,-16.170363],[33.800065,-16.170531],[33.7996,-16.17063],[33.79926,-16.170655],[33.798753,-16.17063],[33.798289,-16.170525],[33.7978,-16.1703],[33.797339,-16.169979],[33.79709,-16.169746],[33.796786,-16.169358],[33.796562,-16.168889],[33.796351,-16.168362],[33.796208,-16.167878],[33.795498,-16.164422],[33.795112,-16.162437]]}},{"type":"Feature","properties":{"osm_id":1209004923,"railway":"rail","name":null,"usage":null},"geometry":{"type":"LineString","coordinates":[[33.791806,-16.137787],[33.791724,-16.138543]]}},{"type":"Feature","properties":{"osm_id":1209013350,"railway":"rail","name":null,"usage":null},"geometry":{"type":"LineString","coordinates":[[33.733654,-16.119809],[33.733307,-16.119882]]}},{"type":"Feature","properties":{"osm_id":1209013351,"railway":"rail","name":null,"usage":null},"geometry":{"type":"LineString","coordinates":[[33.735692,-16.119535],[33.735188,-16.119522],[33.729444,-16.120035]]}},{"type":"Feature","properties":{"osm_id":1209013352,"railway":"rail","name":null,"usage":null},"geometry":{"type":"LineString","coordinates":[[33.736493,-16.119506],[33.736165,-16.119495]]}}]}