{"type":"FeatureCollection","features":[{"type":"Feature","properties":{"ano":2015,"camada":"reassentamento","area_km2":0.0018},"geometry":{"type":"Polygon","coordinates":[[[33.973628,-16.080814],[33.973629,-16.081085],[33.97419,-16.081083],[33.974189,-16.080812],[33.973628,-16.080814]]]}},{"type":"Feature","properties":{"ano":2015,"camada":"reassentamento","area_km2":0.0009},"geometry":{"type":"Polygon","coordinates":[[[33.972789,-16.08136],[33.97279,-16.081632],[33.973071,-16.08163],[33.973069,-16.081359],[33.972789,-16.08136]]]}},{"type":"Feature","properties":{"ano":2015,"camada":"reassentamento","area_km2":0.009},"geometry":{"type":"Polygon","coordinates":[[[33.980106,-16.086479],[33.980113,-16.087835],[33.980674,-16.087833],[33.980667,-16.086477],[33.980106,-16.086479]]]}},{"type":"Feature","properties":{"ano":2015,"camada":"reassentamento","area_km2":0.0009},"geometry":{"type":"Polygon","coordinates":[[[33.974232,-16.08976],[33.974233,-16.090031],[33.974514,-16.09003],[33.974513,-16.089759],[33.974232,-16.08976]]]}},{"type":"Feature","properties":{"ano":2015,"camada":"reassentamento","area_km2":0.0234},"geometry":{"type":"Polygon","coordinates":[[[33.981812,-16.091082],[33.981814,-16.091624],[33.980694,-16.0919],[33.980695,-16.092171],[33.980136,-16.092445],[33.980138,-16.092987],[33.98098,-16.092984],[33.980978,-16.092712],[33.981539,-16.09271],[33.981538,-16.092439],[33.981818,-16.092437],[33.981817,-16.092166],[33.982377,-16.091892],[33.982373,-16.091079],[33.981812,-16.091082]]]}},{"type":"Feature","properties":{"ano":2015,"camada":"reassentamento","area_km2":0.0459},"geometry":{"type":"Polygon","coordinates":[[[33.977048,-16.091917],[33.977339,-16.094085],[33.976778,-16.094088],[33.97678,-16.09463],[33.977061,-16.094629],[33.977059,-16.094357],[33.978181,-16.094352],[33.978183,-16.094623],[33.978744,-16.094621],[33.97874,-16.093807],[33.97986,-16.093531],[33.979858,-16.092989],[33.977612,-16.092728],[33.97761,-16.092185],[33.977048,-16.091917]]]}},{"type":"Feature","properties":{"ano":2015,"camada":"reassentamento","area_km2":0.0045},"geometry":{"type":"Polygon","coordinates":[[[33.979028,-16.095433],[33.979032,-16.096247],[33.979593,-16.096244],[33.97959,-16.095702],[33.979028,-16.095433]]]}},{"type":"Feature","properties":{"ano":2015,"camada":"reassentamento","area_km2":0.0009},"geometry":{"type":"Polygon","coordinates":[[[33.977916,-16.097336],[33.977917,-16.097608],[33.978197,-16.097606],[33.978196,-16.097335],[33.977916,-16.097336]]]}},{"type":"Feature","properties":{"ano":2015,"camada":"reassentamento","area_km2":0.0009},"geometry":{"type":"Polygon","coordinates":[[[33.975677,-16.098431],[33.975678,-16.098703],[33.975959,-16.098701],[33.975957,-16.09843],[33.975677,-16.098431]]]}},{"type":"Feature","properties":{"ano":2015,"camada":"reassentamento","area_km2":1.2249},"geometry":{"type":"Polygon","coordinates":[[[33.969704,-16.081374],[33.969705,-16.081646],[33.969144,-16.081648],[33.969148,-16.082462],[33.968307,-16.082465],[33.968305,-16.082194],[33.968025,-16.082196],[33.96803,-16.08328],[33.967469,-16.083283],[33.96747,-16.083554],[33.966629,-16.083558],[33.966633,-16.084371],[33.965512,-16.084647],[33.965514,-16.084919],[33.965233,-16.08492],[33.965236,-16.085462],[33.964676,-16.085736],[33.964677,-16.086007],[33.96608,-16.086001],[33.966082,-16.086543],[33.966363,-16.086542],[33.966364,-16.086813],[33.966645,-16.086812],[33.966647,-16.087354],[33.966928,-16.087353],[33.966932,-16.088166],[33.96581,-16.088171],[33.965812,-16.088714],[33.965251,-16.088716],[33.965253,-16.088987],[33.964411,-16.088991],[33.964414,-16.089534],[33.963853,-16.089536],[33.963856,-16.090079],[33.964417,-16.090076],[33.964694,-16.089532],[33.965536,-16.089529],[33.965535,-16.089257],[33.966937,-16.089251],[33.966941,-16.090065],[33.966099,-16.090068],[33.966102,-16.090611],[33.966383,-16.090609],[33.966381,-16.090338],[33.968064,-16.090331],[33.968069,-16.091415],[33.967508,-16.091418],[33.967231,-16.091962],[33.966109,-16.091967],[33.965831,-16.09251],[33.964989,-16.092514],[33.964985,-16.0917],[33.965266,-16.091699],[33.965263,-16.091157],[33.963861,-16.091163],[33.963865,-16.091977],[33.964427,-16.092245],[33.964434,-16.093601],[33.965275,-16.093597],[33.965274,-16.093326],[33.965835,-16.093324],[33.965833,-16.093053],[33.966114,-16.093051],[33.966392,-16.092508],[33.966953,-16.092505],[33.966951,-16.092234],[33.967793,-16.09223],[33.967797,-16.093044],[33.967516,-16.093045],[33.967519,-16.093587],[33.96808,-16.093585],[33.968076,-16.092771],[33.968917,-16.092767],[33.969206,-16.094393],[33.968925,-16.094394],[33.968927,-16.094666],[33.968366,-16.094668],[33.968088,-16.095212],[33.967246,-16.095216],[33.967248,-16.095487],[33.966688,-16.09576],[33.966689,-16.096032],[33.96725,-16.096029],[33.967249,-16.095758],[33.968371,-16.095753],[33.96837,-16.095482],[33.968931,-16.095479],[33.968929,-16.095208],[33.96921,-16.095207],[33.969488,-16.094663],[33.971171,-16.094655],[33.971168,-16.094113],[33.972009,-16.094109],[33.972013,-16.094923],[33.972576,-16.095191],[33.972287,-16.093566],[33.972568,-16.093564],[33.972566,-16.093293],[33.973408,-16.093289],[33.973412,-16.094103],[33.974253,-16.094099],[33.974255,-16.09437],[33.974535,-16.094369],[33.97454,-16.095454],[33.97426,-16.095455],[33.974263,-16.095997],[33.973702,-16.096],[33.973703,-16.096271],[33.97202,-16.096279],[33.972017,-16.095736],[33.971737,-16.095738],[33.971741,-16.096551],[33.97118,-16.096554],[33.971181,-16.096825],[33.970901,-16.096826],[33.970902,-16.097097],[33.970621,-16.097098],[33.970623,-16.09737],[33.970342,-16.097371],[33.970064,-16.097915],[33.969223,-16.097918],[33.969224,-16.09819],[33.969785,-16.098187],[33.969787,-16.098458],[33.970067,-16.098457],[33.970066,-16.098186],[33.971747,-16.097907],[33.971749,-16.098178],[33.972029,-16.098177],[33.972312,-16.098718],[33.972873,-16.098715],[33.972875,-16.098986],[33.973997,-16.098981],[33.973995,-16.09871],[33.973715,-16.098711],[33.973711,-16.097898],[33.97315,-16.097901],[33.973148,-16.097629],[33.972307,-16.097633],[33.972303,-16.09682],[33.973706,-16.096813],[33.973983,-16.09627],[33.974544,-16.096267],[33.974543,-16.095996],[33.975384,-16.095992],[33.97539,-16.097077],[33.975109,-16.097078],[33.975111,-16.097349],[33.975952,-16.097345],[33.975953,-16.097617],[33.976234,-16.097615],[33.976238,-16.098429],[33.976799,-16.098426],[33.976798,-16.098155],[33.977359,-16.098152],[33.977357,-16.097881],[33.977918,-16.097879],[33.977917,-16.097608],[33.976795,-16.097613],[33.976794,-16.097342],[33.976513,-16.097343],[33.976227,-16.096259],[33.975665,-16.095991],[33.975661,-16.095177],[33.975381,-16.095179],[33.975377,-16.094365],[33.975096,-16.094366],[33.97481,-16.093283],[33.97453,-16.093284],[33.974528,-16.093013],[33.973687,-16.093017],[33.973682,-16.091932],[33.974243,-16.09193],[33.974521,-16.091386],[33.977045,-16.091375],[33.977323,-16.090831],[33.978164,-16.090827],[33.978163,-16.090556],[33.978443,-16.090555],[33.978721,-16.090011],[33.979563,-16.090007],[33.979561,-16.089736],[33.979842,-16.089735],[33.98012,-16.089191],[33.981241,-16.089186],[33.981519,-16.088642],[33.98208,-16.08864],[33.982079,-16.088369],[33.982359,-16.088367],[33.982357,-16.087825],[33.980675,-16.088104],[33.980678,-16.088646],[33.980117,-16.088649],[33.980118,-16.08892],[33.978716,-16.088926],[33.978718,-16.089469],[33.978158,-16.089471],[33.97816,-16.090014],[33.976479,-16.090292],[33.976471,-16.088665],[33.977312,-16.088662],[33.977311,-16.08839],[33.978152,-16.088387],[33.978154,-16.088658],[33.978714,-16.088655],[33.978712,-16.088113],[33.97759,-16.088118],[33.977585,-16.087033],[33.977865,-16.087032],[33.977864,-16.086761],[33.978986,-16.086756],[33.978987,-16.087027],[33.979267,-16.087026],[33.979263,-16.086212],[33.979824,-16.086209],[33.979822,-16.085667],[33.980942,-16.085391],[33.98094,-16.084848],[33.979818,-16.084854],[33.97954,-16.085397],[33.978699,-16.085401],[33.978696,-16.084859],[33.978134,-16.08459],[33.97814,-16.085946],[33.977579,-16.085949],[33.977301,-16.086492],[33.975899,-16.086499],[33.975902,-16.087041],[33.975341,-16.087043],[33.975342,-16.087315],[33.974501,-16.087318],[33.974499,-16.087047],[33.973937,-16.086779],[33.973928,-16.084881],[33.974769,-16.084877],[33.974768,-16.084605],[33.975048,-16.084604],[33.975326,-16.084061],[33.977008,-16.083782],[33.977286,-16.083238],[33.978407,-16.083233],[33.978409,-16.083504],[33.978689,-16.083503],[33.978403,-16.082419],[33.978123,-16.082421],[33.978122,-16.08215],[33.977561,-16.082152],[33.977562,-16.082423],[33.976442,-16.0827],[33.976164,-16.083243],[33.975043,-16.08352],[33.974765,-16.084063],[33.974204,-16.084066],[33.974206,-16.084337],[33.973084,-16.084342],[33.973081,-16.0838],[33.972801,-16.083801],[33.972797,-16.082987],[33.972234,-16.082719],[33.972231,-16.081905],[33.972511,-16.081904],[33.97251,-16.081633],[33.971949,-16.081635],[33.97195,-16.081907],[33.971389,-16.081909],[33.97139,-16.08218],[33.970269,-16.082185],[33.970265,-16.081372],[33.969704,-16.081374]],[[33.970833,-16.082996],[33.971675,-16.082993],[33.971679,-16.083806],[33.970837,-16.08381],[33.970833,-16.082996]],[[33.97056,-16.084353],[33.971401,-16.08435],[33.971402,-16.084621],[33.971683,-16.08462],[33.971684,-16.084891],[33.971965,-16.084889],[33.971966,-16.085161],[33.972528,-16.085429],[33.972532,-16.086243],[33.972252,-16.086244],[33.972257,-16.087329],[33.971415,-16.087333],[33.97141,-16.086248],[33.970569,-16.086252],[33.970567,-16.08598],[33.970287,-16.085982],[33.970284,-16.085439],[33.970004,-16.085441],[33.97,-16.084627],[33.970561,-16.084625],[33.97056,-16.084353]],[[33.967195,-16.08464],[33.968598,-16.084634],[33.968599,-16.084905],[33.96916,-16.084902],[33.969161,-16.085173],[33.969442,-16.085172],[33.969448,-16.086528],[33.97001,-16.086797],[33.970014,-16.08761],[33.969173,-16.087614],[33.969174,-16.087885],[33.968613,-16.087888],[33.968615,-16.088159],[33.968895,-16.088157],[33.968899,-16.088971],[33.968058,-16.088975],[33.968055,-16.088432],[33.967774,-16.088434],[33.967771,-16.08762],[33.96749,-16.087621],[33.967481,-16.085723],[33.9672,-16.085725],[33.967195,-16.08464]],[[33.972532,-16.086243],[33.973654,-16.086238],[33.973658,-16.087051],[33.972536,-16.087056],[33.972532,-16.086243]],[[33.972539,-16.087599],[33.974502,-16.08759],[33.974505,-16.088132],[33.975066,-16.088129],[33.975068,-16.088672],[33.975349,-16.088671],[33.975351,-16.089213],[33.975632,-16.089212],[33.975637,-16.090296],[33.976198,-16.090294],[33.976202,-16.091107],[33.975361,-16.091111],[33.975357,-16.090298],[33.974796,-16.0903],[33.974798,-16.090842],[33.973396,-16.090849],[33.973393,-16.090306],[33.972832,-16.090309],[33.972831,-16.090038],[33.972551,-16.090039],[33.972547,-16.089226],[33.973388,-16.089222],[33.973389,-16.089493],[33.97395,-16.08949],[33.973948,-16.088948],[33.973106,-16.088952],[33.973105,-16.088681],[33.972543,-16.088412],[33.972539,-16.087599]],[[33.970868,-16.090047],[33.97199,-16.090042],[33.971996,-16.091398],[33.970874,-16.091403],[33.970868,-16.090047]]]}},{"type":"Feature","properties":{"ano":2015,"camada":"reassentamento","area_km2":0.0045},"geometry":{"type":"Polygon","coordinates":[[[34.029532,-16.09845],[34.029255,-16.098994],[34.030096,-16.09899],[34.030093,-16.098447],[34.029532,-16.09845]]]}},{"type":"Feature","properties":{"ano":2015,"camada":"reassentamento","area_km2":0.0009},"geometry":{"type":"Polygon","coordinates":[[[34.035424,-16.098693],[34.035425,-16.098964],[34.035706,-16.098962],[34.035705,-16.098691],[34.035424,-16.098693]]]}},{"type":"Feature","properties":{"ano":2015,"camada":"reassentamento","area_km2":0.0018},"geometry":{"type":"Polygon","coordinates":[[[34.035706,-16.098962],[34.035707,-16.099234],[34.036268,-16.099231],[34.036267,-16.09896],[34.035706,-16.098962]]]}},{"type":"Feature","properties":{"ano":2015,"camada":"reassentamento","area_km2":0.0009},"geometry":{"type":"Polygon","coordinates":[[[34.03655,-16.099501],[34.036552,-16.099772],[34.036832,-16.09977],[34.036831,-16.099499],[34.03655,-16.099501]]]}},{"type":"Feature","properties":{"ano":2015,"camada":"reassentamento","area_km2":0.0009},"geometry":{"type":"Polygon","coordinates":[[[34.036832,-16.09977],[34.036834,-16.100042],[34.037114,-16.10004],[34.037113,-16.099769],[34.036832,-16.09977]]]}},{"type":"Feature","properties":{"ano":2015,"camada":"reassentamento","area_km2":0.0144},"geometry":{"type":"Polygon","coordinates":[[[34.0329,-16.098705],[34.032902,-16.099247],[34.033183,-16.099246],[34.033184,-16.099517],[34.033465,-16.099516],[34.033748,-16.100057],[34.034309,-16.100054],[34.034311,-16.100325],[34.034873,-16.100593],[34.03487,-16.100051],[34.03459,-16.100052],[34.034588,-16.099781],[34.034308,-16.099783],[34.034306,-16.099512],[34.034026,-16.099513],[34.033743,-16.098972],[34.033182,-16.098975],[34.03318,-16.098703],[34.0329,-16.098705]]]}},{"type":"Feature","properties":{"ano":2015,"camada":"reassentamento","area_km2":0.0081},"geometry":{"type":"Polygon","coordinates":[[[34.03066,-16.099529],[34.030663,-16.100071],[34.031224,-16.100069],[34.031507,-16.10061],[34.032068,-16.100607],[34.032067,-16.100336],[34.031786,-16.100337],[34.031783,-16.099795],[34.030942,-16.099799],[34.03094,-16.099528],[34.03066,-16.099529]]]}},{"type":"Feature","properties":{"ano":2015,"camada":"reassentamento","area_km2":0.0009},"geometry":{"type":"Polygon","coordinates":[[[34.024777,-16.100913],[34.024778,-16.101184],[34.025059,-16.101183],[34.025057,-16.100912],[34.024777,-16.100913]]]}},{"type":"Feature","properties":{"ano":2015,"camada":"reassentamento","area_km2":0.0009},"geometry":{"type":"Polygon","coordinates":[[[34.024498,-16.101186],[34.024499,-16.101457],[34.024779,-16.101456],[34.024778,-16.101184],[34.024498,-16.101186]]]}},{"type":"Feature","properties":{"ano":2015,"camada":"reassentamento","area_km2":0.0009},"geometry":{"type":"Polygon","coordinates":[[[34.02562,-16.10118],[34.025621,-16.101452],[34.025901,-16.10145],[34.0259,-16.101179],[34.02562,-16.10118]]]}},{"type":"Feature","properties":{"ano":2015,"camada":"reassentamento","area_km2":0.0045},"geometry":{"type":"Polygon","coordinates":[[[34.02758,-16.100629],[34.027583,-16.101171],[34.027302,-16.101172],[34.027304,-16.101443],[34.027865,-16.101441],[34.027862,-16.100898],[34.028143,-16.100897],[34.028141,-16.100626],[34.02758,-16.100629]]]}},{"type":"Feature","properties":{"ano":2015,"camada":"reassentamento","area_km2":0.0045},"geometry":{"type":"Polygon","coordinates":[[[34.035717,-16.101132],[34.035719,-16.101403],[34.035999,-16.101402],[34.036001,-16.101673],[34.036563,-16.101941],[34.03656,-16.101399],[34.03628,-16.1014],[34.036278,-16.101129],[34.035717,-16.101132]]]}},{"type":"Feature","properties":{"ano":2015,"camada":"reassentamento","area_km2":0.0009},"geometry":{"type":"Polygon","coordinates":[[[34.026744,-16.101717],[34.026746,-16.101989],[34.027026,-16.101987],[34.027025,-16.101716],[34.026744,-16.101717]]]}},{"type":"Feature","properties":{"ano":2015,"camada":"reassentamento","area_km2":0.0225},"geometry":{"type":"Polygon","coordinates":[[[34.032068,-16.100607],[34.032071,-16.101149],[34.032351,-16.101148],[34.032635,-16.101689],[34.033196,-16.101686],[34.033197,-16.101957],[34.033478,-16.101956],[34.033761,-16.102497],[34.034602,-16.102493],[34.034601,-16.102222],[34.03432,-16.102223],[34.034319,-16.101952],[34.034038,-16.101953],[34.034037,-16.101682],[34.033757,-16.101684],[34.033755,-16.101412],[34.033193,-16.101144],[34.03319,-16.100602],[34.032068,-16.100607]]]}},{"type":"Feature","properties":{"ano":2015,"camada":"reassentamento","area_km2":0.0009},"geometry":{"type":"Polygon","coordinates":[[[34.034602,-16.102493],[34.034604,-16.102764],[34.034884,-16.102763],[34.034883,-16.102492],[34.034602,-16.102493]]]}},{"type":"Feature","properties":{"ano":2015,"camada":"reassentamento","area_km2":0.0036},"geometry":{"type":"Polygon","coordinates":[[[34.037407,-16.102479],[34.03741,-16.103022],[34.037971,-16.103019],[34.037968,-16.102477],[34.037407,-16.102479]]]}},{"type":"Feature","properties":{"ano":2015,"camada":"reassentamento","area_km2":0.0027},"geometry":{"type":"Polygon","coordinates":[[[34.035447,-16.103031],[34.035449,-16.103574],[34.03601,-16.103571],[34.036009,-16.1033],[34.035447,-16.103031]]]}},{"type":"Feature","properties":{"ano":2015,"camada":"reassentamento","area_km2":0.0126},"geometry":{"type":"Polygon","coordinates":[[[34.031515,-16.102237],[34.031238,-16.10278],[34.031518,-16.102779],[34.03152,-16.10305],[34.0318,-16.103049],[34.032083,-16.10359],[34.032644,-16.103587],[34.032928,-16.104128],[34.033489,-16.104125],[34.033487,-16.103854],[34.033207,-16.103856],[34.032924,-16.103315],[34.032363,-16.103317],[34.032361,-16.103046],[34.031799,-16.102778],[34.031796,-16.102235],[34.031515,-16.102237]]]}},{"type":"Feature","properties":{"ano":2015,"camada":"reassentamento","area_km2":0.0045},"geometry":{"type":"Polygon","coordinates":[[[34.038533,-16.103287],[34.038536,-16.10383],[34.038817,-16.103828],[34.038818,-16.1041],[34.039379,-16.104097],[34.039378,-16.103826],[34.039097,-16.103827],[34.039096,-16.103556],[34.038533,-16.103287]]]}},{"type":"Feature","properties":{"ano":2015,"camada":"reassentamento","area_km2":0.0387},"geometry":{"type":"Polygon","coordinates":[[[34.028977,-16.099537],[34.028978,-16.099808],[34.028698,-16.09981],[34.028701,-16.100352],[34.028981,-16.100351],[34.028983,-16.100622],[34.029544,-16.100619],[34.029546,-16.101162],[34.029827,-16.10116],[34.029831,-16.101974],[34.029272,-16.102248],[34.029274,-16.10279],[34.029555,-16.102789],[34.029559,-16.103602],[34.029278,-16.103603],[34.02928,-16.103875],[34.02956,-16.103873],[34.029562,-16.104144],[34.029842,-16.104143],[34.030126,-16.104684],[34.030687,-16.104681],[34.030685,-16.10441],[34.030405,-16.104411],[34.0304,-16.103598],[34.03012,-16.103599],[34.030114,-16.102515],[34.030395,-16.102513],[34.030393,-16.102242],[34.030113,-16.102243],[34.030106,-16.100888],[34.029826,-16.100889],[34.029821,-16.100076],[34.029541,-16.100077],[34.029539,-16.099806],[34.028977,-16.099537]]]}},{"type":"Feature","properties":{"ano":2015,"camada":"reassentamento","area_km2":0.0027},"geometry":{"type":"Polygon","coordinates":[[[34.039379,-16.104097],[34.039381,-16.104368],[34.039943,-16.104636],[34.03994,-16.104094],[34.039379,-16.104097]]]}},{"type":"Feature","properties":{"ano":2015,"camada":"reassentamento","area_km2":0.0018},"geometry":{"type":"Polygon","coordinates":[[[34.024235,-16.104712],[34.024237,-16.104983],[34.024798,-16.104981],[34.024796,-16.10471],[34.024235,-16.104712]]]}},{"type":"Feature","properties":{"ano":2015,"camada":"reassentamento","area_km2":0.0009},"geometry":{"type":"Polygon","coordinates":[[[34.030687,-16.104681],[34.030688,-16.104952],[34.030968,-16.104951],[34.030967,-16.10468],[34.030687,-16.104681]]]}},{"type":"Feature","properties":{"ano":2015,"camada":"reassentamento","area_km2":0.0036},"geometry":{"type":"Polygon","coordinates":[[[34.036856,-16.10438],[34.036859,-16.104923],[34.037421,-16.105191],[34.037418,-16.104649],[34.036856,-16.10438]]]}},{"type":"Feature","properties":{"ano":2015,"camada":"reassentamento","area_km2":0.0009},"geometry":{"type":"Polygon","coordinates":[[[34.024798,-16.104981],[34.024799,-16.105252],[34.025079,-16.105251],[34.025078,-16.104979],[34.024798,-16.104981]]]}},{"type":"Feature","properties":{"ano":2015,"camada":"reassentamento","area_km2":0.0027},"geometry":{"type":"Polygon","coordinates":[[[34.040505,-16.104905],[34.040507,-16.105176],[34.041069,-16.105444],[34.041066,-16.104902],[34.040505,-16.104905]]]}},{"type":"Feature","properties":{"ano":2015,"camada":"reassentamento","area_km2":0.0009},"geometry":{"type":"Polygon","coordinates":[[[34.025079,-16.105251],[34.025081,-16.105522],[34.025361,-16.10552],[34.02536,-16.105249],[34.025079,-16.105251]]]}},{"type":"Feature","properties":{"ano":2015,"camada":"reassentamento","area_km2":0.0009},"geometry":{"type":"Polygon","coordinates":[[[34.03125,-16.105221],[34.031252,-16.105492],[34.031532,-16.105491],[34.031531,-16.10522],[34.03125,-16.105221]]]}},{"type":"Feature","properties":{"ano":2015,"camada":"reassentamento","area_km2":0.0009},"geometry":{"type":"Polygon","coordinates":[[[34.028727,-16.105504],[34.028729,-16.105775],[34.029009,-16.105774],[34.029008,-16.105503],[34.028727,-16.105504]]]}},{"type":"Feature","properties":{"ano":2015,"camada":"reassentamento","area_km2":0.0009},"geometry":{"type":"Polygon","coordinates":[[[34.041069,-16.105444],[34.041071,-16.105716],[34.041351,-16.105714],[34.04135,-16.105443],[34.041069,-16.105444]]]}},{"type":"Feature","properties":{"ano":2015,"camada":"reassentamento","area_km2":0.0063},"geometry":{"type":"Polygon","coordinates":[[[34.037984,-16.105459],[34.037987,-16.106002],[34.038267,-16.106],[34.038268,-16.106272],[34.038829,-16.106269],[34.038827,-16.105727],[34.038546,-16.105728],[34.038545,-16.105457],[34.037984,-16.105459]]]}},{"type":"Feature","properties":{"ano":2015,"camada":"reassentamento","area_km2":0.0009},"geometry":{"type":"Polygon","coordinates":[[[34.041633,-16.105984],[34.041634,-16.106255],[34.041915,-16.106254],[34.041913,-16.105983],[34.041633,-16.105984]]]}},{"type":"Feature","properties":{"ano":2015,"camada":"reassentamento","area_km2":0.0009},"geometry":{"type":"Polygon","coordinates":[[[34.023402,-16.106343],[34.023403,-16.106614],[34.023684,-16.106613],[34.023682,-16.106342],[34.023402,-16.106343]]]}},{"type":"Feature","properties":{"ano":2015,"camada":"reassentamento","area_km2":0.0072},"geometry":{"type":"Polygon","coordinates":[[[34.025643,-16.10579],[34.025645,-16.106061],[34.025925,-16.10606],[34.025926,-16.106331],[34.026207,-16.10633],[34.02649,-16.106871],[34.027051,-16.106868],[34.02705,-16.106597],[34.026769,-16.106598],[34.026768,-16.106327],[34.026487,-16.106329],[34.026204,-16.105788],[34.025643,-16.10579]]]}},{"type":"Feature","properties":{"ano":2015,"camada":"reassentamento","area_km2":0.0009},"geometry":{"type":"Polygon","coordinates":[[[34.029855,-16.106583],[34.029856,-16.106855],[34.030137,-16.106853],[34.030135,-16.106582],[34.029855,-16.106583]]]}},{"type":"Feature","properties":{"ano":2015,"camada":"reassentamento","area_km2":0.0009},"geometry":{"type":"Polygon","coordinates":[[[34.039392,-16.106537],[34.039393,-16.106808],[34.039674,-16.106807],[34.039672,-16.106536],[34.039392,-16.106537]]]}},{"type":"Feature","properties":{"ano":2015,"camada":"reassentamento","area_km2":0.0018},"geometry":{"type":"Polygon","coordinates":[[[34.030137,-16.106853],[34.030138,-16.107124],[34.030699,-16.107122],[34.030698,-16.106851],[34.030137,-16.106853]]]}},{"type":"Feature","properties":{"ano":2015,"camada":"reassentamento","area_km2":0.0036},"geometry":{"type":"Polygon","coordinates":[[[34.027051,-16.106868],[34.027054,-16.10741],[34.027615,-16.107408],[34.027612,-16.106865],[34.027051,-16.106868]]]}},{"type":"Feature","properties":{"ano":2015,"camada":"reassentamento","area_km2":0.0036},"geometry":{"type":"Polygon","coordinates":[[[34.030701,-16.107393],[34.030984,-16.107934],[34.031545,-16.107931],[34.031262,-16.10739],[34.030701,-16.107393]]]}},{"type":"Feature","properties":{"ano":2015,"camada":"reassentamento","area_km2":0.0108},"geometry":{"type":"Polygon","coordinates":[[[34.03266,-16.10657],[34.032663,-16.107112],[34.033224,-16.10711],[34.033225,-16.107381],[34.033506,-16.107379],[34.033507,-16.107651],[34.033787,-16.107649],[34.034071,-16.10819],[34.034632,-16.108187],[34.03463,-16.107916],[34.03435,-16.107918],[34.034348,-16.107646],[34.034068,-16.107648],[34.034067,-16.107377],[34.033786,-16.107378],[34.033503,-16.106837],[34.032942,-16.10684],[34.03294,-16.106569],[34.03266,-16.10657]]]}},{"type":"Feature","properties":{"ano":2015,"camada":"reassentamento","area_km2":0.0099},"geometry":{"type":"Polygon","coordinates":[[[34.039956,-16.107077],[34.039958,-16.107619],[34.040519,-16.107616],[34.040521,-16.107888],[34.040801,-16.107886],[34.041085,-16.108427],[34.041646,-16.108425],[34.041644,-16.108153],[34.041364,-16.108155],[34.041362,-16.107884],[34.041082,-16.107885],[34.04108,-16.107614],[34.0408,-16.107615],[34.040517,-16.107074],[34.039956,-16.107077]]]}},{"type":"Feature","properties":{"ano":2015,"camada":"reassentamento","area_km2":0.0018},"geometry":{"type":"Polygon","coordinates":[[[34.025656,-16.108231],[34.025657,-16.108502],[34.026218,-16.108499],[34.026217,-16.108228],[34.025656,-16.108231]]]}},{"type":"Feature","properties":{"ano":2015,"camada":"reassentamento","area_km2":0.0009},"geometry":{"type":"Polygon","coordinates":[[[34.034632,-16.108187],[34.034633,-16.108459],[34.034914,-16.108457],[34.034912,-16.108186],[34.034632,-16.108187]]]}},{"type":"Feature","properties":{"ano":2015,"camada":"reassentamento","area_km2":0.0171},"geometry":{"type":"Polygon","coordinates":[[[34.027615,-16.107408],[34.027618,-16.10795],[34.027898,-16.107949],[34.0279,-16.10822],[34.028741,-16.108216],[34.028743,-16.108487],[34.029305,-16.108756],[34.029308,-16.109298],[34.029869,-16.109295],[34.029866,-16.108753],[34.029586,-16.108754],[34.029584,-16.108483],[34.029304,-16.108484],[34.029302,-16.108213],[34.029022,-16.108215],[34.02902,-16.107943],[34.02874,-16.107945],[34.028457,-16.107404],[34.027615,-16.107408]]]}},{"type":"Feature","properties":{"ano":2015,"camada":"reassentamento","area_km2":0.009},"geometry":{"type":"Polygon","coordinates":[[[34.031548,-16.108474],[34.031549,-16.108745],[34.031269,-16.108746],[34.031271,-16.109288],[34.032113,-16.109284],[34.032111,-16.109013],[34.032672,-16.10901],[34.032671,-16.108739],[34.031548,-16.108474]]]}},{"type":"Feature","properties":{"ano":2015,"camada":"reassentamento","area_km2":0.0072},"geometry":{"type":"Polygon","coordinates":[[[34.026218,-16.108499],[34.026221,-16.109042],[34.027346,-16.109578],[34.027343,-16.109036],[34.026218,-16.108499]]]}},{"type":"Feature","properties":{"ano":2015,"camada":"reassentamento","area_km2":0.0108},"geometry":{"type":"Polygon","coordinates":[[[34.035196,-16.108727],[34.035197,-16.108998],[34.035478,-16.108997],[34.03548,-16.109539],[34.036041,-16.109536],[34.036325,-16.110077],[34.036886,-16.110075],[34.036884,-16.109804],[34.036604,-16.109805],[34.036602,-16.109534],[34.03604,-16.109265],[34.036037,-16.108723],[34.035196,-16.108727]]]}},{"type":"Feature","properties":{"ano":2015,"camada":"reassentamento","area_km2":0.0054},"geometry":{"type":"Polygon","coordinates":[[[34.027346,-16.109578],[34.027347,-16.10985],[34.027628,-16.109848],[34.027629,-16.110119],[34.028191,-16.110388],[34.028187,-16.109574],[34.027346,-16.109578]]]}},{"type":"Feature","properties":{"ano":2015,"camada":"reassentamento","area_km2":0.0009},"geometry":{"type":"Polygon","coordinates":[[[34.036886,-16.110075],[34.036887,-16.110346],[34.037168,-16.110345],[34.037166,-16.110073],[34.036886,-16.110075]]]}},{"type":"Feature","properties":{"ano":2015,"camada":"reassentamento","area_km2":0.0009},"geometry":{"type":"Polygon","coordinates":[[[34.028191,-16.110388],[34.028193,-16.110659],[34.028473,-16.110658],[34.028472,-16.110387],[34.028191,-16.110388]]]}},{"type":"Feature","properties":{"ano":2015,"camada":"reassentamento","area_km2":0.0171},"geometry":{"type":"Polygon","coordinates":[[[34.032954,-16.10928],[34.032956,-16.109551],[34.033236,-16.10955],[34.033238,-16.109821],[34.033518,-16.10982],[34.03352,-16.110091],[34.0338,-16.11009],[34.033802,-16.110361],[34.034082,-16.110359],[34.034365,-16.1109],[34.034926,-16.110898],[34.034922,-16.110084],[34.035203,-16.110083],[34.035201,-16.109812],[34.033799,-16.109819],[34.033515,-16.109278],[34.032954,-16.10928]]]}},{"type":"Feature","properties":{"ano":2015,"camada":"reassentamento","area_km2":0.0099},"geometry":{"type":"Polygon","coordinates":[[[34.030431,-16.109564],[34.030433,-16.109835],[34.030713,-16.109833],[34.030716,-16.110376],[34.031277,-16.110373],[34.031278,-16.110644],[34.031841,-16.110913],[34.031838,-16.11037],[34.031276,-16.110102],[34.031273,-16.10956],[34.030431,-16.109564]]]}},{"type":"Feature","properties":{"ano":2015,"camada":"reassentamento","area_km2":0.0009},"geometry":{"type":"Polygon","coordinates":[[[34.034926,-16.110898],[34.034928,-16.111169],[34.035208,-16.111168],[34.035207,-16.110896],[34.034926,-16.110898]]]}},{"type":"Feature","properties":{"ano":2015,"camada":"reassentamento","area_km2":0.0036},"geometry":{"type":"Polygon","coordinates":[[[34.035208,-16.111168],[34.03521,-16.111439],[34.035771,-16.111436],[34.035772,-16.111707],[34.036053,-16.111706],[34.03605,-16.111163],[34.035208,-16.111168]]]}},{"type":"Feature","properties":{"ano":2015,"camada":"reassentamento","area_km2":0.0018},"geometry":{"type":"Polygon","coordinates":[[[34.037179,-16.112514],[34.03718,-16.112785],[34.037741,-16.112782],[34.03774,-16.112511],[34.037179,-16.112514]]]}},{"type":"Feature","properties":{"ano":2015,"camada":"reassentamento","area_km2":0.0261},"geometry":{"type":"Polygon","coordinates":[[[34.031841,-16.110913],[34.031842,-16.111184],[34.032123,-16.111182],[34.032124,-16.111454],[34.032405,-16.111452],[34.032406,-16.111723],[34.032968,-16.111992],[34.032973,-16.112805],[34.034095,-16.1128],[34.034096,-16.113071],[34.034657,-16.113068],[34.034654,-16.112526],[34.034374,-16.112527],[34.03409,-16.111986],[34.033529,-16.111989],[34.033528,-16.111718],[34.033248,-16.111719],[34.033246,-16.111448],[34.032966,-16.11145],[34.032682,-16.110909],[34.031841,-16.110913]]]}},{"type":"Feature","properties":{"ano":2015,"camada":"reassentamento","area_km2":0.0018},"geometry":{"type":"Polygon","coordinates":[[[34.034939,-16.113338],[34.03494,-16.113609],[34.035501,-16.113607],[34.0355,-16.113335],[34.034939,-16.113338]]]}},{"type":"Feature","properties":{"ano":2015,"camada":"reassentamento","area_km2":0.0207},"geometry":{"type":"Polygon","coordinates":[[[34.030444,-16.112004],[34.030447,-16.112546],[34.030727,-16.112545],[34.03101,-16.113086],[34.031572,-16.113083],[34.031573,-16.113355],[34.031853,-16.113353],[34.031858,-16.114167],[34.03298,-16.114161],[34.032977,-16.113619],[34.032416,-16.113622],[34.032413,-16.113079],[34.032133,-16.113081],[34.032131,-16.112809],[34.03157,-16.112812],[34.031569,-16.112541],[34.031008,-16.112544],[34.031006,-16.112273],[34.030444,-16.112004]]]}},{"type":"Feature","properties":{"ano":2015,"camada":"reassentamento","area_km2":0.0045},"geometry":{"type":"Polygon","coordinates":[[[34.03298,-16.114161],[34.032982,-16.114704],[34.033824,-16.114699],[34.033541,-16.114159],[34.03298,-16.114161]]]}}]}