{"type":"FeatureCollection","features":[{"type":"Feature","properties":{"ano":2025,"camada":"reassentamento","area_km2":0.0162},"geometry":{"type":"Polygon","coordinates":[[[33.969984,-16.081373],[33.969985,-16.081644],[33.969144,-16.081648],[33.969145,-16.081919],[33.969708,-16.082188],[33.969713,-16.083273],[33.970554,-16.083269],[33.970552,-16.082726],[33.970271,-16.082728],[33.970265,-16.081372],[33.969984,-16.081373]]]}},{"type":"Feature","properties":{"ano":2025,"camada":"reassentamento","area_km2":0.0018},"geometry":{"type":"Polygon","coordinates":[[[33.968027,-16.082738],[33.96803,-16.08328],[33.96831,-16.083279],[33.968308,-16.082737],[33.968027,-16.082738]]]}},{"type":"Feature","properties":{"ano":2025,"camada":"reassentamento","area_km2":0.0018},"geometry":{"type":"Polygon","coordinates":[[[33.972234,-16.082719],[33.972237,-16.083261],[33.972518,-16.08326],[33.972515,-16.082718],[33.972234,-16.082719]]]}},{"type":"Feature","properties":{"ano":2025,"camada":"reassentamento","area_km2":0.0189},"geometry":{"type":"Polygon","coordinates":[[[33.977841,-16.082151],[33.977844,-16.082693],[33.976722,-16.082698],[33.976723,-16.08297],[33.976443,-16.082971],[33.976447,-16.083784],[33.977008,-16.083782],[33.977286,-16.083238],[33.978407,-16.083233],[33.978403,-16.082419],[33.977841,-16.082151]]]}},{"type":"Feature","properties":{"ano":2025,"camada":"reassentamento","area_km2":0.0009},"geometry":{"type":"Polygon","coordinates":[[[33.975605,-16.083788],[33.975607,-16.084059],[33.975887,-16.084058],[33.975886,-16.083787],[33.975605,-16.083788]]]}},{"type":"Feature","properties":{"ano":2025,"camada":"reassentamento","area_km2":0.0099},"geometry":{"type":"Polygon","coordinates":[[[33.978688,-16.083232],[33.978691,-16.083774],[33.979252,-16.083771],[33.979254,-16.084314],[33.980096,-16.08431],[33.980094,-16.084039],[33.979532,-16.08377],[33.979529,-16.083228],[33.978688,-16.083232]]]}},{"type":"Feature","properties":{"ano":2025,"camada":"reassentamento","area_km2":0.0153},"geometry":{"type":"Polygon","coordinates":[[[33.965794,-16.084917],[33.965795,-16.085189],[33.965515,-16.08519],[33.965518,-16.085732],[33.965798,-16.085731],[33.966084,-16.086814],[33.966364,-16.086813],[33.966362,-16.086271],[33.967484,-16.086266],[33.96748,-16.085452],[33.967199,-16.085453],[33.967202,-16.085996],[33.96608,-16.086001],[33.966076,-16.085187],[33.966356,-16.085186],[33.966355,-16.084915],[33.965794,-16.084917]]]}},{"type":"Feature","properties":{"ano":2025,"camada":"reassentamento","area_km2":0.0063},"geometry":{"type":"Polygon","coordinates":[[[33.975336,-16.085959],[33.975337,-16.08623],[33.974776,-16.086233],[33.975059,-16.086774],[33.975339,-16.086772],[33.975338,-16.086501],[33.975899,-16.086499],[33.975896,-16.085956],[33.975336,-16.085959]]]}},{"type":"Feature","properties":{"ano":2025,"camada":"reassentamento","area_km2":0.0432},"geometry":{"type":"Polygon","coordinates":[[[33.980379,-16.084851],[33.980381,-16.085393],[33.97954,-16.085397],[33.979541,-16.085668],[33.979822,-16.085667],[33.979824,-16.086209],[33.980105,-16.086208],[33.980109,-16.087022],[33.978987,-16.087027],[33.978983,-16.086213],[33.977861,-16.086218],[33.977862,-16.08649],[33.977021,-16.086493],[33.976743,-16.087037],[33.977304,-16.087035],[33.977303,-16.086763],[33.978705,-16.086757],[33.978709,-16.08757],[33.979831,-16.087565],[33.979832,-16.087836],[33.980113,-16.087835],[33.980112,-16.087564],[33.980392,-16.087563],[33.980388,-16.086749],[33.981229,-16.086745],[33.981228,-16.086474],[33.980666,-16.086206],[33.980661,-16.085121],[33.980941,-16.08512],[33.98094,-16.084848],[33.980379,-16.084851]]]}},{"type":"Feature","properties":{"ano":2025,"camada":"reassentamento","area_km2":0.0054},"geometry":{"type":"Polygon","coordinates":[[[33.975623,-16.087313],[33.975345,-16.087857],[33.975625,-16.087856],[33.975627,-16.088127],[33.976188,-16.088124],[33.976185,-16.087582],[33.975623,-16.087313]]]}},{"type":"Feature","properties":{"ano":2025,"camada":"reassentamento","area_km2":0.009},"geometry":{"type":"Polygon","coordinates":[[[33.969453,-16.087613],[33.969456,-16.088155],[33.968334,-16.08816],[33.968335,-16.088431],[33.969738,-16.088425],[33.969739,-16.088696],[33.97002,-16.088695],[33.970016,-16.087881],[33.969453,-16.087613]]]}},{"type":"Feature","properties":{"ano":2025,"camada":"reassentamento","area_km2":0.0009},"geometry":{"type":"Polygon","coordinates":[[[33.963848,-16.088451],[33.963849,-16.088723],[33.96413,-16.088721],[33.964128,-16.08845],[33.963848,-16.088451]]]}},{"type":"Feature","properties":{"ano":2025,"camada":"reassentamento","area_km2":0.0099},"geometry":{"type":"Polygon","coordinates":[[[33.967211,-16.087894],[33.967214,-16.088436],[33.966092,-16.088441],[33.966093,-16.088713],[33.967215,-16.088707],[33.967217,-16.08925],[33.967778,-16.089247],[33.967776,-16.088705],[33.967495,-16.088706],[33.967491,-16.087893],[33.967211,-16.087894]]]}},{"type":"Feature","properties":{"ano":2025,"camada":"reassentamento","area_km2":0.0009},"geometry":{"type":"Polygon","coordinates":[[[33.975633,-16.089483],[33.975635,-16.089754],[33.975915,-16.089753],[33.975914,-16.089481],[33.975633,-16.089483]]]}},{"type":"Feature","properties":{"ano":2025,"camada":"reassentamento","area_km2":0.0207},"geometry":{"type":"Polygon","coordinates":[[[33.981235,-16.08783],[33.981237,-16.088372],[33.980957,-16.088374],[33.980958,-16.088645],[33.981239,-16.088644],[33.981247,-16.090271],[33.982088,-16.090267],[33.982086,-16.089724],[33.981805,-16.089726],[33.981798,-16.08837],[33.982359,-16.088367],[33.982358,-16.088096],[33.981235,-16.08783]]]}},{"type":"Feature","properties":{"ano":2025,"camada":"reassentamento","area_km2":0.0333},"geometry":{"type":"Polygon","coordinates":[[[33.964124,-16.087637],[33.964128,-16.08845],[33.96497,-16.088446],[33.964974,-16.08926],[33.964693,-16.089261],[33.964694,-16.089532],[33.965816,-16.089527],[33.965823,-16.090883],[33.966103,-16.090882],[33.966102,-16.090611],[33.966663,-16.090608],[33.966662,-16.090337],[33.967223,-16.090334],[33.967221,-16.090063],[33.966099,-16.090068],[33.966093,-16.088713],[33.965251,-16.088716],[33.965246,-16.087632],[33.964124,-16.087637]]]}},{"type":"Feature","properties":{"ano":2025,"camada":"reassentamento","area_km2":0.0576},"geometry":{"type":"Polygon","coordinates":[[[33.977308,-16.087848],[33.97703,-16.088392],[33.976189,-16.088395],[33.97619,-16.088667],[33.977032,-16.088663],[33.977037,-16.089748],[33.975915,-16.089753],[33.975918,-16.090295],[33.976198,-16.090294],[33.976199,-16.090565],[33.97676,-16.090562],[33.976762,-16.090833],[33.977042,-16.090832],[33.977041,-16.090561],[33.977602,-16.090558],[33.977601,-16.090287],[33.97732,-16.090289],[33.977593,-16.08866],[33.978434,-16.088656],[33.978439,-16.089741],[33.978159,-16.089742],[33.978162,-16.090285],[33.978722,-16.090282],[33.978721,-16.090011],[33.979843,-16.090006],[33.979839,-16.089192],[33.978998,-16.089196],[33.978994,-16.088383],[33.978433,-16.088385],[33.97843,-16.087843],[33.977308,-16.087848]]]}},{"type":"Feature","properties":{"ano":2025,"camada":"reassentamento","area_km2":0.0009},"geometry":{"type":"Polygon","coordinates":[[[33.98209,-16.090538],[33.982091,-16.090809],[33.982371,-16.090808],[33.98237,-16.090537],[33.98209,-16.090538]]]}},{"type":"Feature","properties":{"ano":2025,"camada":"reassentamento","area_km2":0.0009},"geometry":{"type":"Polygon","coordinates":[[[33.978446,-16.091097],[33.978447,-16.091368],[33.978728,-16.091367],[33.978726,-16.091096],[33.978446,-16.091097]]]}},{"type":"Feature","properties":{"ano":2025,"camada":"reassentamento","area_km2":0.0009},"geometry":{"type":"Polygon","coordinates":[[[33.977886,-16.091371],[33.977888,-16.091642],[33.978168,-16.091641],[33.978167,-16.091369],[33.977886,-16.091371]]]}},{"type":"Feature","properties":{"ano":2025,"camada":"reassentamento","area_km2":0.1971},"geometry":{"type":"Polygon","coordinates":[[[33.969432,-16.083274],[33.969434,-16.083545],[33.968312,-16.08355],[33.968313,-16.083821],[33.968594,-16.08382],[33.968598,-16.084634],[33.969158,-16.084631],[33.96916,-16.084902],[33.96944,-16.084901],[33.969444,-16.085714],[33.969725,-16.085713],[33.969727,-16.086255],[33.97029,-16.086524],[33.970292,-16.087066],[33.970573,-16.087065],[33.970856,-16.087606],[33.971136,-16.087605],[33.971134,-16.087063],[33.971975,-16.087059],[33.97198,-16.088143],[33.971139,-16.088147],[33.97114,-16.088418],[33.971703,-16.088687],[33.971996,-16.091398],[33.972838,-16.091394],[33.97284,-16.091936],[33.973962,-16.091931],[33.973961,-16.09166],[33.974802,-16.091656],[33.974798,-16.090842],[33.975079,-16.090841],[33.975078,-16.09057],[33.974236,-16.090574],[33.974235,-16.090303],[33.973954,-16.090304],[33.97395,-16.08949],[33.974231,-16.089489],[33.974226,-16.088404],[33.973945,-16.088406],[33.973944,-16.088135],[33.973383,-16.088137],[33.973379,-16.087324],[33.973659,-16.087322],[33.973937,-16.086779],[33.973096,-16.086783],[33.973092,-16.085969],[33.973653,-16.085966],[33.973649,-16.085153],[33.973929,-16.085152],[33.973927,-16.084609],[33.973085,-16.084613],[33.973084,-16.084342],[33.971962,-16.084347],[33.971684,-16.084891],[33.971965,-16.084889],[33.972253,-16.086515],[33.971972,-16.086516],[33.971974,-16.086788],[33.971132,-16.086791],[33.970849,-16.08625],[33.970288,-16.086253],[33.970284,-16.085439],[33.970004,-16.085441],[33.970001,-16.084898],[33.969721,-16.0849],[33.969713,-16.083273],[33.969432,-16.083274]],[[33.971982,-16.088415],[33.972823,-16.088411],[33.972828,-16.089496],[33.971987,-16.089499],[33.971982,-16.088415]],[[33.97283,-16.089767],[33.973671,-16.089763],[33.973675,-16.090576],[33.972834,-16.09058],[33.97283,-16.089767]]]}},{"type":"Feature","properties":{"ano":2025,"camada":"reassentamento","area_km2":0.0081},"geometry":{"type":"Polygon","coordinates":[[[33.963858,-16.090621],[33.963862,-16.091434],[33.964143,-16.091433],[33.964145,-16.091975],[33.964426,-16.091974],[33.964422,-16.091161],[33.964702,-16.091159],[33.964701,-16.090888],[33.964421,-16.090889],[33.964419,-16.090618],[33.963858,-16.090621]]]}},{"type":"Feature","properties":{"ano":2025,"camada":"reassentamento","area_km2":0.0018},"geometry":{"type":"Polygon","coordinates":[[[33.975923,-16.09138],[33.975926,-16.091922],[33.976206,-16.091921],[33.976203,-16.091378],[33.975923,-16.09138]]]}},{"type":"Feature","properties":{"ano":2025,"camada":"reassentamento","area_km2":0.0027},"geometry":{"type":"Polygon","coordinates":[[[33.975366,-16.092196],[33.975367,-16.092467],[33.97593,-16.092735],[33.975927,-16.092193],[33.975366,-16.092196]]]}},{"type":"Feature","properties":{"ano":2025,"camada":"reassentamento","area_km2":0.0234},"geometry":{"type":"Polygon","coordinates":[[[33.981251,-16.091084],[33.981255,-16.091898],[33.980133,-16.091903],[33.980134,-16.092174],[33.980415,-16.092173],[33.980419,-16.092986],[33.980699,-16.092985],[33.980698,-16.092714],[33.981539,-16.09271],[33.981542,-16.093252],[33.981822,-16.093251],[33.982095,-16.091623],[33.981534,-16.091625],[33.981531,-16.091083],[33.981251,-16.091084]]]}},{"type":"Feature","properties":{"ano":2025,"camada":"reassentamento","area_km2":0.0009},"geometry":{"type":"Polygon","coordinates":[[[33.972004,-16.093025],[33.972005,-16.093296],[33.972286,-16.093294],[33.972285,-16.093023],[33.972004,-16.093025]]]}},{"type":"Feature","properties":{"ano":2025,"camada":"reassentamento","area_km2":0.0009},"geometry":{"type":"Polygon","coordinates":[[[33.966115,-16.093322],[33.966117,-16.093594],[33.966397,-16.093592],[33.966396,-16.093321],[33.966115,-16.093322]]]}},{"type":"Feature","properties":{"ano":2025,"camada":"reassentamento","area_km2":0.0297},"geometry":{"type":"Polygon","coordinates":[[[33.965265,-16.091428],[33.965267,-16.09197],[33.964706,-16.091973],[33.96471,-16.092786],[33.96443,-16.092788],[33.964434,-16.093601],[33.964995,-16.093599],[33.964999,-16.094412],[33.965279,-16.094411],[33.965274,-16.093326],[33.965835,-16.093324],[33.965831,-16.09251],[33.966672,-16.092506],[33.96667,-16.091964],[33.966389,-16.091965],[33.96639,-16.092236],[33.965549,-16.09224],[33.965545,-16.091427],[33.965265,-16.091428]]]}},{"type":"Feature","properties":{"ano":2025,"camada":"reassentamento","area_km2":0.0009},"geometry":{"type":"Polygon","coordinates":[[[33.980143,-16.094072],[33.980145,-16.094343],[33.980425,-16.094342],[33.980424,-16.094071],[33.980143,-16.094072]]]}},{"type":"Feature","properties":{"ano":2025,"camada":"reassentamento","area_km2":0.0441},"geometry":{"type":"Polygon","coordinates":[[[33.977048,-16.091917],[33.977052,-16.09273],[33.97593,-16.092735],[33.975931,-16.093007],[33.976211,-16.093005],[33.976213,-16.093277],[33.977335,-16.093271],[33.977337,-16.093814],[33.977618,-16.093812],[33.977619,-16.094084],[33.978461,-16.09408],[33.978465,-16.094893],[33.979026,-16.094891],[33.979024,-16.09462],[33.978744,-16.094621],[33.97874,-16.093807],[33.979862,-16.093802],[33.979859,-16.09326],[33.98042,-16.093257],[33.980419,-16.092986],[33.979016,-16.092993],[33.979018,-16.093264],[33.978176,-16.093268],[33.978175,-16.092996],[33.977894,-16.092998],[33.977893,-16.092727],[33.977331,-16.092458],[33.977328,-16.091916],[33.977048,-16.091917]]]}},{"type":"Feature","properties":{"ano":2025,"camada":"reassentamento","area_km2":0.0135},"geometry":{"type":"Polygon","coordinates":[[[33.973969,-16.093287],[33.973971,-16.093829],[33.974252,-16.093828],[33.974538,-16.094911],[33.9751,-16.09518],[33.975095,-16.094095],[33.974814,-16.094096],[33.974812,-16.093554],[33.974531,-16.093555],[33.97453,-16.093284],[33.973969,-16.093287]]]}},{"type":"Feature","properties":{"ano":2025,"camada":"reassentamento","area_km2":0.1314},"geometry":{"type":"Polygon","coordinates":[[[33.96806,-16.089517],[33.968069,-16.091415],[33.967508,-16.091418],[33.96751,-16.091689],[33.96779,-16.091688],[33.967792,-16.091959],[33.969194,-16.091953],[33.969195,-16.092224],[33.969476,-16.092223],[33.96948,-16.093036],[33.96976,-16.093035],[33.969765,-16.094119],[33.969205,-16.094122],[33.969206,-16.094393],[33.968925,-16.094394],[33.968927,-16.094666],[33.968366,-16.094668],[33.968088,-16.095212],[33.966967,-16.095488],[33.966689,-16.096032],[33.96725,-16.096029],[33.967249,-16.095758],[33.96809,-16.095754],[33.968089,-16.095483],[33.968931,-16.095479],[33.968929,-16.095208],[33.96921,-16.095207],[33.969488,-16.094663],[33.970329,-16.094659],[33.970328,-16.094388],[33.970889,-16.094386],[33.970887,-16.094114],[33.971729,-16.094111],[33.971726,-16.093568],[33.970604,-16.093573],[33.9706,-16.09276],[33.972003,-16.092753],[33.972001,-16.092482],[33.971439,-16.092214],[33.971437,-16.091671],[33.970876,-16.091674],[33.970872,-16.09086],[33.970591,-16.090862],[33.97059,-16.09059],[33.969748,-16.090594],[33.969747,-16.090323],[33.969186,-16.090326],[33.969185,-16.090054],[33.968624,-16.090057],[33.968623,-16.089786],[33.96806,-16.089517]]]}},{"type":"Feature","properties":{"ano":2025,"camada":"reassentamento","area_km2":0.0018},"geometry":{"type":"Polygon","coordinates":[[[33.97931,-16.095703],[33.979313,-16.096245],[33.979593,-16.096244],[33.97959,-16.095702],[33.97931,-16.095703]]]}},{"type":"Feature","properties":{"ano":2025,"camada":"reassentamento","area_km2":0.0009},"geometry":{"type":"Polygon","coordinates":[[[33.973426,-16.097086],[33.973428,-16.097357],[33.973708,-16.097356],[33.973707,-16.097084],[33.973426,-16.097086]]]}},{"type":"Feature","properties":{"ano":2025,"camada":"reassentamento","area_km2":0.0072},"geometry":{"type":"Polygon","coordinates":[[[33.975668,-16.096533],[33.975953,-16.097617],[33.976514,-16.097614],[33.97651,-16.0968],[33.975949,-16.096803],[33.975948,-16.096532],[33.975668,-16.096533]]]}},{"type":"Feature","properties":{"ano":2025,"camada":"reassentamento","area_km2":0.0009},"geometry":{"type":"Polygon","coordinates":[[[33.977916,-16.097336],[33.977917,-16.097608],[33.978197,-16.097606],[33.978196,-16.097335],[33.977916,-16.097336]]]}},{"type":"Feature","properties":{"ano":2025,"camada":"reassentamento","area_km2":0.0009},"geometry":{"type":"Polygon","coordinates":[[[33.976796,-16.097884],[33.976798,-16.098155],[33.977078,-16.098154],[33.977077,-16.097883],[33.976796,-16.097884]]]}},{"type":"Feature","properties":{"ano":2025,"camada":"reassentamento","area_km2":0.0009},"geometry":{"type":"Polygon","coordinates":[[[34.03037,-16.097632],[34.030371,-16.097903],[34.030652,-16.097902],[34.03065,-16.097631],[34.03037,-16.097632]]]}},{"type":"Feature","properties":{"ano":2025,"camada":"reassentamento","area_km2":0.0027},"geometry":{"type":"Polygon","coordinates":[[[33.972307,-16.097633],[33.972311,-16.098447],[33.972591,-16.098445],[33.972588,-16.097632],[33.972307,-16.097633]]]}},{"type":"Feature","properties":{"ano":2025,"camada":"reassentamento","area_km2":0.0009},"geometry":{"type":"Polygon","coordinates":[[[34.030091,-16.097905],[34.030092,-16.098176],[34.030372,-16.098175],[34.030371,-16.097903],[34.030091,-16.097905]]]}},{"type":"Feature","properties":{"ano":2025,"camada":"reassentamento","area_km2":0.0018},"geometry":{"type":"Polygon","coordinates":[[[33.972591,-16.098445],[33.972593,-16.098717],[33.973154,-16.098714],[33.973152,-16.098443],[33.972591,-16.098445]]]}},{"type":"Feature","properties":{"ano":2025,"camada":"reassentamento","area_km2":0.0009},"geometry":{"type":"Polygon","coordinates":[[[34.028692,-16.098725],[34.028694,-16.098996],[34.028974,-16.098995],[34.028973,-16.098724],[34.028692,-16.098725]]]}},{"type":"Feature","properties":{"ano":2025,"camada":"reassentamento","area_km2":0.0153},"geometry":{"type":"Polygon","coordinates":[[[34.032618,-16.098435],[34.032621,-16.098977],[34.03206,-16.09898],[34.031785,-16.100066],[34.032346,-16.100063],[34.032343,-16.099521],[34.033745,-16.099514],[34.033744,-16.099243],[34.033463,-16.099244],[34.033462,-16.098973],[34.032901,-16.098976],[34.032898,-16.098434],[34.032618,-16.098435]]]}},{"type":"Feature","properties":{"ano":2025,"camada":"reassentamento","area_km2":0.0018},"geometry":{"type":"Polygon","coordinates":[[[34.033745,-16.099514],[34.033748,-16.100057],[34.034029,-16.100055],[34.034026,-16.099513],[34.033745,-16.099514]]]}},{"type":"Feature","properties":{"ano":2025,"camada":"reassentamento","area_km2":0.0018},"geometry":{"type":"Polygon","coordinates":[[[34.031224,-16.100069],[34.031225,-16.10034],[34.031786,-16.100337],[34.031785,-16.100066],[34.031224,-16.100069]]]}},{"type":"Feature","properties":{"ano":2025,"camada":"reassentamento","area_km2":0.0072},"geometry":{"type":"Polygon","coordinates":[[[34.028978,-16.099808],[34.028701,-16.100352],[34.028981,-16.100351],[34.028983,-16.100622],[34.029544,-16.100619],[34.029821,-16.100076],[34.029541,-16.100077],[34.029539,-16.099806],[34.028978,-16.099808]]]}},{"type":"Feature","properties":{"ano":2025,"camada":"reassentamento","area_km2":0.0009},"geometry":{"type":"Polygon","coordinates":[[[34.034591,-16.100324],[34.034592,-16.100595],[34.034873,-16.100593],[34.034872,-16.100322],[34.034591,-16.100324]]]}},{"type":"Feature","properties":{"ano":2025,"camada":"reassentamento","area_km2":0.0018},"geometry":{"type":"Polygon","coordinates":[[[34.024778,-16.101184],[34.024779,-16.101456],[34.02534,-16.101453],[34.025339,-16.101182],[34.024778,-16.101184]]]}},{"type":"Feature","properties":{"ano":2025,"camada":"reassentamento","area_km2":0.0009},"geometry":{"type":"Polygon","coordinates":[[[34.032632,-16.101147],[34.032633,-16.101418],[34.032914,-16.101416],[34.032912,-16.101145],[34.032632,-16.101147]]]}},{"type":"Feature","properties":{"ano":2025,"camada":"reassentamento","area_km2":0.0063},"geometry":{"type":"Polygon","coordinates":[[[34.034873,-16.100593],[34.034877,-16.101407],[34.034597,-16.101408],[34.034598,-16.101679],[34.035159,-16.101677],[34.035156,-16.101134],[34.035437,-16.101133],[34.035434,-16.100591],[34.034873,-16.100593]]]}},{"type":"Feature","properties":{"ano":2025,"camada":"reassentamento","area_km2":0.0117},"geometry":{"type":"Polygon","coordinates":[[[34.033194,-16.101415],[34.033197,-16.101957],[34.033758,-16.101955],[34.033761,-16.102497],[34.034322,-16.102494],[34.034323,-16.102765],[34.034604,-16.102764],[34.034598,-16.101679],[34.033476,-16.101685],[34.033475,-16.101414],[34.033194,-16.101415]]]}},{"type":"Feature","properties":{"ano":2025,"camada":"reassentamento","area_km2":0.009},"geometry":{"type":"Polygon","coordinates":[[[34.035999,-16.101402],[34.036001,-16.101673],[34.036281,-16.101671],[34.036285,-16.102485],[34.036005,-16.102486],[34.036006,-16.102757],[34.036567,-16.102755],[34.036566,-16.102483],[34.036846,-16.102482],[34.036842,-16.101669],[34.036562,-16.10167],[34.03656,-16.101399],[34.035999,-16.101402]]]}},{"type":"Feature","properties":{"ano":2025,"camada":"reassentamento","area_km2":0.0009},"geometry":{"type":"Polygon","coordinates":[[[34.034884,-16.102763],[34.034886,-16.103034],[34.035166,-16.103033],[34.035165,-16.102761],[34.034884,-16.102763]]]}},{"type":"Feature","properties":{"ano":2025,"camada":"reassentamento","area_km2":0.0054},"geometry":{"type":"Polygon","coordinates":[[[34.037409,-16.102751],[34.037411,-16.103293],[34.038253,-16.103289],[34.03825,-16.102746],[34.037409,-16.102751]]]}},{"type":"Feature","properties":{"ano":2025,"camada":"reassentamento","area_km2":0.0099},"geometry":{"type":"Polygon","coordinates":[[[34.031235,-16.102238],[34.031239,-16.103052],[34.030959,-16.103053],[34.03096,-16.103324],[34.031522,-16.103593],[34.031521,-16.103321],[34.032082,-16.103319],[34.032081,-16.103048],[34.0318,-16.103049],[34.031796,-16.102235],[34.031235,-16.102238]]]}},{"type":"Feature","properties":{"ano":2025,"camada":"reassentamento","area_km2":0.0009},"geometry":{"type":"Polygon","coordinates":[[[34.032363,-16.103317],[34.032364,-16.103588],[34.032644,-16.103587],[34.032643,-16.103316],[34.032363,-16.103317]]]}},{"type":"Feature","properties":{"ano":2025,"camada":"reassentamento","area_km2":0.0288},"geometry":{"type":"Polygon","coordinates":[[[34.029827,-16.10116],[34.029832,-16.102245],[34.029552,-16.102246],[34.029556,-16.10306],[34.029276,-16.103061],[34.029562,-16.104144],[34.030123,-16.104142],[34.030116,-16.102786],[34.030396,-16.102784],[34.030393,-16.102242],[34.031235,-16.102238],[34.031232,-16.101696],[34.030671,-16.101698],[34.03067,-16.101427],[34.030109,-16.10143],[34.030107,-16.101159],[34.029827,-16.10116]]]}},{"type":"Feature","properties":{"ano":2025,"camada":"reassentamento","area_km2":0.0081},"geometry":{"type":"Polygon","coordinates":[[[34.038253,-16.103289],[34.038257,-16.104102],[34.039379,-16.104097],[34.039378,-16.103826],[34.039097,-16.103827],[34.038814,-16.103286],[34.038253,-16.103289]]]}},{"type":"Feature","properties":{"ano":2025,"camada":"reassentamento","area_km2":0.0009},"geometry":{"type":"Polygon","coordinates":[[[34.023389,-16.103903],[34.023391,-16.104174],[34.023671,-16.104173],[34.02367,-16.103901],[34.023389,-16.103903]]]}},{"type":"Feature","properties":{"ano":2025,"camada":"reassentamento","area_km2":0.0009},"geometry":{"type":"Polygon","coordinates":[[[34.037977,-16.104104],[34.037978,-16.104375],[34.038259,-16.104373],[34.038257,-16.104102],[34.037977,-16.104104]]]}},{"type":"Feature","properties":{"ano":2025,"camada":"reassentamento","area_km2":0.0171},"geometry":{"type":"Polygon","coordinates":[[[34.035448,-16.103302],[34.035449,-16.103574],[34.036012,-16.103842],[34.036016,-16.104655],[34.036857,-16.104651],[34.036853,-16.103838],[34.037414,-16.103835],[34.037411,-16.103293],[34.03685,-16.103296],[34.036852,-16.103567],[34.03601,-16.103571],[34.036009,-16.1033],[34.035448,-16.103302]]]}},{"type":"Feature","properties":{"ano":2025,"camada":"reassentamento","area_km2":0.0054},"geometry":{"type":"Polygon","coordinates":[[[34.023952,-16.104171],[34.023955,-16.104714],[34.024517,-16.104982],[34.024514,-16.10444],[34.024795,-16.104438],[34.024793,-16.104167],[34.023952,-16.104171]]]}},{"type":"Feature","properties":{"ano":2025,"camada":"reassentamento","area_km2":0.0036},"geometry":{"type":"Polygon","coordinates":[[[34.030405,-16.104411],[34.030407,-16.104954],[34.030968,-16.104951],[34.030966,-16.104409],[34.030405,-16.104411]]]}},{"type":"Feature","properties":{"ano":2025,"camada":"reassentamento","area_km2":0.0027},"geometry":{"type":"Polygon","coordinates":[[[34.036857,-16.104651],[34.036859,-16.104923],[34.037421,-16.105191],[34.037418,-16.104649],[34.036857,-16.104651]]]}},{"type":"Feature","properties":{"ano":2025,"camada":"reassentamento","area_km2":0.0009},"geometry":{"type":"Polygon","coordinates":[[[34.025079,-16.105251],[34.025081,-16.105522],[34.025361,-16.10552],[34.02536,-16.105249],[34.025079,-16.105251]]]}},{"type":"Feature","properties":{"ano":2025,"camada":"reassentamento","area_km2":0.0009},"geometry":{"type":"Polygon","coordinates":[[[34.029009,-16.105774],[34.029011,-16.106045],[34.029291,-16.106044],[34.02929,-16.105773],[34.029009,-16.105774]]]}},{"type":"Feature","properties":{"ano":2025,"camada":"reassentamento","area_km2":0.0018},"geometry":{"type":"Polygon","coordinates":[[[34.038266,-16.105729],[34.038267,-16.106],[34.038828,-16.105998],[34.038827,-16.105727],[34.038266,-16.105729]]]}},{"type":"Feature","properties":{"ano":2025,"camada":"reassentamento","area_km2":0.0027},"geometry":{"type":"Polygon","coordinates":[[[34.035462,-16.106014],[34.035463,-16.106285],[34.036305,-16.106281],[34.036304,-16.10601],[34.035462,-16.106014]]]}},{"type":"Feature","properties":{"ano":2025,"camada":"reassentamento","area_km2":0.0009},"geometry":{"type":"Polygon","coordinates":[[[34.038828,-16.105998],[34.038829,-16.106269],[34.03911,-16.106268],[34.039109,-16.105996],[34.038828,-16.105998]]]}},{"type":"Feature","properties":{"ano":2025,"camada":"reassentamento","area_km2":0.0135},"geometry":{"type":"Polygon","coordinates":[[[34.03125,-16.105221],[34.030975,-16.106307],[34.031256,-16.106306],[34.031257,-16.106577],[34.032378,-16.1063],[34.032377,-16.106029],[34.031814,-16.105761],[34.031811,-16.105218],[34.03125,-16.105221]]]}},{"type":"Feature","properties":{"ano":2025,"camada":"reassentamento","area_km2":0.0009},"geometry":{"type":"Polygon","coordinates":[[[34.03266,-16.10657],[34.032661,-16.106841],[34.032942,-16.10684],[34.03294,-16.106569],[34.03266,-16.10657]]]}},{"type":"Feature","properties":{"ano":2025,"camada":"reassentamento","area_km2":0.0009},"geometry":{"type":"Polygon","coordinates":[[[34.039392,-16.106537],[34.039393,-16.106808],[34.039674,-16.106807],[34.039672,-16.106536],[34.039392,-16.106537]]]}},{"type":"Feature","properties":{"ano":2025,"camada":"reassentamento","area_km2":0.0009},"geometry":{"type":"Polygon","coordinates":[[[34.032942,-16.10684],[34.032943,-16.107111],[34.033224,-16.10711],[34.033222,-16.106838],[34.032942,-16.10684]]]}},{"type":"Feature","properties":{"ano":2025,"camada":"reassentamento","area_km2":0.0009},"geometry":{"type":"Polygon","coordinates":[[[34.037713,-16.107359],[34.037714,-16.10763],[34.037995,-16.107629],[34.037994,-16.107358],[34.037713,-16.107359]]]}},{"type":"Feature","properties":{"ano":2025,"camada":"reassentamento","area_km2":0.0108},"geometry":{"type":"Polygon","coordinates":[[[34.040514,-16.106532],[34.040515,-16.106803],[34.039674,-16.106807],[34.039675,-16.107078],[34.039956,-16.107077],[34.039957,-16.107348],[34.040238,-16.107347],[34.040521,-16.107888],[34.041082,-16.107885],[34.04108,-16.107614],[34.0408,-16.107615],[34.040794,-16.10653],[34.040514,-16.106532]]]}},{"type":"Feature","properties":{"ano":2025,"camada":"reassentamento","area_km2":0.0009},"geometry":{"type":"Polygon","coordinates":[[[34.031263,-16.107661],[34.031264,-16.107933],[34.031545,-16.107931],[34.031543,-16.10766],[34.031263,-16.107661]]]}},{"type":"Feature","properties":{"ano":2025,"camada":"reassentamento","area_km2":0.0081},"geometry":{"type":"Polygon","coordinates":[[[34.033224,-16.10711],[34.033225,-16.107381],[34.033506,-16.107379],[34.033507,-16.107651],[34.033787,-16.107649],[34.034071,-16.10819],[34.034632,-16.108187],[34.03463,-16.107916],[34.03435,-16.107918],[34.034347,-16.107375],[34.033224,-16.10711]]]}},{"type":"Feature","properties":{"ano":2025,"camada":"reassentamento","area_km2":0.0027},"geometry":{"type":"Polygon","coordinates":[[[34.041082,-16.107885],[34.041085,-16.108427],[34.041646,-16.108425],[34.041644,-16.108153],[34.041082,-16.107885]]]}},{"type":"Feature","properties":{"ano":2025,"camada":"reassentamento","area_km2":0.0009},"geometry":{"type":"Polygon","coordinates":[[[34.034632,-16.108187],[34.034633,-16.108459],[34.034914,-16.108457],[34.034912,-16.108186],[34.034632,-16.108187]]]}},{"type":"Feature","properties":{"ano":2025,"camada":"reassentamento","area_km2":0.0009},"geometry":{"type":"Polygon","coordinates":[[[34.031828,-16.108472],[34.03183,-16.108743],[34.03211,-16.108742],[34.032109,-16.108471],[34.031828,-16.108472]]]}},{"type":"Feature","properties":{"ano":2025,"camada":"reassentamento","area_km2":0.0018},"geometry":{"type":"Polygon","coordinates":[[[34.03856,-16.10844],[34.038562,-16.108711],[34.039123,-16.108708],[34.039121,-16.108437],[34.03856,-16.10844]]]}},{"type":"Feature","properties":{"ano":2025,"camada":"reassentamento","area_km2":0.0018},"geometry":{"type":"Polygon","coordinates":[[[34.03211,-16.108742],[34.032111,-16.109013],[34.032672,-16.10901],[34.032671,-16.108739],[34.03211,-16.108742]]]}},{"type":"Feature","properties":{"ano":2025,"camada":"reassentamento","area_km2":0.0009},"geometry":{"type":"Polygon","coordinates":[[[34.035196,-16.108727],[34.035197,-16.108998],[34.035478,-16.108997],[34.035476,-16.108726],[34.035196,-16.108727]]]}},{"type":"Feature","properties":{"ano":2025,"camada":"reassentamento","area_km2":0.099},"geometry":{"type":"Polygon","coordinates":[[[34.025365,-16.106334],[34.025367,-16.106605],[34.025928,-16.106602],[34.025932,-16.107416],[34.026493,-16.107413],[34.026497,-16.108227],[34.025936,-16.108229],[34.025939,-16.108772],[34.025378,-16.108774],[34.025379,-16.109046],[34.02566,-16.109044],[34.025661,-16.109315],[34.026783,-16.10931],[34.026785,-16.109581],[34.027346,-16.109578],[34.027347,-16.10985],[34.027628,-16.109848],[34.027625,-16.109306],[34.028186,-16.109303],[34.02818,-16.108219],[34.029022,-16.108215],[34.029025,-16.108757],[34.029586,-16.108754],[34.029587,-16.109025],[34.029867,-16.109024],[34.02986,-16.107668],[34.030702,-16.107664],[34.030701,-16.107393],[34.03042,-16.107394],[34.030417,-16.106852],[34.030137,-16.106853],[34.030138,-16.107124],[34.029297,-16.107129],[34.029295,-16.106857],[34.028734,-16.10686],[34.028733,-16.106589],[34.028452,-16.10659],[34.028455,-16.107133],[34.027333,-16.107138],[34.027332,-16.106867],[34.027051,-16.106868],[34.02705,-16.106597],[34.026489,-16.1066],[34.026487,-16.106329],[34.025365,-16.106334]],[[34.026778,-16.108225],[34.027619,-16.108221],[34.027623,-16.109035],[34.026782,-16.109039],[34.026778,-16.108225]]]}},{"type":"Feature","properties":{"ano":2025,"camada":"reassentamento","area_km2":0.0054},"geometry":{"type":"Polygon","coordinates":[[[34.032672,-16.10901],[34.032674,-16.109282],[34.032954,-16.10928],[34.033238,-16.109821],[34.033799,-16.109819],[34.033797,-16.109547],[34.033517,-16.109549],[34.033233,-16.109008],[34.032672,-16.10901]]]}},{"type":"Feature","properties":{"ano":2025,"camada":"reassentamento","area_km2":0.0009},"geometry":{"type":"Polygon","coordinates":[[[34.036322,-16.109535],[34.036323,-16.109806],[34.036604,-16.109805],[34.036602,-16.109534],[34.036322,-16.109535]]]}},{"type":"Feature","properties":{"ano":2025,"camada":"reassentamento","area_km2":0.0009},"geometry":{"type":"Polygon","coordinates":[[[34.036604,-16.109805],[34.036605,-16.110076],[34.036886,-16.110075],[34.036884,-16.109804],[34.036604,-16.109805]]]}},{"type":"Feature","properties":{"ano":2025,"camada":"reassentamento","area_km2":0.0018},"geometry":{"type":"Polygon","coordinates":[[[34.029311,-16.10984],[34.029313,-16.110383],[34.029594,-16.110381],[34.029591,-16.109839],[34.029311,-16.10984]]]}},{"type":"Feature","properties":{"ano":2025,"camada":"reassentamento","area_km2":0.0009},"geometry":{"type":"Polygon","coordinates":[[[34.036886,-16.110075],[34.036887,-16.110346],[34.037168,-16.110345],[34.037166,-16.110073],[34.036886,-16.110075]]]}},{"type":"Feature","properties":{"ano":2025,"camada":"reassentamento","area_km2":0.0036},"geometry":{"type":"Polygon","coordinates":[[[34.030994,-16.109832],[34.030996,-16.110374],[34.031559,-16.110643],[34.031556,-16.110101],[34.030994,-16.109832]]]}},{"type":"Feature","properties":{"ano":2025,"camada":"reassentamento","area_km2":0.0009},"geometry":{"type":"Polygon","coordinates":[[[34.031559,-16.110643],[34.03156,-16.110914],[34.031841,-16.110913],[34.031839,-16.110641],[34.031559,-16.110643]]]}},{"type":"Feature","properties":{"ano":2025,"camada":"reassentamento","area_km2":0.0198},"geometry":{"type":"Polygon","coordinates":[[[34.033799,-16.109819],[34.033802,-16.110361],[34.034363,-16.110358],[34.034365,-16.1109],[34.034646,-16.110899],[34.034647,-16.11117],[34.035769,-16.111165],[34.035765,-16.110351],[34.034924,-16.110355],[34.034921,-16.109813],[34.033799,-16.109819]]]}},{"type":"Feature","properties":{"ano":2025,"camada":"reassentamento","area_km2":0.0018},"geometry":{"type":"Polygon","coordinates":[[[34.031841,-16.110913],[34.031842,-16.111184],[34.032403,-16.111181],[34.032402,-16.11091],[34.031841,-16.110913]]]}},{"type":"Feature","properties":{"ano":2025,"camada":"reassentamento","area_km2":0.0009},"geometry":{"type":"Polygon","coordinates":[[[34.032403,-16.111181],[34.032405,-16.111452],[34.032685,-16.111451],[34.032684,-16.11118],[34.032403,-16.111181]]]}},{"type":"Feature","properties":{"ano":2025,"camada":"reassentamento","area_km2":0.0018},"geometry":{"type":"Polygon","coordinates":[[[34.035769,-16.111165],[34.035772,-16.111707],[34.036053,-16.111706],[34.03605,-16.111163],[34.035769,-16.111165]]]}},{"type":"Feature","properties":{"ano":2025,"camada":"reassentamento","area_km2":0.0009},"geometry":{"type":"Polygon","coordinates":[[[34.038576,-16.111422],[34.038577,-16.111694],[34.038858,-16.111692],[34.038856,-16.111421],[34.038576,-16.111422]]]}},{"type":"Feature","properties":{"ano":2025,"camada":"reassentamento","area_km2":0.0009},"geometry":{"type":"Polygon","coordinates":[[[34.036053,-16.111706],[34.036054,-16.111977],[34.036335,-16.111976],[34.036333,-16.111704],[34.036053,-16.111706]]]}},{"type":"Feature","properties":{"ano":2025,"camada":"reassentamento","area_km2":0.0045},"geometry":{"type":"Polygon","coordinates":[[[34.032966,-16.11145],[34.032968,-16.111992],[34.033531,-16.11226],[34.033527,-16.111447],[34.032966,-16.11145]]]}},{"type":"Feature","properties":{"ano":2025,"camada":"reassentamento","area_km2":0.0009},"geometry":{"type":"Polygon","coordinates":[[[34.030444,-16.112004],[34.030445,-16.112275],[34.030726,-16.112274],[34.030724,-16.112003],[34.030444,-16.112004]]]}},{"type":"Feature","properties":{"ano":2025,"camada":"reassentamento","area_km2":0.0045},"geometry":{"type":"Polygon","coordinates":[[[34.033811,-16.112259],[34.033816,-16.113072],[34.034377,-16.11307],[34.034374,-16.112527],[34.033811,-16.112259]]]}},{"type":"Feature","properties":{"ano":2025,"camada":"reassentamento","area_km2":0.0027},"geometry":{"type":"Polygon","coordinates":[[[34.033255,-16.113075],[34.033256,-16.113346],[34.033818,-16.113615],[34.033816,-16.113072],[34.033255,-16.113075]]]}},{"type":"Feature","properties":{"ano":2025,"camada":"reassentamento","area_km2":0.0108},"geometry":{"type":"Polygon","coordinates":[[[34.031008,-16.112544],[34.03101,-16.113086],[34.031572,-16.113083],[34.031573,-16.113355],[34.031853,-16.113353],[34.032137,-16.113894],[34.032698,-16.113891],[34.032131,-16.112809],[34.03129,-16.112814],[34.031288,-16.112542],[34.031008,-16.112544]]]}},{"type":"Feature","properties":{"ano":2025,"camada":"reassentamento","area_km2":0.0009},"geometry":{"type":"Polygon","coordinates":[[[34.029612,-16.113906],[34.029614,-16.114177],[34.029894,-16.114176],[34.029893,-16.113905],[34.029612,-16.113906]]]}},{"type":"Feature","properties":{"ano":2025,"camada":"reassentamento","area_km2":0.0009},"geometry":{"type":"Polygon","coordinates":[[[34.03298,-16.114161],[34.032981,-16.114432],[34.033262,-16.114431],[34.03326,-16.11416],[34.03298,-16.114161]]]}},{"type":"Feature","properties":{"ano":2025,"camada":"reassentamento","area_km2":0.0009},"geometry":{"type":"Polygon","coordinates":[[[34.034943,-16.114152],[34.034945,-16.114423],[34.035225,-16.114422],[34.035224,-16.11415],[34.034943,-16.114152]]]}},{"type":"Feature","properties":{"ano":2025,"camada":"reassentamento","area_km2":0.0009},"geometry":{"type":"Polygon","coordinates":[[[34.033823,-16.114428],[34.033824,-16.114699],[34.034105,-16.114698],[34.034103,-16.114427],[34.033823,-16.114428]]]}}]}