{
"type": "FeatureCollection",
"name": "agua_2015",
"crs": { "type": "name", "properties": { "name": "urn:ogc:def:crs:EPSG::32736" } },
"features": [
{ "type": "Feature", "properties": { "ano": 2015, "camada": "agua", "area_km2": 0.0018 }, "geometry": { "type": "Polygon", "coordinates": [ [ [ 577492.242421298637055, 8224910.283040727488697 ], [ 577492.242421298637055, 8224880.283040727488697 ], [ 577552.242421298637055, 8224880.283040727488697 ], [ 577552.242421298637055, 8224910.283040727488697 ], [ 577492.242421298637055, 8224910.283040727488697 ] ] ] } },
{ "type": "Feature", "properties": { "ano": 2015, "camada": "agua", "area_km2": 0.0027 }, "geometry": { "type": "Polygon", "coordinates": [ [ [ 577672.242421298637055, 8224910.283040727488697 ], [ 577672.242421298637055, 8224880.283040727488697 ], [ 577762.242421298637055, 8224880.283040727488697 ], [ 577762.242421298637055, 8224910.283040727488697 ], [ 577672.242421298637055, 8224910.283040727488697 ] ] ] } },
{ "type": "Feature", "properties": { "ano": 2015, "camada": "agua", "area_km2": 0.0027 }, "geometry": { "type": "Polygon", "coordinates": [ [ [ 576592.242421298637055, 8224310.283040727488697 ], [ 576592.242421298637055, 8224250.283040727488697 ], [ 576652.242421298637055, 8224250.283040727488697 ], [ 576652.242421298637055, 8224280.283040727488697 ], [ 576622.242421298637055, 8224280.283040727488697 ], [ 576622.242421298637055, 8224310.283040727488697 ], [ 576592.242421298637055, 8224310.283040727488697 ] ] ] } },
{ "type": "Feature", "properties": { "ano": 2015, "camada": "agua", "area_km2": 0.0009 }, "geometry": { "type": "Polygon", "coordinates": [ [ [ 576562.242421298637055, 8223950.283040727488697 ], [ 576562.242421298637055, 8223920.283040727488697 ], [ 576592.242421298637055, 8223920.283040727488697 ], [ 576592.242421298637055, 8223950.283040727488697 ], [ 576562.242421298637055, 8223950.283040727488697 ] ] ] } },
{ "type": "Feature", "properties": { "ano": 2015, "camada": "agua", "area_km2": 0.0009 }, "geometry": { "type": "Polygon", "coordinates": [ [ [ 576532.242421298637055, 8223890.283040727488697 ], [ 576532.242421298637055, 8223860.283040727488697 ], [ 576562.242421298637055, 8223860.283040727488697 ], [ 576562.242421298637055, 8223890.283040727488697 ], [ 576532.242421298637055, 8223890.283040727488697 ] ] ] } },
{ "type": "Feature", "properties": { "ano": 2015, "camada": "agua", "area_km2": 0.0009 }, "geometry": { "type": "Polygon", "coordinates": [ [ [ 576562.242421298637055, 8223710.283040727488697 ], [ 576562.242421298637055, 8223680.283040727488697 ], [ 576592.242421298637055, 8223680.283040727488697 ], [ 576592.242421298637055, 8223710.283040727488697 ], [ 576562.242421298637055, 8223710.283040727488697 ] ] ] } },
{ "type": "Feature", "properties": { "ano": 2015, "camada": "agua", "area_km2": 0.0009 }, "geometry": { "type": "Polygon", "coordinates": [ [ [ 576562.242421298637055, 8223650.283040727488697 ], [ 576562.242421298637055, 8223620.283040727488697 ], [ 576592.242421298637055, 8223620.283040727488697 ], [ 576592.242421298637055, 8223650.283040727488697 ], [ 576562.242421298637055, 8223650.283040727488697 ] ] ] } },
{ "type": "Feature", "properties": { "ano": 2015, "camada": "agua", "area_km2": 0.0009 }, "geometry": { "type": "Polygon", "coordinates": [ [ [ 576382.242421298637055, 8222990.283040727488697 ], [ 576382.242421298637055, 8222960.283040727488697 ], [ 576412.242421298637055, 8222960.283040727488697 ], [ 576412.242421298637055, 8222990.283040727488697 ], [ 576382.242421298637055, 8222990.283040727488697 ] ] ] } },
{ "type": "Feature", "properties": { "ano": 2015, "camada": "agua", "area_km2": 0.0009 }, "geometry": { "type": "Polygon", "coordinates": [ [ [ 576442.242421298637055, 8222930.283040727488697 ], [ 576442.242421298637055, 8222900.283040727488697 ], [ 576472.242421298637055, 8222900.283040727488697 ], [ 576472.242421298637055, 8222930.283040727488697 ], [ 576442.242421298637055, 8222930.283040727488697 ] ] ] } },
{ "type": "Feature", "properties": { "ano": 2015, "camada": "agua", "area_km2": 0.0009 }, "geometry": { "type": "Polygon", "coordinates": [ [ [ 576322.242421298637055, 8222810.283040727488697 ], [ 576322.242421298637055, 8222780.283040727488697 ], [ 576352.242421298637055, 8222780.283040727488697 ], [ 576352.242421298637055, 8222810.283040727488697 ], [ 576322.242421298637055, 8222810.283040727488697 ] ] ] } },
{ "type": "Feature", "properties": { "ano": 2015, "camada": "agua", "area_km2": 0.0009 }, "geometry": { "type": "Polygon", "coordinates": [ [ [ 576382.242421298637055, 8222780.283040727488697 ], [ 576382.242421298637055, 8222750.283040727488697 ], [ 576412.242421298637055, 8222750.283040727488697 ], [ 576412.242421298637055, 8222780.283040727488697 ], [ 576382.242421298637055, 8222780.283040727488697 ] ] ] } },
{ "type": "Feature", "properties": { "ano": 2015, "camada": "agua", "area_km2": 0.0009 }, "geometry": { "type": "Polygon", "coordinates": [ [ [ 576202.242421298637055, 8222480.283040727488697 ], [ 576202.242421298637055, 8222450.283040727488697 ], [ 576232.242421298637055, 8222450.283040727488697 ], [ 576232.242421298637055, 8222480.283040727488697 ], [ 576202.242421298637055, 8222480.283040727488697 ] ] ] } },
{ "type": "Feature", "properties": { "ano": 2015, "camada": "agua", "area_km2": 0.0009 }, "geometry": { "type": "Polygon", "coordinates": [ [ [ 576052.242421298637055, 8222120.283040727488697 ], [ 576052.242421298637055, 8222090.283040727488697 ], [ 576082.242421298637055, 8222090.283040727488697 ], [ 576082.242421298637055, 8222120.283040727488697 ], [ 576052.242421298637055, 8222120.283040727488697 ] ] ] } },
{ "type": "Feature", "properties": { "ano": 2015, "camada": "agua", "area_km2": 0.0009 }, "geometry": { "type": "Polygon", "coordinates": [ [ [ 576022.242421298637055, 8222090.283040727488697 ], [ 576022.242421298637055, 8222060.283040727488697 ], [ 576052.242421298637055, 8222060.283040727488697 ], [ 576052.242421298637055, 8222090.283040727488697 ], [ 576022.242421298637055, 8222090.283040727488697 ] ] ] } },
{ "type": "Feature", "properties": { "ano": 2015, "camada": "agua", "area_km2": 0.0009 }, "geometry": { "type": "Polygon", "coordinates": [ [ [ 575902.242421298637055, 8221400.283040727488697 ], [ 575902.242421298637055, 8221370.283040727488697 ], [ 575932.242421298637055, 8221370.283040727488697 ], [ 575932.242421298637055, 8221400.283040727488697 ], [ 575902.242421298637055, 8221400.283040727488697 ] ] ] } },
{ "type": "Feature", "properties": { "ano": 2015, "camada": "agua", "area_km2": 0.0009 }, "geometry": { "type": "Polygon", "coordinates": [ [ [ 575872.242421298637055, 8221310.283040727488697 ], [ 575872.242421298637055, 8221280.283040727488697 ], [ 575902.242421298637055, 8221280.283040727488697 ], [ 575902.242421298637055, 8221310.283040727488697 ], [ 575872.242421298637055, 8221310.283040727488697 ] ] ] } },
{ "type": "Feature", "properties": { "ano": 2015, "camada": "agua", "area_km2": 0.0009 }, "geometry": { "type": "Polygon", "coordinates": [ [ [ 575842.242421298637055, 8221280.283040727488697 ], [ 575842.242421298637055, 8221250.283040727488697 ], [ 575872.242421298637055, 8221250.283040727488697 ], [ 575872.242421298637055, 8221280.283040727488697 ], [ 575842.242421298637055, 8221280.283040727488697 ] ] ] } },
{ "type": "Feature", "properties": { "ano": 2015, "camada": "agua", "area_km2": 0.0009 }, "geometry": { "type": "Polygon", "coordinates": [ [ [ 575812.242421298637055, 8221160.283040727488697 ], [ 575812.242421298637055, 8221130.283040727488697 ], [ 575842.242421298637055, 8221130.283040727488697 ], [ 575842.242421298637055, 8221160.283040727488697 ], [ 575812.242421298637055, 8221160.283040727488697 ] ] ] } },
{ "type": "Feature", "properties": { "ano": 2015, "camada": "agua", "area_km2": 0.0009 }, "geometry": { "type": "Polygon", "coordinates": [ [ [ 575782.242421298637055, 8221100.283040727488697 ], [ 575782.242421298637055, 8221070.283040727488697 ], [ 575812.242421298637055, 8221070.283040727488697 ], [ 575812.242421298637055, 8221100.283040727488697 ], [ 575782.242421298637055, 8221100.283040727488697 ] ] ] } },
{ "type": "Feature", "properties": { "ano": 2015, "camada": "agua", "area_km2": 0.0009 }, "geometry": { "type": "Polygon", "coordinates": [ [ [ 575752.242421298637055, 8221040.283040727488697 ], [ 575752.242421298637055, 8221010.283040727488697 ], [ 575782.242421298637055, 8221010.283040727488697 ], [ 575782.242421298637055, 8221040.283040727488697 ], [ 575752.242421298637055, 8221040.283040727488697 ] ] ] } },
{ "type": "Feature", "properties": { "ano": 2015, "camada": "agua", "area_km2": 0.0009 }, "geometry": { "type": "Polygon", "coordinates": [ [ [ 575512.242421298637055, 8220860.283040727488697 ], [ 575512.242421298637055, 8220830.283040727488697 ], [ 575542.242421298637055, 8220830.283040727488697 ], [ 575542.242421298637055, 8220860.283040727488697 ], [ 575512.242421298637055, 8220860.283040727488697 ] ] ] } },
{ "type": "Feature", "properties": { "ano": 2015, "camada": "agua", "area_km2": 0.0018 }, "geometry": { "type": "Polygon", "coordinates": [ [ [ 575482.242421298637055, 8220800.283040727488697 ], [ 575482.242421298637055, 8220770.283040727488697 ], [ 575542.242421298637055, 8220770.283040727488697 ], [ 575542.242421298637055, 8220800.283040727488697 ], [ 575482.242421298637055, 8220800.283040727488697 ] ] ] } },
{ "type": "Feature", "properties": { "ano": 2015, "camada": "agua", "area_km2": 0.0009 }, "geometry": { "type": "Polygon", "coordinates": [ [ [ 575272.242421298637055, 8220740.283040727488697 ], [ 575272.242421298637055, 8220710.283040727488697 ], [ 575302.242421298637055, 8220710.283040727488697 ], [ 575302.242421298637055, 8220740.283040727488697 ], [ 575272.242421298637055, 8220740.283040727488697 ] ] ] } },
{ "type": "Feature", "properties": { "ano": 2015, "camada": "agua", "area_km2": 0.0009 }, "geometry": { "type": "Polygon", "coordinates": [ [ [ 575332.242421298637055, 8220740.283040727488697 ], [ 575332.242421298637055, 8220710.283040727488697 ], [ 575362.242421298637055, 8220710.283040727488697 ], [ 575362.242421298637055, 8220740.283040727488697 ], [ 575332.242421298637055, 8220740.283040727488697 ] ] ] } },
{ "type": "Feature", "properties": { "ano": 2015, "camada": "agua", "area_km2": 0.0009 }, "geometry": { "type": "Polygon", "coordinates": [ [ [ 575392.242421298637055, 8220740.283040727488697 ], [ 575392.242421298637055, 8220710.283040727488697 ], [ 575422.242421298637055, 8220710.283040727488697 ], [ 575422.242421298637055, 8220740.283040727488697 ], [ 575392.242421298637055, 8220740.283040727488697 ] ] ] } },
{ "type": "Feature", "properties": { "ano": 2015, "camada": "agua", "area_km2": 0.0009 }, "geometry": { "type": "Polygon", "coordinates": [ [ [ 575452.242421298637055, 8220740.283040727488697 ], [ 575452.242421298637055, 8220710.283040727488697 ], [ 575482.242421298637055, 8220710.283040727488697 ], [ 575482.242421298637055, 8220740.283040727488697 ], [ 575452.242421298637055, 8220740.283040727488697 ] ] ] } },
{ "type": "Feature", "properties": { "ano": 2015, "camada": "agua", "area_km2": 0.0009 }, "geometry": { "type": "Polygon", "coordinates": [ [ [ 573622.242421298637055, 8220680.283040727488697 ], [ 573622.242421298637055, 8220650.283040727488697 ], [ 573652.242421298637055, 8220650.283040727488697 ], [ 573652.242421298637055, 8220680.283040727488697 ], [ 573622.242421298637055, 8220680.283040727488697 ] ] ] } },
{ "type": "Feature", "properties": { "ano": 2015, "camada": "agua", "area_km2": 0.0018 }, "geometry": { "type": "Polygon", "coordinates": [ [ [ 574252.242421298637055, 8220680.283040727488697 ], [ 574252.242421298637055, 8220650.283040727488697 ], [ 574312.242421298637055, 8220650.283040727488697 ], [ 574312.242421298637055, 8220680.283040727488697 ], [ 574252.242421298637055, 8220680.283040727488697 ] ] ] } },
{ "type": "Feature", "properties": { "ano": 2015, "camada": "agua", "area_km2": 0.0009 }, "geometry": { "type": "Polygon", "coordinates": [ [ [ 575272.242421298637055, 8220680.283040727488697 ], [ 575272.242421298637055, 8220650.283040727488697 ], [ 575302.242421298637055, 8220650.283040727488697 ], [ 575302.242421298637055, 8220680.283040727488697 ], [ 575272.242421298637055, 8220680.283040727488697 ] ] ] } },
{ "type": "Feature", "properties": { "ano": 2015, "camada": "agua", "area_km2": 0.0009 }, "geometry": { "type": "Polygon", "coordinates": [ [ [ 573532.242421298637055, 8220650.283040727488697 ], [ 573532.242421298637055, 8220620.283040727488697 ], [ 573562.242421298637055, 8220620.283040727488697 ], [ 573562.242421298637055, 8220650.283040727488697 ], [ 573532.242421298637055, 8220650.283040727488697 ] ] ] } },
{ "type": "Feature", "properties": { "ano": 2015, "camada": "agua", "area_km2": 0.0018 }, "geometry": { "type": "Polygon", "coordinates": [ [ [ 573802.242421298637055, 8220650.283040727488697 ], [ 573802.242421298637055, 8220620.283040727488697 ], [ 573862.242421298637055, 8220620.283040727488697 ], [ 573862.242421298637055, 8220650.283040727488697 ], [ 573802.242421298637055, 8220650.283040727488697 ] ] ] } },
{ "type": "Feature", "properties": { "ano": 2015, "camada": "agua", "area_km2": 0.0018 }, "geometry": { "type": "Polygon", "coordinates": [ [ [ 573982.242421298637055, 8220650.283040727488697 ], [ 573982.242421298637055, 8220620.283040727488697 ], [ 574042.242421298637055, 8220620.283040727488697 ], [ 574042.242421298637055, 8220650.283040727488697 ], [ 573982.242421298637055, 8220650.283040727488697 ] ] ] } },
{ "type": "Feature", "properties": { "ano": 2015, "camada": "agua", "area_km2": 0.0009 }, "geometry": { "type": "Polygon", "coordinates": [ [ [ 574162.242421298637055, 8220650.283040727488697 ], [ 574162.242421298637055, 8220620.283040727488697 ], [ 574192.242421298637055, 8220620.283040727488697 ], [ 574192.242421298637055, 8220650.283040727488697 ], [ 574162.242421298637055, 8220650.283040727488697 ] ] ] } },
{ "type": "Feature", "properties": { "ano": 2015, "camada": "agua", "area_km2": 0.0009 }, "geometry": { "type": "Polygon", "coordinates": [ [ [ 574222.242421298637055, 8220650.283040727488697 ], [ 574222.242421298637055, 8220620.283040727488697 ], [ 574252.242421298637055, 8220620.283040727488697 ], [ 574252.242421298637055, 8220650.283040727488697 ], [ 574222.242421298637055, 8220650.283040727488697 ] ] ] } },
{ "type": "Feature", "properties": { "ano": 2015, "camada": "agua", "area_km2": 0.0009 }, "geometry": { "type": "Polygon", "coordinates": [ [ [ 575152.242421298637055, 8220650.283040727488697 ], [ 575152.242421298637055, 8220620.283040727488697 ], [ 575182.242421298637055, 8220620.283040727488697 ], [ 575182.242421298637055, 8220650.283040727488697 ], [ 575152.242421298637055, 8220650.283040727488697 ] ] ] } },
{ "type": "Feature", "properties": { "ano": 2015, "camada": "agua", "area_km2": 0.0036 }, "geometry": { "type": "Polygon", "coordinates": [ [ [ 574342.242421298637055, 8220650.283040727488697 ], [ 574342.242421298637055, 8220590.283040727488697 ], [ 574372.242421298637055, 8220590.283040727488697 ], [ 574372.242421298637055, 8220620.283040727488697 ], [ 574432.242421298637055, 8220620.283040727488697 ], [ 574432.242421298637055, 8220650.283040727488697 ], [ 574342.242421298637055, 8220650.283040727488697 ] ] ] } },
{ "type": "Feature", "properties": { "ano": 2015, "camada": "agua", "area_km2": 0.0018 }, "geometry": { "type": "Polygon", "coordinates": [ [ [ 573412.242421298637055, 8220620.283040727488697 ], [ 573412.242421298637055, 8220590.283040727488697 ], [ 573472.242421298637055, 8220590.283040727488697 ], [ 573472.242421298637055, 8220620.283040727488697 ], [ 573412.242421298637055, 8220620.283040727488697 ] ] ] } },
{ "type": "Feature", "properties": { "ano": 2015, "camada": "agua", "area_km2": 0.0009 }, "geometry": { "type": "Polygon", "coordinates": [ [ [ 575182.242421298637055, 8220620.283040727488697 ], [ 575182.242421298637055, 8220590.283040727488697 ], [ 575212.242421298637055, 8220590.283040727488697 ], [ 575212.242421298637055, 8220620.283040727488697 ], [ 575182.242421298637055, 8220620.283040727488697 ] ] ] } },
{ "type": "Feature", "properties": { "ano": 2015, "camada": "agua", "area_km2": 0.0009 }, "geometry": { "type": "Polygon", "coordinates": [ [ [ 575002.242421298637055, 8220590.283040727488697 ], [ 575002.242421298637055, 8220560.283040727488697 ], [ 575032.242421298637055, 8220560.283040727488697 ], [ 575032.242421298637055, 8220590.283040727488697 ], [ 575002.242421298637055, 8220590.283040727488697 ] ] ] } },
{ "type": "Feature", "properties": { "ano": 2015, "camada": "agua", "area_km2": 0.0009 }, "geometry": { "type": "Polygon", "coordinates": [ [ [ 575062.242421298637055, 8220560.283040727488697 ], [ 575062.242421298637055, 8220530.283040727488697 ], [ 575092.242421298637055, 8220530.283040727488697 ], [ 575092.242421298637055, 8220560.283040727488697 ], [ 575062.242421298637055, 8220560.283040727488697 ] ] ] } },
{ "type": "Feature", "properties": { "ano": 2015, "camada": "agua", "area_km2": 0.0009 }, "geometry": { "type": "Polygon", "coordinates": [ [ [ 574792.242421298637055, 8220530.283040727488697 ], [ 574792.242421298637055, 8220500.283040727488697 ], [ 574822.242421298637055, 8220500.283040727488697 ], [ 574822.242421298637055, 8220530.283040727488697 ], [ 574792.242421298637055, 8220530.283040727488697 ] ] ] } },
{ "type": "Feature", "properties": { "ano": 2015, "camada": "agua", "area_km2": 0.0009 }, "geometry": { "type": "Polygon", "coordinates": [ [ [ 574822.242421298637055, 8220500.283040727488697 ], [ 574822.242421298637055, 8220470.283040727488697 ], [ 574852.242421298637055, 8220470.283040727488697 ], [ 574852.242421298637055, 8220500.283040727488697 ], [ 574822.242421298637055, 8220500.283040727488697 ] ] ] } },
{ "type": "Feature", "properties": { "ano": 2015, "camada": "agua", "area_km2": 0.0009 }, "geometry": { "type": "Polygon", "coordinates": [ [ [ 574732.242421298637055, 8220470.283040727488697 ], [ 574732.242421298637055, 8220440.283040727488697 ], [ 574762.242421298637055, 8220440.283040727488697 ], [ 574762.242421298637055, 8220470.283040727488697 ], [ 574732.242421298637055, 8220470.283040727488697 ] ] ] } },
{ "type": "Feature", "properties": { "ano": 2015, "camada": "agua", "area_km2": 0.0009 }, "geometry": { "type": "Polygon", "coordinates": [ [ [ 573082.242421298637055, 8220440.283040727488697 ], [ 573082.242421298637055, 8220410.283040727488697 ], [ 573112.242421298637055, 8220410.283040727488697 ], [ 573112.242421298637055, 8220440.283040727488697 ], [ 573082.242421298637055, 8220440.283040727488697 ] ] ] } },
{ "type": "Feature", "properties": { "ano": 2015, "camada": "agua", "area_km2": 0.0036 }, "geometry": { "type": "Polygon", "coordinates": [ [ [ 573022.242421298637055, 8220410.283040727488697 ], [ 573022.242421298637055, 8220380.283040727488697 ], [ 572992.242421298637055, 8220380.283040727488697 ], [ 572992.242421298637055, 8220350.283040727488697 ], [ 573052.242421298637055, 8220350.283040727488697 ], [ 573052.242421298637055, 8220380.283040727488697 ], [ 573082.242421298637055, 8220380.283040727488697 ], [ 573082.242421298637055, 8220410.283040727488697 ], [ 573022.242421298637055, 8220410.283040727488697 ] ] ] } },
{ "type": "Feature", "properties": { "ano": 2015, "camada": "agua", "area_km2": 0.0009 }, "geometry": { "type": "Polygon", "coordinates": [ [ [ 572932.242421298637055, 8220290.283040727488697 ], [ 572932.242421298637055, 8220260.283040727488697 ], [ 572962.242421298637055, 8220260.283040727488697 ], [ 572962.242421298637055, 8220290.283040727488697 ], [ 572932.242421298637055, 8220290.283040727488697 ] ] ] } },
{ "type": "Feature", "properties": { "ano": 2015, "camada": "agua", "area_km2": 0.0009 }, "geometry": { "type": "Polygon", "coordinates": [ [ [ 572902.242421298637055, 8220140.283040727488697 ], [ 572902.242421298637055, 8220110.283040727488697 ], [ 572932.242421298637055, 8220110.283040727488697 ], [ 572932.242421298637055, 8220140.283040727488697 ], [ 572902.242421298637055, 8220140.283040727488697 ] ] ] } },
{ "type": "Feature", "properties": { "ano": 2015, "camada": "agua", "area_km2": 0.0009 }, "geometry": { "type": "Polygon", "coordinates": [ [ [ 572962.242421298637055, 8219990.283040727488697 ], [ 572962.242421298637055, 8219960.283040727488697 ], [ 572992.242421298637055, 8219960.283040727488697 ], [ 572992.242421298637055, 8219990.283040727488697 ], [ 572962.242421298637055, 8219990.283040727488697 ] ] ] } },
{ "type": "Feature", "properties": { "ano": 2015, "camada": "agua", "area_km2": 0.0027 }, "geometry": { "type": "Polygon", "coordinates": [ [ [ 572872.242421298637055, 8219690.283040727488697 ], [ 572872.242421298637055, 8219660.283040727488697 ], [ 572902.242421298637055, 8219660.283040727488697 ], [ 572902.242421298637055, 8219630.283040727488697 ], [ 572932.242421298637055, 8219630.283040727488697 ], [ 572932.242421298637055, 8219690.283040727488697 ], [ 572872.242421298637055, 8219690.283040727488697 ] ] ] } },
{ "type": "Feature", "properties": { "ano": 2015, "camada": "agua", "area_km2": 0.0009 }, "geometry": { "type": "Polygon", "coordinates": [ [ [ 572842.242421298637055, 8219570.283040727488697 ], [ 572842.242421298637055, 8219540.283040727488697 ], [ 572872.242421298637055, 8219540.283040727488697 ], [ 572872.242421298637055, 8219570.283040727488697 ], [ 572842.242421298637055, 8219570.283040727488697 ] ] ] } },
{ "type": "Feature", "properties": { "ano": 2015, "camada": "agua", "area_km2": 0.0009 }, "geometry": { "type": "Polygon", "coordinates": [ [ [ 572632.242421298637055, 8219510.283040727488697 ], [ 572632.242421298637055, 8219480.283040727488697 ], [ 572662.242421298637055, 8219480.283040727488697 ], [ 572662.242421298637055, 8219510.283040727488697 ], [ 572632.242421298637055, 8219510.283040727488697 ] ] ] } },
{ "type": "Feature", "properties": { "ano": 2015, "camada": "agua", "area_km2": 0.0009 }, "geometry": { "type": "Polygon", "coordinates": [ [ [ 572782.242421298637055, 8219480.283040727488697 ], [ 572782.242421298637055, 8219450.283040727488697 ], [ 572812.242421298637055, 8219450.283040727488697 ], [ 572812.242421298637055, 8219480.283040727488697 ], [ 572782.242421298637055, 8219480.283040727488697 ] ] ] } },
{ "type": "Feature", "properties": { "ano": 2015, "camada": "agua", "area_km2": 0.0018 }, "geometry": { "type": "Polygon", "coordinates": [ [ [ 572572.242421298637055, 8219480.283040727488697 ], [ 572572.242421298637055, 8219420.283040727488697 ], [ 572602.242421298637055, 8219420.283040727488697 ], [ 572602.242421298637055, 8219480.283040727488697 ], [ 572572.242421298637055, 8219480.283040727488697 ] ] ] } },
{ "type": "Feature", "properties": { "ano": 2015, "camada": "agua", "area_km2": 0.0009 }, "geometry": { "type": "Polygon", "coordinates": [ [ [ 572812.242421298637055, 8219450.283040727488697 ], [ 572812.242421298637055, 8219420.283040727488697 ], [ 572842.242421298637055, 8219420.283040727488697 ], [ 572842.242421298637055, 8219450.283040727488697 ], [ 572812.242421298637055, 8219450.283040727488697 ] ] ] } },
{ "type": "Feature", "properties": { "ano": 2015, "camada": "agua", "area_km2": 0.0009 }, "geometry": { "type": "Polygon", "coordinates": [ [ [ 572422.242421298637055, 8219420.283040727488697 ], [ 572422.242421298637055, 8219390.283040727488697 ], [ 572452.242421298637055, 8219390.283040727488697 ], [ 572452.242421298637055, 8219420.283040727488697 ], [ 572422.242421298637055, 8219420.283040727488697 ] ] ] } },
{ "type": "Feature", "properties": { "ano": 2015, "camada": "agua", "area_km2": 0.0009 }, "geometry": { "type": "Polygon", "coordinates": [ [ [ 572602.242421298637055, 8219420.283040727488697 ], [ 572602.242421298637055, 8219390.283040727488697 ], [ 572632.242421298637055, 8219390.283040727488697 ], [ 572632.242421298637055, 8219420.283040727488697 ], [ 572602.242421298637055, 8219420.283040727488697 ] ] ] } },
{ "type": "Feature", "properties": { "ano": 2015, "camada": "agua", "area_km2": 0.0009 }, "geometry": { "type": "Polygon", "coordinates": [ [ [ 572392.242421298637055, 8219360.283040727488697 ], [ 572392.242421298637055, 8219330.283040727488697 ], [ 572422.242421298637055, 8219330.283040727488697 ], [ 572422.242421298637055, 8219360.283040727488697 ], [ 572392.242421298637055, 8219360.283040727488697 ] ] ] } },
{ "type": "Feature", "properties": { "ano": 2015, "camada": "agua", "area_km2": 0.0009 }, "geometry": { "type": "Polygon", "coordinates": [ [ [ 571972.242421298637055, 8219330.283040727488697 ], [ 571972.242421298637055, 8219300.283040727488697 ], [ 572002.242421298637055, 8219300.283040727488697 ], [ 572002.242421298637055, 8219330.283040727488697 ], [ 571972.242421298637055, 8219330.283040727488697 ] ] ] } },
{ "type": "Feature", "properties": { "ano": 2015, "camada": "agua", "area_km2": 0.0009 }, "geometry": { "type": "Polygon", "coordinates": [ [ [ 570472.242421298637055, 8219240.283040727488697 ], [ 570472.242421298637055, 8219210.283040727488697 ], [ 570502.242421298637055, 8219210.283040727488697 ], [ 570502.242421298637055, 8219240.283040727488697 ], [ 570472.242421298637055, 8219240.283040727488697 ] ] ] } },
{ "type": "Feature", "properties": { "ano": 2015, "camada": "agua", "area_km2": 0.0009 }, "geometry": { "type": "Polygon", "coordinates": [ [ [ 570592.242421298637055, 8219210.283040727488697 ], [ 570592.242421298637055, 8219180.283040727488697 ], [ 570622.242421298637055, 8219180.283040727488697 ], [ 570622.242421298637055, 8219210.283040727488697 ], [ 570592.242421298637055, 8219210.283040727488697 ] ] ] } },
{ "type": "Feature", "properties": { "ano": 2015, "camada": "agua", "area_km2": 0.0009 }, "geometry": { "type": "Polygon", "coordinates": [ [ [ 570442.242421298637055, 8219180.283040727488697 ], [ 570442.242421298637055, 8219150.283040727488697 ], [ 570472.242421298637055, 8219150.283040727488697 ], [ 570472.242421298637055, 8219180.283040727488697 ], [ 570442.242421298637055, 8219180.283040727488697 ] ] ] } },
{ "type": "Feature", "properties": { "ano": 2015, "camada": "agua", "area_km2": 0.0009 }, "geometry": { "type": "Polygon", "coordinates": [ [ [ 570022.242421298637055, 8219150.283040727488697 ], [ 570022.242421298637055, 8219120.283040727488697 ], [ 570052.242421298637055, 8219120.283040727488697 ], [ 570052.242421298637055, 8219150.283040727488697 ], [ 570022.242421298637055, 8219150.283040727488697 ] ] ] } },
{ "type": "Feature", "properties": { "ano": 2015, "camada": "agua", "area_km2": 0.0009 }, "geometry": { "type": "Polygon", "coordinates": [ [ [ 570232.242421298637055, 8219150.283040727488697 ], [ 570232.242421298637055, 8219120.283040727488697 ], [ 570262.242421298637055, 8219120.283040727488697 ], [ 570262.242421298637055, 8219150.283040727488697 ], [ 570232.242421298637055, 8219150.283040727488697 ] ] ] } },
{ "type": "Feature", "properties": { "ano": 2015, "camada": "agua", "area_km2": 0.0009 }, "geometry": { "type": "Polygon", "coordinates": [ [ [ 569992.242421298637055, 8219120.283040727488697 ], [ 569992.242421298637055, 8219090.283040727488697 ], [ 570022.242421298637055, 8219090.283040727488697 ], [ 570022.242421298637055, 8219120.283040727488697 ], [ 569992.242421298637055, 8219120.283040727488697 ] ] ] } },
{ "type": "Feature", "properties": { "ano": 2015, "camada": "agua", "area_km2": 0.0009 }, "geometry": { "type": "Polygon", "coordinates": [ [ [ 570712.242421298637055, 8219120.283040727488697 ], [ 570712.242421298637055, 8219090.283040727488697 ], [ 570742.242421298637055, 8219090.283040727488697 ], [ 570742.242421298637055, 8219120.283040727488697 ], [ 570712.242421298637055, 8219120.283040727488697 ] ] ] } },
{ "type": "Feature", "properties": { "ano": 2015, "camada": "agua", "area_km2": 0.0009 }, "geometry": { "type": "Polygon", "coordinates": [ [ [ 569872.242421298637055, 8219030.283040727488697 ], [ 569872.242421298637055, 8219000.283040727488697 ], [ 569902.242421298637055, 8219000.283040727488697 ], [ 569902.242421298637055, 8219030.283040727488697 ], [ 569872.242421298637055, 8219030.283040727488697 ] ] ] } },
{ "type": "Feature", "properties": { "ano": 2015, "camada": "agua", "area_km2": 0.0009 }, "geometry": { "type": "Polygon", "coordinates": [ [ [ 569872.242421298637055, 8218940.283040727488697 ], [ 569872.242421298637055, 8218910.283040727488697 ], [ 569902.242421298637055, 8218910.283040727488697 ], [ 569902.242421298637055, 8218940.283040727488697 ], [ 569872.242421298637055, 8218940.283040727488697 ] ] ] } },
{ "type": "Feature", "properties": { "ano": 2015, "camada": "agua", "area_km2": 0.0009 }, "geometry": { "type": "Polygon", "coordinates": [ [ [ 569752.242421298637055, 8218910.283040727488697 ], [ 569752.242421298637055, 8218880.283040727488697 ], [ 569782.242421298637055, 8218880.283040727488697 ], [ 569782.242421298637055, 8218910.283040727488697 ], [ 569752.242421298637055, 8218910.283040727488697 ] ] ] } },
{ "type": "Feature", "properties": { "ano": 2015, "camada": "agua", "area_km2": 0.0009 }, "geometry": { "type": "Polygon", "coordinates": [ [ [ 569752.242421298637055, 8218760.283040727488697 ], [ 569752.242421298637055, 8218730.283040727488697 ], [ 569782.242421298637055, 8218730.283040727488697 ], [ 569782.242421298637055, 8218760.283040727488697 ], [ 569752.242421298637055, 8218760.283040727488697 ] ] ] } },
{ "type": "Feature", "properties": { "ano": 2015, "camada": "agua", "area_km2": 0.0018 }, "geometry": { "type": "Polygon", "coordinates": [ [ [ 569782.242421298637055, 8218670.283040727488697 ], [ 569782.242421298637055, 8218610.283040727488697 ], [ 569812.242421298637055, 8218610.283040727488697 ], [ 569812.242421298637055, 8218670.283040727488697 ], [ 569782.242421298637055, 8218670.283040727488697 ] ] ] } },
{ "type": "Feature", "properties": { "ano": 2015, "camada": "agua", "area_km2": 0.0009 }, "geometry": { "type": "Polygon", "coordinates": [ [ [ 569722.242421298637055, 8218640.283040727488697 ], [ 569722.242421298637055, 8218610.283040727488697 ], [ 569752.242421298637055, 8218610.283040727488697 ], [ 569752.242421298637055, 8218640.283040727488697 ], [ 569722.242421298637055, 8218640.283040727488697 ] ] ] } },
{ "type": "Feature", "properties": { "ano": 2015, "camada": "agua", "area_km2": 0.0009 }, "geometry": { "type": "Polygon", "coordinates": [ [ [ 569752.242421298637055, 8218610.283040727488697 ], [ 569752.242421298637055, 8218580.283040727488697 ], [ 569782.242421298637055, 8218580.283040727488697 ], [ 569782.242421298637055, 8218610.283040727488697 ], [ 569752.242421298637055, 8218610.283040727488697 ] ] ] } },
{ "type": "Feature", "properties": { "ano": 2015, "camada": "agua", "area_km2": 0.0009 }, "geometry": { "type": "Polygon", "coordinates": [ [ [ 569752.242421298637055, 8218550.283040727488697 ], [ 569752.242421298637055, 8218520.283040727488697 ], [ 569782.242421298637055, 8218520.283040727488697 ], [ 569782.242421298637055, 8218550.283040727488697 ], [ 569752.242421298637055, 8218550.283040727488697 ] ] ] } },
{ "type": "Feature", "properties": { "ano": 2015, "camada": "agua", "area_km2": 0.0009 }, "geometry": { "type": "Polygon", "coordinates": [ [ [ 569722.242421298637055, 8218490.283040727488697 ], [ 569722.242421298637055, 8218460.283040727488697 ], [ 569752.242421298637055, 8218460.283040727488697 ], [ 569752.242421298637055, 8218490.283040727488697 ], [ 569722.242421298637055, 8218490.283040727488697 ] ] ] } },
{ "type": "Feature", "properties": { "ano": 2015, "camada": "agua", "area_km2": 0.0009 }, "geometry": { "type": "Polygon", "coordinates": [ [ [ 569602.242421298637055, 8218430.283040727488697 ], [ 569602.242421298637055, 8218400.283040727488697 ], [ 569632.242421298637055, 8218400.283040727488697 ], [ 569632.242421298637055, 8218430.283040727488697 ], [ 569602.242421298637055, 8218430.283040727488697 ] ] ] } },
{ "type": "Feature", "properties": { "ano": 2015, "camada": "agua", "area_km2": 0.0009 }, "geometry": { "type": "Polygon", "coordinates": [ [ [ 569452.242421298637055, 8217980.283040727488697 ], [ 569452.242421298637055, 8217950.283040727488697 ], [ 569482.242421298637055, 8217950.283040727488697 ], [ 569482.242421298637055, 8217980.283040727488697 ], [ 569452.242421298637055, 8217980.283040727488697 ] ] ] } },
{ "type": "Feature", "properties": { "ano": 2015, "camada": "agua", "area_km2": 0.0009 }, "geometry": { "type": "Polygon", "coordinates": [ [ [ 569302.242421298637055, 8217800.283040727488697 ], [ 569302.242421298637055, 8217770.283040727488697 ], [ 569332.242421298637055, 8217770.283040727488697 ], [ 569332.242421298637055, 8217800.283040727488697 ], [ 569302.242421298637055, 8217800.283040727488697 ] ] ] } },
{ "type": "Feature", "properties": { "ano": 2015, "camada": "agua", "area_km2": 0.0009 }, "geometry": { "type": "Polygon", "coordinates": [ [ [ 569272.242421298637055, 8217740.283040727488697 ], [ 569272.242421298637055, 8217710.283040727488697 ], [ 569302.242421298637055, 8217710.283040727488697 ], [ 569302.242421298637055, 8217740.283040727488697 ], [ 569272.242421298637055, 8217740.283040727488697 ] ] ] } },
{ "type": "Feature", "properties": { "ano": 2015, "camada": "agua", "area_km2": 0.0009 }, "geometry": { "type": "Polygon", "coordinates": [ [ [ 569182.242421298637055, 8217710.283040727488697 ], [ 569182.242421298637055, 8217680.283040727488697 ], [ 569212.242421298637055, 8217680.283040727488697 ], [ 569212.242421298637055, 8217710.283040727488697 ], [ 569182.242421298637055, 8217710.283040727488697 ] ] ] } },
{ "type": "Feature", "properties": { "ano": 2015, "camada": "agua", "area_km2": 0.0009 }, "geometry": { "type": "Polygon", "coordinates": [ [ [ 569032.242421298637055, 8217650.283040727488697 ], [ 569032.242421298637055, 8217620.283040727488697 ], [ 569062.242421298637055, 8217620.283040727488697 ], [ 569062.242421298637055, 8217650.283040727488697 ], [ 569032.242421298637055, 8217650.283040727488697 ] ] ] } },
{ "type": "Feature", "properties": { "ano": 2015, "camada": "agua", "area_km2": 0.0009 }, "geometry": { "type": "Polygon", "coordinates": [ [ [ 569062.242421298637055, 8217620.283040727488697 ], [ 569062.242421298637055, 8217590.283040727488697 ], [ 569092.242421298637055, 8217590.283040727488697 ], [ 569092.242421298637055, 8217620.283040727488697 ], [ 569062.242421298637055, 8217620.283040727488697 ] ] ] } },
{ "type": "Feature", "properties": { "ano": 2015, "camada": "agua", "area_km2": 0.0009 }, "geometry": { "type": "Polygon", "coordinates": [ [ [ 568942.242421298637055, 8217470.283040727488697 ], [ 568942.242421298637055, 8217440.283040727488697 ], [ 568972.242421298637055, 8217440.283040727488697 ], [ 568972.242421298637055, 8217470.283040727488697 ], [ 568942.242421298637055, 8217470.283040727488697 ] ] ] } },
{ "type": "Feature", "properties": { "ano": 2015, "camada": "agua", "area_km2": 0.0009 }, "geometry": { "type": "Polygon", "coordinates": [ [ [ 568822.242421298637055, 8217440.283040727488697 ], [ 568822.242421298637055, 8217410.283040727488697 ], [ 568852.242421298637055, 8217410.283040727488697 ], [ 568852.242421298637055, 8217440.283040727488697 ], [ 568822.242421298637055, 8217440.283040727488697 ] ] ] } },
{ "type": "Feature", "properties": { "ano": 2015, "camada": "agua", "area_km2": 0.0009 }, "geometry": { "type": "Polygon", "coordinates": [ [ [ 568912.242421298637055, 8217410.283040727488697 ], [ 568912.242421298637055, 8217380.283040727488697 ], [ 568942.242421298637055, 8217380.283040727488697 ], [ 568942.242421298637055, 8217410.283040727488697 ], [ 568912.242421298637055, 8217410.283040727488697 ] ] ] } },
{ "type": "Feature", "properties": { "ano": 2015, "camada": "agua", "area_km2": 0.0009 }, "geometry": { "type": "Polygon", "coordinates": [ [ [ 568882.242421298637055, 8217380.283040727488697 ], [ 568882.242421298637055, 8217350.283040727488697 ], [ 568912.242421298637055, 8217350.283040727488697 ], [ 568912.242421298637055, 8217380.283040727488697 ], [ 568882.242421298637055, 8217380.283040727488697 ] ] ] } },
{ "type": "Feature", "properties": { "ano": 2015, "camada": "agua", "area_km2": 0.0036 }, "geometry": { "type": "Polygon", "coordinates": [ [ [ 568762.242421298637055, 8217230.283040727488697 ], [ 568762.242421298637055, 8217110.283040727488697 ], [ 568792.242421298637055, 8217110.283040727488697 ], [ 568792.242421298637055, 8217230.283040727488697 ], [ 568762.242421298637055, 8217230.283040727488697 ] ] ] } },
{ "type": "Feature", "properties": { "ano": 2015, "camada": "agua", "area_km2": 0.0009 }, "geometry": { "type": "Polygon", "coordinates": [ [ [ 568702.242421298637055, 8217080.283040727488697 ], [ 568702.242421298637055, 8217050.283040727488697 ], [ 568732.242421298637055, 8217050.283040727488697 ], [ 568732.242421298637055, 8217080.283040727488697 ], [ 568702.242421298637055, 8217080.283040727488697 ] ] ] } },
{ "type": "Feature", "properties": { "ano": 2015, "camada": "agua", "area_km2": 0.0009 }, "geometry": { "type": "Polygon", "coordinates": [ [ [ 568642.242421298637055, 8216960.283040727488697 ], [ 568642.242421298637055, 8216930.283040727488697 ], [ 568672.242421298637055, 8216930.283040727488697 ], [ 568672.242421298637055, 8216960.283040727488697 ], [ 568642.242421298637055, 8216960.283040727488697 ] ] ] } },
{ "type": "Feature", "properties": { "ano": 2015, "camada": "agua", "area_km2": 0.0009 }, "geometry": { "type": "Polygon", "coordinates": [ [ [ 568732.242421298637055, 8216900.283040727488697 ], [ 568732.242421298637055, 8216870.283040727488697 ], [ 568762.242421298637055, 8216870.283040727488697 ], [ 568762.242421298637055, 8216900.283040727488697 ], [ 568732.242421298637055, 8216900.283040727488697 ] ] ] } },
{ "type": "Feature", "properties": { "ano": 2015, "camada": "agua", "area_km2": 0.0009 }, "geometry": { "type": "Polygon", "coordinates": [ [ [ 568612.242421298637055, 8216480.283040727488697 ], [ 568612.242421298637055, 8216450.283040727488697 ], [ 568642.242421298637055, 8216450.283040727488697 ], [ 568642.242421298637055, 8216480.283040727488697 ], [ 568612.242421298637055, 8216480.283040727488697 ] ] ] } },
{ "type": "Feature", "properties": { "ano": 2015, "camada": "agua", "area_km2": 0.0009 }, "geometry": { "type": "Polygon", "coordinates": [ [ [ 556732.242421298637055, 8216450.283040727488697 ], [ 556732.242421298637055, 8216420.283040727488697 ], [ 556762.242421298637055, 8216420.283040727488697 ], [ 556762.242421298637055, 8216450.283040727488697 ], [ 556732.242421298637055, 8216450.283040727488697 ] ] ] } },
{ "type": "Feature", "properties": { "ano": 2015, "camada": "agua", "area_km2": 0.0009 }, "geometry": { "type": "Polygon", "coordinates": [ [ [ 568672.242421298637055, 8216360.283040727488697 ], [ 568672.242421298637055, 8216330.283040727488697 ], [ 568702.242421298637055, 8216330.283040727488697 ], [ 568702.242421298637055, 8216360.283040727488697 ], [ 568672.242421298637055, 8216360.283040727488697 ] ] ] } },
{ "type": "Feature", "properties": { "ano": 2015, "camada": "agua", "area_km2": 0.0009 }, "geometry": { "type": "Polygon", "coordinates": [ [ [ 568702.242421298637055, 8216330.283040727488697 ], [ 568702.242421298637055, 8216300.283040727488697 ], [ 568732.242421298637055, 8216300.283040727488697 ], [ 568732.242421298637055, 8216330.283040727488697 ], [ 568702.242421298637055, 8216330.283040727488697 ] ] ] } },
{ "type": "Feature", "properties": { "ano": 2015, "camada": "agua", "area_km2": 0.0009 }, "geometry": { "type": "Polygon", "coordinates": [ [ [ 568732.242421298637055, 8216300.283040727488697 ], [ 568732.242421298637055, 8216270.283040727488697 ], [ 568762.242421298637055, 8216270.283040727488697 ], [ 568762.242421298637055, 8216300.283040727488697 ], [ 568732.242421298637055, 8216300.283040727488697 ] ] ] } },
{ "type": "Feature", "properties": { "ano": 2015, "camada": "agua", "area_km2": 0.0009 }, "geometry": { "type": "Polygon", "coordinates": [ [ [ 555532.242421298637055, 8216150.283040727488697 ], [ 555532.242421298637055, 8216120.283040727488697 ], [ 555562.242421298637055, 8216120.283040727488697 ], [ 555562.242421298637055, 8216150.283040727488697 ], [ 555532.242421298637055, 8216150.283040727488697 ] ] ] } },
{ "type": "Feature", "properties": { "ano": 2015, "camada": "agua", "area_km2": 0.0009 }, "geometry": { "type": "Polygon", "coordinates": [ [ [ 568972.242421298637055, 8216090.283040727488697 ], [ 568972.242421298637055, 8216060.283040727488697 ], [ 569002.242421298637055, 8216060.283040727488697 ], [ 569002.242421298637055, 8216090.283040727488697 ], [ 568972.242421298637055, 8216090.283040727488697 ] ] ] } },
{ "type": "Feature", "properties": { "ano": 2015, "camada": "agua", "area_km2": 0.0009 }, "geometry": { "type": "Polygon", "coordinates": [ [ [ 569152.242421298637055, 8215880.283040727488697 ], [ 569152.242421298637055, 8215850.283040727488697 ], [ 569182.242421298637055, 8215850.283040727488697 ], [ 569182.242421298637055, 8215880.283040727488697 ], [ 569152.242421298637055, 8215880.283040727488697 ] ] ] } },
{ "type": "Feature", "properties": { "ano": 2015, "camada": "agua", "area_km2": 0.0009 }, "geometry": { "type": "Polygon", "coordinates": [ [ [ 569152.242421298637055, 8215820.283040727488697 ], [ 569152.242421298637055, 8215790.283040727488697 ], [ 569182.242421298637055, 8215790.283040727488697 ], [ 569182.242421298637055, 8215820.283040727488697 ], [ 569152.242421298637055, 8215820.283040727488697 ] ] ] } },
{ "type": "Feature", "properties": { "ano": 2015, "camada": "agua", "area_km2": 0.0009 }, "geometry": { "type": "Polygon", "coordinates": [ [ [ 569092.242421298637055, 8215700.283040727488697 ], [ 569092.242421298637055, 8215670.283040727488697 ], [ 569122.242421298637055, 8215670.283040727488697 ], [ 569122.242421298637055, 8215700.283040727488697 ], [ 569092.242421298637055, 8215700.283040727488697 ] ] ] } },
{ "type": "Feature", "properties": { "ano": 2015, "camada": "agua", "area_km2": 0.0009 }, "geometry": { "type": "Polygon", "coordinates": [ [ [ 569182.242421298637055, 8215700.283040727488697 ], [ 569182.242421298637055, 8215670.283040727488697 ], [ 569212.242421298637055, 8215670.283040727488697 ], [ 569212.242421298637055, 8215700.283040727488697 ], [ 569182.242421298637055, 8215700.283040727488697 ] ] ] } },
{ "type": "Feature", "properties": { "ano": 2015, "camada": "agua", "area_km2": 0.0009 }, "geometry": { "type": "Polygon", "coordinates": [ [ [ 569062.242421298637055, 8215610.283040727488697 ], [ 569062.242421298637055, 8215580.283040727488697 ], [ 569092.242421298637055, 8215580.283040727488697 ], [ 569092.242421298637055, 8215610.283040727488697 ], [ 569062.242421298637055, 8215610.283040727488697 ] ] ] } },
{ "type": "Feature", "properties": { "ano": 2015, "camada": "agua", "area_km2": 0.0009 }, "geometry": { "type": "Polygon", "coordinates": [ [ [ 569152.242421298637055, 8215580.283040727488697 ], [ 569152.242421298637055, 8215550.283040727488697 ], [ 569182.242421298637055, 8215550.283040727488697 ], [ 569182.242421298637055, 8215580.283040727488697 ], [ 569152.242421298637055, 8215580.283040727488697 ] ] ] } },
{ "type": "Feature", "properties": { "ano": 2015, "camada": "agua", "area_km2": 0.0018 }, "geometry": { "type": "Polygon", "coordinates": [ [ [ 569032.242421298637055, 8215550.283040727488697 ], [ 569032.242421298637055, 8215490.283040727488697 ], [ 569062.242421298637055, 8215490.283040727488697 ], [ 569062.242421298637055, 8215550.283040727488697 ], [ 569032.242421298637055, 8215550.283040727488697 ] ] ] } },
{ "type": "Feature", "properties": { "ano": 2015, "camada": "agua", "area_km2": 0.0009 }, "geometry": { "type": "Polygon", "coordinates": [ [ [ 569122.242421298637055, 8215490.283040727488697 ], [ 569122.242421298637055, 8215460.283040727488697 ], [ 569152.242421298637055, 8215460.283040727488697 ], [ 569152.242421298637055, 8215490.283040727488697 ], [ 569122.242421298637055, 8215490.283040727488697 ] ] ] } },
{ "type": "Feature", "properties": { "ano": 2015, "camada": "agua", "area_km2": 0.0009 }, "geometry": { "type": "Polygon", "coordinates": [ [ [ 568972.242421298637055, 8215370.283040727488697 ], [ 568972.242421298637055, 8215340.283040727488697 ], [ 569002.242421298637055, 8215340.283040727488697 ], [ 569002.242421298637055, 8215370.283040727488697 ], [ 568972.242421298637055, 8215370.283040727488697 ] ] ] } },
{ "type": "Feature", "properties": { "ano": 2015, "camada": "agua", "area_km2": 0.0009 }, "geometry": { "type": "Polygon", "coordinates": [ [ [ 568912.242421298637055, 8215160.283040727488697 ], [ 568912.242421298637055, 8215130.283040727488697 ], [ 568942.242421298637055, 8215130.283040727488697 ], [ 568942.242421298637055, 8215160.283040727488697 ], [ 568912.242421298637055, 8215160.283040727488697 ] ] ] } },
{ "type": "Feature", "properties": { "ano": 2015, "camada": "agua", "area_km2": 0.0009 }, "geometry": { "type": "Polygon", "coordinates": [ [ [ 568882.242421298637055, 8215100.283040727488697 ], [ 568882.242421298637055, 8215070.283040727488697 ], [ 568912.242421298637055, 8215070.283040727488697 ], [ 568912.242421298637055, 8215100.283040727488697 ], [ 568882.242421298637055, 8215100.283040727488697 ] ] ] } },
{ "type": "Feature", "properties": { "ano": 2015, "camada": "agua", "area_km2": 0.0009 }, "geometry": { "type": "Polygon", "coordinates": [ [ [ 568822.242421298637055, 8215040.283040727488697 ], [ 568822.242421298637055, 8215010.283040727488697 ], [ 568852.242421298637055, 8215010.283040727488697 ], [ 568852.242421298637055, 8215040.283040727488697 ], [ 568822.242421298637055, 8215040.283040727488697 ] ] ] } },
{ "type": "Feature", "properties": { "ano": 2015, "camada": "agua", "area_km2": 0.0018 }, "geometry": { "type": "Polygon", "coordinates": [ [ [ 568852.242421298637055, 8214980.283040727488697 ], [ 568852.242421298637055, 8214920.283040727488697 ], [ 568882.242421298637055, 8214920.283040727488697 ], [ 568882.242421298637055, 8214980.283040727488697 ], [ 568852.242421298637055, 8214980.283040727488697 ] ] ] } },
{ "type": "Feature", "properties": { "ano": 2015, "camada": "agua", "area_km2": 0.0009 }, "geometry": { "type": "Polygon", "coordinates": [ [ [ 568942.242421298637055, 8214830.283040727488697 ], [ 568942.242421298637055, 8214800.283040727488697 ], [ 568972.242421298637055, 8214800.283040727488697 ], [ 568972.242421298637055, 8214830.283040727488697 ], [ 568942.242421298637055, 8214830.283040727488697 ] ] ] } },
{ "type": "Feature", "properties": { "ano": 2015, "camada": "agua", "area_km2": 0.0018 }, "geometry": { "type": "Polygon", "coordinates": [ [ [ 569032.242421298637055, 8214680.283040727488697 ], [ 569032.242421298637055, 8214620.283040727488697 ], [ 569062.242421298637055, 8214620.283040727488697 ], [ 569062.242421298637055, 8214680.283040727488697 ], [ 569032.242421298637055, 8214680.283040727488697 ] ] ] } },
{ "type": "Feature", "properties": { "ano": 2015, "camada": "agua", "area_km2": 0.0009 }, "geometry": { "type": "Polygon", "coordinates": [ [ [ 569062.242421298637055, 8214620.283040727488697 ], [ 569062.242421298637055, 8214590.283040727488697 ], [ 569092.242421298637055, 8214590.283040727488697 ], [ 569092.242421298637055, 8214620.283040727488697 ], [ 569062.242421298637055, 8214620.283040727488697 ] ] ] } },
{ "type": "Feature", "properties": { "ano": 2015, "camada": "agua", "area_km2": 0.0009 }, "geometry": { "type": "Polygon", "coordinates": [ [ [ 569122.242421298637055, 8214560.283040727488697 ], [ 569122.242421298637055, 8214530.283040727488697 ], [ 569152.242421298637055, 8214530.283040727488697 ], [ 569152.242421298637055, 8214560.283040727488697 ], [ 569122.242421298637055, 8214560.283040727488697 ] ] ] } },
{ "type": "Feature", "properties": { "ano": 2015, "camada": "agua", "area_km2": 0.0009 }, "geometry": { "type": "Polygon", "coordinates": [ [ [ 569182.242421298637055, 8214500.283040727488697 ], [ 569182.242421298637055, 8214470.283040727488697 ], [ 569212.242421298637055, 8214470.283040727488697 ], [ 569212.242421298637055, 8214500.283040727488697 ], [ 569182.242421298637055, 8214500.283040727488697 ] ] ] } },
{ "type": "Feature", "properties": { "ano": 2015, "camada": "agua", "area_km2": 0.0009 }, "geometry": { "type": "Polygon", "coordinates": [ [ [ 569242.242421298637055, 8214440.283040727488697 ], [ 569242.242421298637055, 8214410.283040727488697 ], [ 569272.242421298637055, 8214410.283040727488697 ], [ 569272.242421298637055, 8214440.283040727488697 ], [ 569242.242421298637055, 8214440.283040727488697 ] ] ] } },
{ "type": "Feature", "properties": { "ano": 2015, "camada": "agua", "area_km2": 0.0009 }, "geometry": { "type": "Polygon", "coordinates": [ [ [ 569272.242421298637055, 8214410.283040727488697 ], [ 569272.242421298637055, 8214380.283040727488697 ], [ 569302.242421298637055, 8214380.283040727488697 ], [ 569302.242421298637055, 8214410.283040727488697 ], [ 569272.242421298637055, 8214410.283040727488697 ] ] ] } },
{ "type": "Feature", "properties": { "ano": 2015, "camada": "agua", "area_km2": 0.0009 }, "geometry": { "type": "Polygon", "coordinates": [ [ [ 569302.242421298637055, 8214380.283040727488697 ], [ 569302.242421298637055, 8214350.283040727488697 ], [ 569332.242421298637055, 8214350.283040727488697 ], [ 569332.242421298637055, 8214380.283040727488697 ], [ 569302.242421298637055, 8214380.283040727488697 ] ] ] } },
{ "type": "Feature", "properties": { "ano": 2015, "camada": "agua", "area_km2": 0.0009 }, "geometry": { "type": "Polygon", "coordinates": [ [ [ 563602.242421298637055, 8213990.283040727488697 ], [ 563602.242421298637055, 8213960.283040727488697 ], [ 563632.242421298637055, 8213960.283040727488697 ], [ 563632.242421298637055, 8213990.283040727488697 ], [ 563602.242421298637055, 8213990.283040727488697 ] ] ] } },
{ "type": "Feature", "properties": { "ano": 2015, "camada": "agua", "area_km2": 0.0009 }, "geometry": { "type": "Polygon", "coordinates": [ [ [ 563572.242421298637055, 8213960.283040727488697 ], [ 563572.242421298637055, 8213930.283040727488697 ], [ 563602.242421298637055, 8213930.283040727488697 ], [ 563602.242421298637055, 8213960.283040727488697 ], [ 563572.242421298637055, 8213960.283040727488697 ] ] ] } },
{ "type": "Feature", "properties": { "ano": 2015, "camada": "agua", "area_km2": 0.0009 }, "geometry": { "type": "Polygon", "coordinates": [ [ [ 563542.242421298637055, 8213930.283040727488697 ], [ 563542.242421298637055, 8213900.283040727488697 ], [ 563572.242421298637055, 8213900.283040727488697 ], [ 563572.242421298637055, 8213930.283040727488697 ], [ 563542.242421298637055, 8213930.283040727488697 ] ] ] } },
{ "type": "Feature", "properties": { "ano": 2015, "camada": "agua", "area_km2": 0.0009 }, "geometry": { "type": "Polygon", "coordinates": [ [ [ 582112.242421298637055, 8213900.283040727488697 ], [ 582112.242421298637055, 8213870.283040727488697 ], [ 582142.242421298637055, 8213870.283040727488697 ], [ 582142.242421298637055, 8213900.283040727488697 ], [ 582112.242421298637055, 8213900.283040727488697 ] ] ] } },
{ "type": "Feature", "properties": { "ano": 2015, "camada": "agua", "area_km2": 0.0009 }, "geometry": { "type": "Polygon", "coordinates": [ [ [ 569152.242421298637055, 8213870.283040727488697 ], [ 569152.242421298637055, 8213840.283040727488697 ], [ 569182.242421298637055, 8213840.283040727488697 ], [ 569182.242421298637055, 8213870.283040727488697 ], [ 569152.242421298637055, 8213870.283040727488697 ] ] ] } },
{ "type": "Feature", "properties": { "ano": 2015, "camada": "agua", "area_km2": 0.0009 }, "geometry": { "type": "Polygon", "coordinates": [ [ [ 563452.242421298637055, 8213840.283040727488697 ], [ 563452.242421298637055, 8213810.283040727488697 ], [ 563482.242421298637055, 8213810.283040727488697 ], [ 563482.242421298637055, 8213840.283040727488697 ], [ 563452.242421298637055, 8213840.283040727488697 ] ] ] } },
{ "type": "Feature", "properties": { "ano": 2015, "camada": "agua", "area_km2": 0.0009 }, "geometry": { "type": "Polygon", "coordinates": [ [ [ 563422.242421298637055, 8213810.283040727488697 ], [ 563422.242421298637055, 8213780.283040727488697 ], [ 563452.242421298637055, 8213780.283040727488697 ], [ 563452.242421298637055, 8213810.283040727488697 ], [ 563422.242421298637055, 8213810.283040727488697 ] ] ] } },
{ "type": "Feature", "properties": { "ano": 2015, "camada": "agua", "area_km2": 0.0009 }, "geometry": { "type": "Polygon", "coordinates": [ [ [ 563392.242421298637055, 8213780.283040727488697 ], [ 563392.242421298637055, 8213750.283040727488697 ], [ 563422.242421298637055, 8213750.283040727488697 ], [ 563422.242421298637055, 8213780.283040727488697 ], [ 563392.242421298637055, 8213780.283040727488697 ] ] ] } },
{ "type": "Feature", "properties": { "ano": 2015, "camada": "agua", "area_km2": 0.0009 }, "geometry": { "type": "Polygon", "coordinates": [ [ [ 563362.242421298637055, 8213750.283040727488697 ], [ 563362.242421298637055, 8213720.283040727488697 ], [ 563392.242421298637055, 8213720.283040727488697 ], [ 563392.242421298637055, 8213750.283040727488697 ], [ 563362.242421298637055, 8213750.283040727488697 ] ] ] } },
{ "type": "Feature", "properties": { "ano": 2015, "camada": "agua", "area_km2": 0.0009 }, "geometry": { "type": "Polygon", "coordinates": [ [ [ 569062.242421298637055, 8213750.283040727488697 ], [ 569062.242421298637055, 8213720.283040727488697 ], [ 569092.242421298637055, 8213720.283040727488697 ], [ 569092.242421298637055, 8213750.283040727488697 ], [ 569062.242421298637055, 8213750.283040727488697 ] ] ] } },
{ "type": "Feature", "properties": { "ano": 2015, "camada": "agua", "area_km2": 0.0009 }, "geometry": { "type": "Polygon", "coordinates": [ [ [ 563332.242421298637055, 8213720.283040727488697 ], [ 563332.242421298637055, 8213690.283040727488697 ], [ 563362.242421298637055, 8213690.283040727488697 ], [ 563362.242421298637055, 8213720.283040727488697 ], [ 563332.242421298637055, 8213720.283040727488697 ] ] ] } },
{ "type": "Feature", "properties": { "ano": 2015, "camada": "agua", "area_km2": 0.0018 }, "geometry": { "type": "Polygon", "coordinates": [ [ [ 569032.242421298637055, 8213600.283040727488697 ], [ 569032.242421298637055, 8213540.283040727488697 ], [ 569062.242421298637055, 8213540.283040727488697 ], [ 569062.242421298637055, 8213600.283040727488697 ], [ 569032.242421298637055, 8213600.283040727488697 ] ] ] } },
{ "type": "Feature", "properties": { "ano": 2015, "camada": "agua", "area_km2": 0.0009 }, "geometry": { "type": "Polygon", "coordinates": [ [ [ 565492.242421298637055, 8213060.283040727488697 ], [ 565492.242421298637055, 8213030.283040727488697 ], [ 565522.242421298637055, 8213030.283040727488697 ], [ 565522.242421298637055, 8213060.283040727488697 ], [ 565492.242421298637055, 8213060.283040727488697 ] ] ] } },
{ "type": "Feature", "properties": { "ano": 2015, "camada": "agua", "area_km2": 0.0009 }, "geometry": { "type": "Polygon", "coordinates": [ [ [ 568372.242421298637055, 8212730.283040727488697 ], [ 568372.242421298637055, 8212700.283040727488697 ], [ 568402.242421298637055, 8212700.283040727488697 ], [ 568402.242421298637055, 8212730.283040727488697 ], [ 568372.242421298637055, 8212730.283040727488697 ] ] ] } },
{ "type": "Feature", "properties": { "ano": 2015, "camada": "agua", "area_km2": 0.0009 }, "geometry": { "type": "Polygon", "coordinates": [ [ [ 567712.242421298637055, 8212370.283040727488697 ], [ 567712.242421298637055, 8212340.283040727488697 ], [ 567742.242421298637055, 8212340.283040727488697 ], [ 567742.242421298637055, 8212370.283040727488697 ], [ 567712.242421298637055, 8212370.283040727488697 ] ] ] } },
{ "type": "Feature", "properties": { "ano": 2015, "camada": "agua", "area_km2": 0.0009 }, "geometry": { "type": "Polygon", "coordinates": [ [ [ 567742.242421298637055, 8212310.283040727488697 ], [ 567742.242421298637055, 8212280.283040727488697 ], [ 567772.242421298637055, 8212280.283040727488697 ], [ 567772.242421298637055, 8212310.283040727488697 ], [ 567742.242421298637055, 8212310.283040727488697 ] ] ] } },
{ "type": "Feature", "properties": { "ano": 2015, "camada": "agua", "area_km2": 0.0009 }, "geometry": { "type": "Polygon", "coordinates": [ [ [ 567772.242421298637055, 8212250.283040727488697 ], [ 567772.242421298637055, 8212220.283040727488697 ], [ 567802.242421298637055, 8212220.283040727488697 ], [ 567802.242421298637055, 8212250.283040727488697 ], [ 567772.242421298637055, 8212250.283040727488697 ] ] ] } },
{ "type": "Feature", "properties": { "ano": 2015, "camada": "agua", "area_km2": 0.0009 }, "geometry": { "type": "Polygon", "coordinates": [ [ [ 567592.242421298637055, 8212130.283040727488697 ], [ 567592.242421298637055, 8212100.283040727488697 ], [ 567622.242421298637055, 8212100.283040727488697 ], [ 567622.242421298637055, 8212130.283040727488697 ], [ 567592.242421298637055, 8212130.283040727488697 ] ] ] } },
{ "type": "Feature", "properties": { "ano": 2015, "camada": "agua", "area_km2": 0.0009 }, "geometry": { "type": "Polygon", "coordinates": [ [ [ 566902.242421298637055, 8211740.283040727488697 ], [ 566902.242421298637055, 8211710.283040727488697 ], [ 566932.242421298637055, 8211710.283040727488697 ], [ 566932.242421298637055, 8211740.283040727488697 ], [ 566902.242421298637055, 8211740.283040727488697 ] ] ] } },
{ "type": "Feature", "properties": { "ano": 2015, "camada": "agua", "area_km2": 0.0009 }, "geometry": { "type": "Polygon", "coordinates": [ [ [ 566122.242421298637055, 8210930.283040727488697 ], [ 566122.242421298637055, 8210900.283040727488697 ], [ 566152.242421298637055, 8210900.283040727488697 ], [ 566152.242421298637055, 8210930.283040727488697 ], [ 566122.242421298637055, 8210930.283040727488697 ] ] ] } },
{ "type": "Feature", "properties": { "ano": 2015, "camada": "agua", "area_km2": 0.0018 }, "geometry": { "type": "Polygon", "coordinates": [ [ [ 566092.242421298637055, 8210690.283040727488697 ], [ 566092.242421298637055, 8210630.283040727488697 ], [ 566122.242421298637055, 8210630.283040727488697 ], [ 566122.242421298637055, 8210690.283040727488697 ], [ 566092.242421298637055, 8210690.283040727488697 ] ] ] } },
{ "type": "Feature", "properties": { "ano": 2015, "camada": "agua", "area_km2": 0.0009 }, "geometry": { "type": "Polygon", "coordinates": [ [ [ 566092.242421298637055, 8210570.283040727488697 ], [ 566092.242421298637055, 8210540.283040727488697 ], [ 566122.242421298637055, 8210540.283040727488697 ], [ 566122.242421298637055, 8210570.283040727488697 ], [ 566092.242421298637055, 8210570.283040727488697 ] ] ] } },
{ "type": "Feature", "properties": { "ano": 2015, "camada": "agua", "area_km2": 0.0009 }, "geometry": { "type": "Polygon", "coordinates": [ [ [ 566092.242421298637055, 8210270.283040727488697 ], [ 566092.242421298637055, 8210240.283040727488697 ], [ 566122.242421298637055, 8210240.283040727488697 ], [ 566122.242421298637055, 8210270.283040727488697 ], [ 566092.242421298637055, 8210270.283040727488697 ] ] ] } },
{ "type": "Feature", "properties": { "ano": 2015, "camada": "agua", "area_km2": 0.0009 }, "geometry": { "type": "Polygon", "coordinates": [ [ [ 566212.242421298637055, 8210150.283040727488697 ], [ 566212.242421298637055, 8210120.283040727488697 ], [ 566242.242421298637055, 8210120.283040727488697 ], [ 566242.242421298637055, 8210150.283040727488697 ], [ 566212.242421298637055, 8210150.283040727488697 ] ] ] } },
{ "type": "Feature", "properties": { "ano": 2015, "camada": "agua", "area_km2": 0.0018 }, "geometry": { "type": "Polygon", "coordinates": [ [ [ 566272.242421298637055, 8209790.283040727488697 ], [ 566272.242421298637055, 8209730.283040727488697 ], [ 566302.242421298637055, 8209730.283040727488697 ], [ 566302.242421298637055, 8209790.283040727488697 ], [ 566272.242421298637055, 8209790.283040727488697 ] ] ] } },
{ "type": "Feature", "properties": { "ano": 2015, "camada": "agua", "area_km2": 0.0009 }, "geometry": { "type": "Polygon", "coordinates": [ [ [ 566212.242421298637055, 8209760.283040727488697 ], [ 566212.242421298637055, 8209730.283040727488697 ], [ 566242.242421298637055, 8209730.283040727488697 ], [ 566242.242421298637055, 8209760.283040727488697 ], [ 566212.242421298637055, 8209760.283040727488697 ] ] ] } },
{ "type": "Feature", "properties": { "ano": 2015, "camada": "agua", "area_km2": 0.0009 }, "geometry": { "type": "Polygon", "coordinates": [ [ [ 566122.242421298637055, 8209730.283040727488697 ], [ 566122.242421298637055, 8209700.283040727488697 ], [ 566152.242421298637055, 8209700.283040727488697 ], [ 566152.242421298637055, 8209730.283040727488697 ], [ 566122.242421298637055, 8209730.283040727488697 ] ] ] } },
{ "type": "Feature", "properties": { "ano": 2015, "camada": "agua", "area_km2": 0.0018 }, "geometry": { "type": "Polygon", "coordinates": [ [ [ 566032.242421298637055, 8209700.283040727488697 ], [ 566032.242421298637055, 8209670.283040727488697 ], [ 566092.242421298637055, 8209670.283040727488697 ], [ 566092.242421298637055, 8209700.283040727488697 ], [ 566032.242421298637055, 8209700.283040727488697 ] ] ] } },
{ "type": "Feature", "properties": { "ano": 2015, "camada": "agua", "area_km2": 0.0009 }, "geometry": { "type": "Polygon", "coordinates": [ [ [ 565882.242421298637055, 8209640.283040727488697 ], [ 565882.242421298637055, 8209610.283040727488697 ], [ 565912.242421298637055, 8209610.283040727488697 ], [ 565912.242421298637055, 8209640.283040727488697 ], [ 565882.242421298637055, 8209640.283040727488697 ] ] ] } },
{ "type": "Feature", "properties": { "ano": 2015, "camada": "agua", "area_km2": 0.0009 }, "geometry": { "type": "Polygon", "coordinates": [ [ [ 568012.242421298637055, 8208500.283040727488697 ], [ 568012.242421298637055, 8208470.283040727488697 ], [ 568042.242421298637055, 8208470.283040727488697 ], [ 568042.242421298637055, 8208500.283040727488697 ], [ 568012.242421298637055, 8208500.283040727488697 ] ] ] } },
{ "type": "Feature", "properties": { "ano": 2015, "camada": "agua", "area_km2": 0.0009 }, "geometry": { "type": "Polygon", "coordinates": [ [ [ 576772.242421298637055, 8197700.283040727488697 ], [ 576772.242421298637055, 8197670.283040727488697 ], [ 576802.242421298637055, 8197670.283040727488697 ], [ 576802.242421298637055, 8197700.283040727488697 ], [ 576772.242421298637055, 8197700.283040727488697 ] ] ] } }
]
}
