{
"type": "FeatureCollection",
"name": "reassentamento_2020",
"crs": { "type": "name", "properties": { "name": "urn:ogc:def:crs:EPSG::32736" } },
"features": [
{ "type": "Feature", "properties": { "ano": 2020, "camada": "reassentamento", "area_km2": 0.0009 }, "geometry": { "type": "Polygon", "coordinates": [ [ [ 603952.242421298637055, 8221670.283040727488697 ], [ 603952.242421298637055, 8221640.283040727488697 ], [ 603982.242421298637055, 8221640.283040727488697 ], [ 603982.242421298637055, 8221670.283040727488697 ], [ 603952.242421298637055, 8221670.283040727488697 ] ] ] } },
{ "type": "Feature", "properties": { "ano": 2020, "camada": "reassentamento", "area_km2": 0.0009 }, "geometry": { "type": "Polygon", "coordinates": [ [ [ 604672.242421298637055, 8221610.283040727488697 ], [ 604672.242421298637055, 8221580.283040727488697 ], [ 604702.242421298637055, 8221580.283040727488697 ], [ 604702.242421298637055, 8221610.283040727488697 ], [ 604672.242421298637055, 8221610.283040727488697 ] ] ] } },
{ "type": "Feature", "properties": { "ano": 2020, "camada": "reassentamento", "area_km2": 0.0189 }, "geometry": { "type": "Polygon", "coordinates": [ [ [ 604552.242421298637055, 8221730.283040727488697 ], [ 604552.242421298637055, 8221670.283040727488697 ], [ 604462.242421298637055, 8221670.283040727488697 ], [ 604462.242421298637055, 8221640.283040727488697 ], [ 604432.242421298637055, 8221640.283040727488697 ], [ 604432.242421298637055, 8221610.283040727488697 ], [ 604372.242421298637055, 8221610.283040727488697 ], [ 604372.242421298637055, 8221580.283040727488697 ], [ 604312.242421298637055, 8221580.283040727488697 ], [ 604312.242421298637055, 8221550.283040727488697 ], [ 604462.242421298637055, 8221550.283040727488697 ], [ 604462.242421298637055, 8221610.283040727488697 ], [ 604492.242421298637055, 8221610.283040727488697 ], [ 604492.242421298637055, 8221640.283040727488697 ], [ 604642.242421298637055, 8221640.283040727488697 ], [ 604642.242421298637055, 8221700.283040727488697 ], [ 604612.242421298637055, 8221700.283040727488697 ], [ 604612.242421298637055, 8221730.283040727488697 ], [ 604552.242421298637055, 8221730.283040727488697 ] ] ] } },
{ "type": "Feature", "properties": { "ano": 2020, "camada": "reassentamento", "area_km2": 0.0009 }, "geometry": { "type": "Polygon", "coordinates": [ [ [ 604642.242421298637055, 8221430.283040727488697 ], [ 604642.242421298637055, 8221400.283040727488697 ], [ 604672.242421298637055, 8221400.283040727488697 ], [ 604672.242421298637055, 8221430.283040727488697 ], [ 604642.242421298637055, 8221430.283040727488697 ] ] ] } },
{ "type": "Feature", "properties": { "ano": 2020, "camada": "reassentamento", "area_km2": 0.0009 }, "geometry": { "type": "Polygon", "coordinates": [ [ [ 604852.242421298637055, 8221430.283040727488697 ], [ 604852.242421298637055, 8221400.283040727488697 ], [ 604882.242421298637055, 8221400.283040727488697 ], [ 604882.242421298637055, 8221430.283040727488697 ], [ 604852.242421298637055, 8221430.283040727488697 ] ] ] } },
{ "type": "Feature", "properties": { "ano": 2020, "camada": "reassentamento", "area_km2": 0.0153 }, "geometry": { "type": "Polygon", "coordinates": [ [ [ 603322.242421298637055, 8221460.283040727488697 ], [ 603322.242421298637055, 8221430.283040727488697 ], [ 603262.242421298637055, 8221430.283040727488697 ], [ 603262.242421298637055, 8221340.283040727488697 ], [ 603172.242421298637055, 8221340.283040727488697 ], [ 603172.242421298637055, 8221310.283040727488697 ], [ 603322.242421298637055, 8221310.283040727488697 ], [ 603322.242421298637055, 8221280.283040727488697 ], [ 603352.242421298637055, 8221280.283040727488697 ], [ 603352.242421298637055, 8221460.283040727488697 ], [ 603322.242421298637055, 8221460.283040727488697 ] ] ] } },
{ "type": "Feature", "properties": { "ano": 2020, "camada": "reassentamento", "area_km2": 0.0135 }, "geometry": { "type": "Polygon", "coordinates": [ [ [ 604822.242421298637055, 8221400.283040727488697 ], [ 604822.242421298637055, 8221370.283040727488697 ], [ 604762.242421298637055, 8221370.283040727488697 ], [ 604762.242421298637055, 8221340.283040727488697 ], [ 604792.242421298637055, 8221340.283040727488697 ], [ 604792.242421298637055, 8221280.283040727488697 ], [ 604822.242421298637055, 8221280.283040727488697 ], [ 604822.242421298637055, 8221220.283040727488697 ], [ 604882.242421298637055, 8221220.283040727488697 ], [ 604882.242421298637055, 8221250.283040727488697 ], [ 604912.242421298637055, 8221250.283040727488697 ], [ 604912.242421298637055, 8221310.283040727488697 ], [ 604852.242421298637055, 8221310.283040727488697 ], [ 604852.242421298637055, 8221400.283040727488697 ], [ 604822.242421298637055, 8221400.283040727488697 ] ] ] } },
{ "type": "Feature", "properties": { "ano": 2020, "camada": "reassentamento", "area_km2": 0.0099 }, "geometry": { "type": "Polygon", "coordinates": [ [ [ 604582.242421298637055, 8221280.283040727488697 ], [ 604582.242421298637055, 8221250.283040727488697 ], [ 604462.242421298637055, 8221250.283040727488697 ], [ 604462.242421298637055, 8221220.283040727488697 ], [ 604432.242421298637055, 8221220.283040727488697 ], [ 604432.242421298637055, 8221190.283040727488697 ], [ 604492.242421298637055, 8221190.283040727488697 ], [ 604492.242421298637055, 8221220.283040727488697 ], [ 604642.242421298637055, 8221220.283040727488697 ], [ 604642.242421298637055, 8221250.283040727488697 ], [ 604672.242421298637055, 8221250.283040727488697 ], [ 604672.242421298637055, 8221280.283040727488697 ], [ 604582.242421298637055, 8221280.283040727488697 ] ] ] } },
{ "type": "Feature", "properties": { "ano": 2020, "camada": "reassentamento", "area_km2": 0.0009 }, "geometry": { "type": "Polygon", "coordinates": [ [ [ 604402.242421298637055, 8221190.283040727488697 ], [ 604402.242421298637055, 8221160.283040727488697 ], [ 604432.242421298637055, 8221160.283040727488697 ], [ 604432.242421298637055, 8221190.283040727488697 ], [ 604402.242421298637055, 8221190.283040727488697 ] ] ] } },
{ "type": "Feature", "properties": { "ano": 2020, "camada": "reassentamento", "area_km2": 0.0063 }, "geometry": { "type": "Polygon", "coordinates": [ [ [ 605002.242421298637055, 8221100.283040727488697 ], [ 605002.242421298637055, 8221070.283040727488697 ], [ 604942.242421298637055, 8221070.283040727488697 ], [ 604942.242421298637055, 8221040.283040727488697 ], [ 604972.242421298637055, 8221040.283040727488697 ], [ 604972.242421298637055, 8221010.283040727488697 ], [ 605002.242421298637055, 8221010.283040727488697 ], [ 605002.242421298637055, 8221040.283040727488697 ], [ 605062.242421298637055, 8221040.283040727488697 ], [ 605062.242421298637055, 8221100.283040727488697 ], [ 605002.242421298637055, 8221100.283040727488697 ] ] ] } },
{ "type": "Feature", "properties": { "ano": 2020, "camada": "reassentamento", "area_km2": 0.0135 }, "geometry": { "type": "Polygon", "coordinates": [ [ [ 604282.242421298637055, 8221130.283040727488697 ], [ 604282.242421298637055, 8221100.283040727488697 ], [ 604312.242421298637055, 8221100.283040727488697 ], [ 604312.242421298637055, 8220980.283040727488697 ], [ 604342.242421298637055, 8220980.283040727488697 ], [ 604342.242421298637055, 8220950.283040727488697 ], [ 604372.242421298637055, 8220950.283040727488697 ], [ 604372.242421298637055, 8221040.283040727488697 ], [ 604402.242421298637055, 8221040.283040727488697 ], [ 604402.242421298637055, 8221130.283040727488697 ], [ 604282.242421298637055, 8221130.283040727488697 ] ] ] } },
{ "type": "Feature", "properties": { "ano": 2020, "camada": "reassentamento", "area_km2": 0.0216 }, "geometry": { "type": "Polygon", "coordinates": [ [ [ 603412.242421298637055, 8221100.283040727488697 ], [ 603412.242421298637055, 8221040.283040727488697 ], [ 603322.242421298637055, 8221040.283040727488697 ], [ 603322.242421298637055, 8221010.283040727488697 ], [ 603232.242421298637055, 8221010.283040727488697 ], [ 603232.242421298637055, 8220980.283040727488697 ], [ 603172.242421298637055, 8220980.283040727488697 ], [ 603172.242421298637055, 8220920.283040727488697 ], [ 603262.242421298637055, 8220920.283040727488697 ], [ 603262.242421298637055, 8220950.283040727488697 ], [ 603292.242421298637055, 8220950.283040727488697 ], [ 603292.242421298637055, 8220980.283040727488697 ], [ 603442.242421298637055, 8220980.283040727488697 ], [ 603442.242421298637055, 8220950.283040727488697 ], [ 603502.242421298637055, 8220950.283040727488697 ], [ 603502.242421298637055, 8221010.283040727488697 ], [ 603442.242421298637055, 8221010.283040727488697 ], [ 603442.242421298637055, 8221100.283040727488697 ], [ 603412.242421298637055, 8221100.283040727488697 ] ] ] } },
{ "type": "Feature", "properties": { "ano": 2020, "camada": "reassentamento", "area_km2": 0.0117 }, "geometry": { "type": "Polygon", "coordinates": [ [ [ 604702.242421298637055, 8220980.283040727488697 ], [ 604702.242421298637055, 8220920.283040727488697 ], [ 604642.242421298637055, 8220920.283040727488697 ], [ 604642.242421298637055, 8220890.283040727488697 ], [ 604612.242421298637055, 8220890.283040727488697 ], [ 604612.242421298637055, 8220830.283040727488697 ], [ 604672.242421298637055, 8220830.283040727488697 ], [ 604672.242421298637055, 8220890.283040727488697 ], [ 604792.242421298637055, 8220890.283040727488697 ], [ 604792.242421298637055, 8220950.283040727488697 ], [ 604732.242421298637055, 8220950.283040727488697 ], [ 604732.242421298637055, 8220980.283040727488697 ], [ 604702.242421298637055, 8220980.283040727488697 ] ] ] } },
{ "type": "Feature", "properties": { "ano": 2020, "camada": "reassentamento", "area_km2": 0.0018 }, "geometry": { "type": "Polygon", "coordinates": [ [ [ 603322.242421298637055, 8220860.283040727488697 ], [ 603322.242421298637055, 8220830.283040727488697 ], [ 603382.242421298637055, 8220830.283040727488697 ], [ 603382.242421298637055, 8220860.283040727488697 ], [ 603322.242421298637055, 8220860.283040727488697 ] ] ] } },
{ "type": "Feature", "properties": { "ano": 2020, "camada": "reassentamento", "area_km2": 0.0081 }, "geometry": { "type": "Polygon", "coordinates": [ [ [ 603502.242421298637055, 8220950.283040727488697 ], [ 603502.242421298637055, 8220860.283040727488697 ], [ 603472.242421298637055, 8220860.283040727488697 ], [ 603472.242421298637055, 8220830.283040727488697 ], [ 603562.242421298637055, 8220830.283040727488697 ], [ 603562.242421298637055, 8220950.283040727488697 ], [ 603502.242421298637055, 8220950.283040727488697 ] ] ] } },
{ "type": "Feature", "properties": { "ano": 2020, "camada": "reassentamento", "area_km2": 0.0009 }, "geometry": { "type": "Polygon", "coordinates": [ [ [ 604372.242421298637055, 8220860.283040727488697 ], [ 604372.242421298637055, 8220830.283040727488697 ], [ 604402.242421298637055, 8220830.283040727488697 ], [ 604402.242421298637055, 8220860.283040727488697 ], [ 604372.242421298637055, 8220860.283040727488697 ] ] ] } },
{ "type": "Feature", "properties": { "ano": 2020, "camada": "reassentamento", "area_km2": 0.0063 }, "geometry": { "type": "Polygon", "coordinates": [ [ [ 604492.242421298637055, 8220830.283040727488697 ], [ 604492.242421298637055, 8220800.283040727488697 ], [ 604462.242421298637055, 8220800.283040727488697 ], [ 604462.242421298637055, 8220770.283040727488697 ], [ 604582.242421298637055, 8220770.283040727488697 ], [ 604582.242421298637055, 8220830.283040727488697 ], [ 604492.242421298637055, 8220830.283040727488697 ] ] ] } },
{ "type": "Feature", "properties": { "ano": 2020, "camada": "reassentamento", "area_km2": 0.0027 }, "geometry": { "type": "Polygon", "coordinates": [ [ [ 603082.242421298637055, 8220770.283040727488697 ], [ 603082.242421298637055, 8220680.283040727488697 ], [ 603112.242421298637055, 8220680.283040727488697 ], [ 603112.242421298637055, 8220770.283040727488697 ], [ 603082.242421298637055, 8220770.283040727488697 ] ] ] } },
{ "type": "Feature", "properties": { "ano": 2020, "camada": "reassentamento", "area_km2": 0.0009 }, "geometry": { "type": "Polygon", "coordinates": [ [ [ 603232.242421298637055, 8220710.283040727488697 ], [ 603232.242421298637055, 8220680.283040727488697 ], [ 603262.242421298637055, 8220680.283040727488697 ], [ 603262.242421298637055, 8220710.283040727488697 ], [ 603232.242421298637055, 8220710.283040727488697 ] ] ] } },
{ "type": "Feature", "properties": { "ano": 2020, "camada": "reassentamento", "area_km2": 0.0009 }, "geometry": { "type": "Polygon", "coordinates": [ [ [ 605032.242421298637055, 8220710.283040727488697 ], [ 605032.242421298637055, 8220680.283040727488697 ], [ 605062.242421298637055, 8220680.283040727488697 ], [ 605062.242421298637055, 8220710.283040727488697 ], [ 605032.242421298637055, 8220710.283040727488697 ] ] ] } },
{ "type": "Feature", "properties": { "ano": 2020, "camada": "reassentamento", "area_km2": 0.0009 }, "geometry": { "type": "Polygon", "coordinates": [ [ [ 603112.242421298637055, 8220680.283040727488697 ], [ 603112.242421298637055, 8220650.283040727488697 ], [ 603142.242421298637055, 8220650.283040727488697 ], [ 603142.242421298637055, 8220680.283040727488697 ], [ 603112.242421298637055, 8220680.283040727488697 ] ] ] } },
{ "type": "Feature", "properties": { "ano": 2020, "camada": "reassentamento", "area_km2": 0.0009 }, "geometry": { "type": "Polygon", "coordinates": [ [ [ 603352.242421298637055, 8220650.283040727488697 ], [ 603352.242421298637055, 8220620.283040727488697 ], [ 603382.242421298637055, 8220620.283040727488697 ], [ 603382.242421298637055, 8220650.283040727488697 ], [ 603352.242421298637055, 8220650.283040727488697 ] ] ] } },
{ "type": "Feature", "properties": { "ano": 2020, "camada": "reassentamento", "area_km2": 0.0072 }, "geometry": { "type": "Polygon", "coordinates": [ [ [ 604972.242421298637055, 8220680.283040727488697 ], [ 604972.242421298637055, 8220650.283040727488697 ], [ 604912.242421298637055, 8220650.283040727488697 ], [ 604912.242421298637055, 8220590.283040727488697 ], [ 604972.242421298637055, 8220590.283040727488697 ], [ 604972.242421298637055, 8220620.283040727488697 ], [ 605032.242421298637055, 8220620.283040727488697 ], [ 605032.242421298637055, 8220680.283040727488697 ], [ 604972.242421298637055, 8220680.283040727488697 ] ] ] } },
{ "type": "Feature", "properties": { "ano": 2020, "camada": "reassentamento", "area_km2": 0.0009 }, "geometry": { "type": "Polygon", "coordinates": [ [ [ 603322.242421298637055, 8220620.283040727488697 ], [ 603322.242421298637055, 8220590.283040727488697 ], [ 603352.242421298637055, 8220590.283040727488697 ], [ 603352.242421298637055, 8220620.283040727488697 ], [ 603322.242421298637055, 8220620.283040727488697 ] ] ] } },
{ "type": "Feature", "properties": { "ano": 2020, "camada": "reassentamento", "area_km2": 0.0117 }, "geometry": { "type": "Polygon", "coordinates": [ [ [ 603232.242421298637055, 8220590.283040727488697 ], [ 603232.242421298637055, 8220560.283040727488697 ], [ 603142.242421298637055, 8220560.283040727488697 ], [ 603142.242421298637055, 8220470.283040727488697 ], [ 603202.242421298637055, 8220470.283040727488697 ], [ 603202.242421298637055, 8220500.283040727488697 ], [ 603262.242421298637055, 8220500.283040727488697 ], [ 603262.242421298637055, 8220530.283040727488697 ], [ 603292.242421298637055, 8220530.283040727488697 ], [ 603292.242421298637055, 8220590.283040727488697 ], [ 603232.242421298637055, 8220590.283040727488697 ] ] ] } },
{ "type": "Feature", "properties": { "ano": 2020, "camada": "reassentamento", "area_km2": 0.0279 }, "geometry": { "type": "Polygon", "coordinates": [ [ [ 604492.242421298637055, 8220590.283040727488697 ], [ 604492.242421298637055, 8220470.283040727488697 ], [ 604522.242421298637055, 8220470.283040727488697 ], [ 604522.242421298637055, 8220440.283040727488697 ], [ 604612.242421298637055, 8220440.283040727488697 ], [ 604612.242421298637055, 8220410.283040727488697 ], [ 604642.242421298637055, 8220410.283040727488697 ], [ 604642.242421298637055, 8220350.283040727488697 ], [ 604672.242421298637055, 8220350.283040727488697 ], [ 604672.242421298637055, 8220440.283040727488697 ], [ 604702.242421298637055, 8220440.283040727488697 ], [ 604702.242421298637055, 8220470.283040727488697 ], [ 604762.242421298637055, 8220470.283040727488697 ], [ 604762.242421298637055, 8220500.283040727488697 ], [ 604792.242421298637055, 8220500.283040727488697 ], [ 604792.242421298637055, 8220530.283040727488697 ], [ 604702.242421298637055, 8220530.283040727488697 ], [ 604702.242421298637055, 8220500.283040727488697 ], [ 604612.242421298637055, 8220500.283040727488697 ], [ 604612.242421298637055, 8220530.283040727488697 ], [ 604582.242421298637055, 8220530.283040727488697 ], [ 604582.242421298637055, 8220560.283040727488697 ], [ 604552.242421298637055, 8220560.283040727488697 ], [ 604552.242421298637055, 8220590.283040727488697 ], [ 604492.242421298637055, 8220590.283040727488697 ] ] ] } },
{ "type": "Feature", "properties": { "ano": 2020, "camada": "reassentamento", "area_km2": 0.0135 }, "geometry": { "type": "Polygon", "coordinates": [ [ [ 604162.242421298637055, 8220500.283040727488697 ], [ 604162.242421298637055, 8220440.283040727488697 ], [ 604192.242421298637055, 8220440.283040727488697 ], [ 604192.242421298637055, 8220380.283040727488697 ], [ 604222.242421298637055, 8220380.283040727488697 ], [ 604222.242421298637055, 8220320.283040727488697 ], [ 604252.242421298637055, 8220320.283040727488697 ], [ 604252.242421298637055, 8220290.283040727488697 ], [ 604282.242421298637055, 8220290.283040727488697 ], [ 604282.242421298637055, 8220410.283040727488697 ], [ 604252.242421298637055, 8220410.283040727488697 ], [ 604252.242421298637055, 8220470.283040727488697 ], [ 604222.242421298637055, 8220470.283040727488697 ], [ 604222.242421298637055, 8220500.283040727488697 ], [ 604162.242421298637055, 8220500.283040727488697 ] ] ] } },
{ "type": "Feature", "properties": { "ano": 2020, "camada": "reassentamento", "area_km2": 0.4185 }, "geometry": { "type": "Polygon", "coordinates": [ [ [ 603712.242421298637055, 8221820.283040727488697 ], [ 603712.242421298637055, 8221790.283040727488697 ], [ 603652.242421298637055, 8221790.283040727488697 ], [ 603652.242421298637055, 8221760.283040727488697 ], [ 603682.242421298637055, 8221760.283040727488697 ], [ 603682.242421298637055, 8221730.283040727488697 ], [ 603712.242421298637055, 8221730.283040727488697 ], [ 603712.242421298637055, 8221640.283040727488697 ], [ 603682.242421298637055, 8221640.283040727488697 ], [ 603682.242421298637055, 8221610.283040727488697 ], [ 603592.242421298637055, 8221610.283040727488697 ], [ 603592.242421298637055, 8221670.283040727488697 ], [ 603562.242421298637055, 8221670.283040727488697 ], [ 603562.242421298637055, 8221730.283040727488697 ], [ 603532.242421298637055, 8221730.283040727488697 ], [ 603532.242421298637055, 8221610.283040727488697 ], [ 603472.242421298637055, 8221610.283040727488697 ], [ 603472.242421298637055, 8221550.283040727488697 ], [ 603502.242421298637055, 8221550.283040727488697 ], [ 603502.242421298637055, 8221520.283040727488697 ], [ 603592.242421298637055, 8221520.283040727488697 ], [ 603592.242421298637055, 8221460.283040727488697 ], [ 603622.242421298637055, 8221460.283040727488697 ], [ 603622.242421298637055, 8221430.283040727488697 ], [ 603682.242421298637055, 8221430.283040727488697 ], [ 603682.242421298637055, 8221340.283040727488697 ], [ 603712.242421298637055, 8221340.283040727488697 ], [ 603712.242421298637055, 8221280.283040727488697 ], [ 603742.242421298637055, 8221280.283040727488697 ], [ 603742.242421298637055, 8221130.283040727488697 ], [ 603682.242421298637055, 8221130.283040727488697 ], [ 603682.242421298637055, 8221100.283040727488697 ], [ 603652.242421298637055, 8221100.283040727488697 ], [ 603652.242421298637055, 8221040.283040727488697 ], [ 603682.242421298637055, 8221040.283040727488697 ], [ 603682.242421298637055, 8221010.283040727488697 ], [ 603772.242421298637055, 8221010.283040727488697 ], [ 603772.242421298637055, 8221040.283040727488697 ], [ 603892.242421298637055, 8221040.283040727488697 ], [ 603892.242421298637055, 8221010.283040727488697 ], [ 604012.242421298637055, 8221010.283040727488697 ], [ 604012.242421298637055, 8220920.283040727488697 ], [ 603922.242421298637055, 8220920.283040727488697 ], [ 603922.242421298637055, 8220890.283040727488697 ], [ 603892.242421298637055, 8220890.283040727488697 ], [ 603892.242421298637055, 8220860.283040727488697 ], [ 603952.242421298637055, 8220860.283040727488697 ], [ 603952.242421298637055, 8220650.283040727488697 ], [ 603862.242421298637055, 8220650.283040727488697 ], [ 603862.242421298637055, 8220680.283040727488697 ], [ 603832.242421298637055, 8220680.283040727488697 ], [ 603832.242421298637055, 8220770.283040727488697 ], [ 603802.242421298637055, 8220770.283040727488697 ], [ 603802.242421298637055, 8220860.283040727488697 ], [ 603682.242421298637055, 8220860.283040727488697 ], [ 603682.242421298637055, 8220830.283040727488697 ], [ 603562.242421298637055, 8220830.283040727488697 ], [ 603562.242421298637055, 8220740.283040727488697 ], [ 603532.242421298637055, 8220740.283040727488697 ], [ 603532.242421298637055, 8220710.283040727488697 ], [ 603472.242421298637055, 8220710.283040727488697 ], [ 603472.242421298637055, 8220680.283040727488697 ], [ 603502.242421298637055, 8220680.283040727488697 ], [ 603502.242421298637055, 8220650.283040727488697 ], [ 603532.242421298637055, 8220650.283040727488697 ], [ 603532.242421298637055, 8220680.283040727488697 ], [ 603622.242421298637055, 8220680.283040727488697 ], [ 603622.242421298637055, 8220650.283040727488697 ], [ 603652.242421298637055, 8220650.283040727488697 ], [ 603652.242421298637055, 8220590.283040727488697 ], [ 603682.242421298637055, 8220590.283040727488697 ], [ 603682.242421298637055, 8220530.283040727488697 ], [ 603712.242421298637055, 8220530.283040727488697 ], [ 603712.242421298637055, 8220410.283040727488697 ], [ 603652.242421298637055, 8220410.283040727488697 ], [ 603652.242421298637055, 8220380.283040727488697 ], [ 603622.242421298637055, 8220380.283040727488697 ], [ 603622.242421298637055, 8220350.283040727488697 ], [ 603562.242421298637055, 8220350.283040727488697 ], [ 603562.242421298637055, 8220320.283040727488697 ], [ 603532.242421298637055, 8220320.283040727488697 ], [ 603532.242421298637055, 8220290.283040727488697 ], [ 603472.242421298637055, 8220290.283040727488697 ], [ 603472.242421298637055, 8220260.283040727488697 ], [ 603412.242421298637055, 8220260.283040727488697 ], [ 603412.242421298637055, 8220230.283040727488697 ], [ 603382.242421298637055, 8220230.283040727488697 ], [ 603382.242421298637055, 8220200.283040727488697 ], [ 603442.242421298637055, 8220200.283040727488697 ], [ 603442.242421298637055, 8220230.283040727488697 ], [ 603532.242421298637055, 8220230.283040727488697 ], [ 603532.242421298637055, 8220260.283040727488697 ], [ 603622.242421298637055, 8220260.283040727488697 ], [ 603622.242421298637055, 8220290.283040727488697 ], [ 603652.242421298637055, 8220290.283040727488697 ], [ 603652.242421298637055, 8220320.283040727488697 ], [ 603682.242421298637055, 8220320.283040727488697 ], [ 603682.242421298637055, 8220350.283040727488697 ], [ 603772.242421298637055, 8220350.283040727488697 ], [ 603772.242421298637055, 8220380.283040727488697 ], [ 603832.242421298637055, 8220380.283040727488697 ], [ 603832.242421298637055, 8220440.283040727488697 ], [ 603802.242421298637055, 8220440.283040727488697 ], [ 603802.242421298637055, 8220590.283040727488697 ], [ 604012.242421298637055, 8220590.283040727488697 ], [ 604012.242421298637055, 8220620.283040727488697 ], [ 604042.242421298637055, 8220620.283040727488697 ], [ 604042.242421298637055, 8220650.283040727488697 ], [ 604132.242421298637055, 8220650.283040727488697 ], [ 604132.242421298637055, 8220560.283040727488697 ], [ 604162.242421298637055, 8220560.283040727488697 ], [ 604162.242421298637055, 8220680.283040727488697 ], [ 604192.242421298637055, 8220680.283040727488697 ], [ 604192.242421298637055, 8220710.283040727488697 ], [ 604342.242421298637055, 8220710.283040727488697 ], [ 604342.242421298637055, 8220740.283040727488697 ], [ 604252.242421298637055, 8220740.283040727488697 ], [ 604252.242421298637055, 8220770.283040727488697 ], [ 604222.242421298637055, 8220770.283040727488697 ], [ 604222.242421298637055, 8220830.283040727488697 ], [ 604192.242421298637055, 8220830.283040727488697 ], [ 604192.242421298637055, 8220950.283040727488697 ], [ 604132.242421298637055, 8220950.283040727488697 ], [ 604132.242421298637055, 8221040.283040727488697 ], [ 604102.242421298637055, 8221040.283040727488697 ], [ 604102.242421298637055, 8221160.283040727488697 ], [ 604132.242421298637055, 8221160.283040727488697 ], [ 604132.242421298637055, 8221190.283040727488697 ], [ 604072.242421298637055, 8221190.283040727488697 ], [ 604072.242421298637055, 8221310.283040727488697 ], [ 604132.242421298637055, 8221310.283040727488697 ], [ 604132.242421298637055, 8221400.283040727488697 ], [ 604162.242421298637055, 8221400.283040727488697 ], [ 604162.242421298637055, 8221460.283040727488697 ], [ 604072.242421298637055, 8221460.283040727488697 ], [ 604072.242421298637055, 8221520.283040727488697 ], [ 604042.242421298637055, 8221520.283040727488697 ], [ 604042.242421298637055, 8221490.283040727488697 ], [ 603892.242421298637055, 8221490.283040727488697 ], [ 603892.242421298637055, 8221430.283040727488697 ], [ 603952.242421298637055, 8221430.283040727488697 ], [ 603952.242421298637055, 8221250.283040727488697 ], [ 603862.242421298637055, 8221250.283040727488697 ], [ 603862.242421298637055, 8221280.283040727488697 ], [ 603772.242421298637055, 8221280.283040727488697 ], [ 603772.242421298637055, 8221340.283040727488697 ], [ 603742.242421298637055, 8221340.283040727488697 ], [ 603742.242421298637055, 8221490.283040727488697 ], [ 603682.242421298637055, 8221490.283040727488697 ], [ 603682.242421298637055, 8221580.283040727488697 ], [ 603772.242421298637055, 8221580.283040727488697 ], [ 603772.242421298637055, 8221490.283040727488697 ], [ 603862.242421298637055, 8221490.283040727488697 ], [ 603862.242421298637055, 8221520.283040727488697 ], [ 603802.242421298637055, 8221520.283040727488697 ], [ 603802.242421298637055, 8221670.283040727488697 ], [ 603862.242421298637055, 8221670.283040727488697 ], [ 603862.242421298637055, 8221730.283040727488697 ], [ 603772.242421298637055, 8221730.283040727488697 ], [ 603772.242421298637055, 8221820.283040727488697 ], [ 603712.242421298637055, 8221820.283040727488697 ] ], [ [ 603862.242421298637055, 8221190.283040727488697 ], [ 603952.242421298637055, 8221190.283040727488697 ], [ 603952.242421298637055, 8221100.283040727488697 ], [ 603862.242421298637055, 8221100.283040727488697 ], [ 603862.242421298637055, 8221190.283040727488697 ] ] ] } },
{ "type": "Feature", "properties": { "ano": 2020, "camada": "reassentamento", "area_km2": 0.0009 }, "geometry": { "type": "Polygon", "coordinates": [ [ [ 604732.242421298637055, 8220200.283040727488697 ], [ 604732.242421298637055, 8220170.283040727488697 ], [ 604762.242421298637055, 8220170.283040727488697 ], [ 604762.242421298637055, 8220200.283040727488697 ], [ 604732.242421298637055, 8220200.283040727488697 ] ] ] } },
{ "type": "Feature", "properties": { "ano": 2020, "camada": "reassentamento", "area_km2": 0.0009 }, "geometry": { "type": "Polygon", "coordinates": [ [ [ 604342.242421298637055, 8220140.283040727488697 ], [ 604342.242421298637055, 8220110.283040727488697 ], [ 604372.242421298637055, 8220110.283040727488697 ], [ 604372.242421298637055, 8220140.283040727488697 ], [ 604342.242421298637055, 8220140.283040727488697 ] ] ] } },
{ "type": "Feature", "properties": { "ano": 2020, "camada": "reassentamento", "area_km2": 0.0036 }, "geometry": { "type": "Polygon", "coordinates": [ [ [ 604372.242421298637055, 8220110.283040727488697 ], [ 604372.242421298637055, 8220080.283040727488697 ], [ 604402.242421298637055, 8220080.283040727488697 ], [ 604402.242421298637055, 8220020.283040727488697 ], [ 604432.242421298637055, 8220020.283040727488697 ], [ 604432.242421298637055, 8220110.283040727488697 ], [ 604372.242421298637055, 8220110.283040727488697 ] ] ] } },
{ "type": "Feature", "properties": { "ano": 2020, "camada": "reassentamento", "area_km2": 0.0009 }, "geometry": { "type": "Polygon", "coordinates": [ [ [ 604432.242421298637055, 8219960.283040727488697 ], [ 604432.242421298637055, 8219930.283040727488697 ], [ 604462.242421298637055, 8219930.283040727488697 ], [ 604462.242421298637055, 8219960.283040727488697 ], [ 604432.242421298637055, 8219960.283040727488697 ] ] ] } },
{ "type": "Feature", "properties": { "ano": 2020, "camada": "reassentamento", "area_km2": 0.0207 }, "geometry": { "type": "Polygon", "coordinates": [ [ [ 603862.242421298637055, 8220080.283040727488697 ], [ 603862.242421298637055, 8220050.283040727488697 ], [ 603802.242421298637055, 8220050.283040727488697 ], [ 603802.242421298637055, 8219990.283040727488697 ], [ 603832.242421298637055, 8219990.283040727488697 ], [ 603832.242421298637055, 8220020.283040727488697 ], [ 603952.242421298637055, 8220020.283040727488697 ], [ 603952.242421298637055, 8219930.283040727488697 ], [ 603982.242421298637055, 8219930.283040727488697 ], [ 603982.242421298637055, 8219900.283040727488697 ], [ 604102.242421298637055, 8219900.283040727488697 ], [ 604102.242421298637055, 8219930.283040727488697 ], [ 604042.242421298637055, 8219930.283040727488697 ], [ 604042.242421298637055, 8219990.283040727488697 ], [ 604012.242421298637055, 8219990.283040727488697 ], [ 604012.242421298637055, 8220050.283040727488697 ], [ 603952.242421298637055, 8220050.283040727488697 ], [ 603952.242421298637055, 8220080.283040727488697 ], [ 603862.242421298637055, 8220080.283040727488697 ] ] ] } },
{ "type": "Feature", "properties": { "ano": 2020, "camada": "reassentamento", "area_km2": 0.0036 }, "geometry": { "type": "Polygon", "coordinates": [ [ [ 610042.242421298637055, 8219750.283040727488697 ], [ 610042.242421298637055, 8219720.283040727488697 ], [ 610012.242421298637055, 8219720.283040727488697 ], [ 610012.242421298637055, 8219690.283040727488697 ], [ 610102.242421298637055, 8219690.283040727488697 ], [ 610102.242421298637055, 8219720.283040727488697 ], [ 610072.242421298637055, 8219720.283040727488697 ], [ 610072.242421298637055, 8219750.283040727488697 ], [ 610042.242421298637055, 8219750.283040727488697 ] ] ] } },
{ "type": "Feature", "properties": { "ano": 2020, "camada": "reassentamento", "area_km2": 0.0009 }, "geometry": { "type": "Polygon", "coordinates": [ [ [ 610642.242421298637055, 8219720.283040727488697 ], [ 610642.242421298637055, 8219690.283040727488697 ], [ 610672.242421298637055, 8219690.283040727488697 ], [ 610672.242421298637055, 8219720.283040727488697 ], [ 610642.242421298637055, 8219720.283040727488697 ] ] ] } },
{ "type": "Feature", "properties": { "ano": 2020, "camada": "reassentamento", "area_km2": 0.0009 }, "geometry": { "type": "Polygon", "coordinates": [ [ [ 609592.242421298637055, 8219630.283040727488697 ], [ 609592.242421298637055, 8219600.283040727488697 ], [ 609622.242421298637055, 8219600.283040727488697 ], [ 609622.242421298637055, 8219630.283040727488697 ], [ 609592.242421298637055, 8219630.283040727488697 ] ] ] } },
{ "type": "Feature", "properties": { "ano": 2020, "camada": "reassentamento", "area_km2": 0.0009 }, "geometry": { "type": "Polygon", "coordinates": [ [ [ 610492.242421298637055, 8219570.283040727488697 ], [ 610492.242421298637055, 8219540.283040727488697 ], [ 610522.242421298637055, 8219540.283040727488697 ], [ 610522.242421298637055, 8219570.283040727488697 ], [ 610492.242421298637055, 8219570.283040727488697 ] ] ] } },
{ "type": "Feature", "properties": { "ano": 2020, "camada": "reassentamento", "area_km2": 0.0009 }, "geometry": { "type": "Polygon", "coordinates": [ [ [ 610522.242421298637055, 8219540.283040727488697 ], [ 610522.242421298637055, 8219510.283040727488697 ], [ 610552.242421298637055, 8219510.283040727488697 ], [ 610552.242421298637055, 8219540.283040727488697 ], [ 610522.242421298637055, 8219540.283040727488697 ] ] ] } },
{ "type": "Feature", "properties": { "ano": 2020, "camada": "reassentamento", "area_km2": 0.0018 }, "geometry": { "type": "Polygon", "coordinates": [ [ [ 610282.242421298637055, 8219450.283040727488697 ], [ 610282.242421298637055, 8219420.283040727488697 ], [ 610342.242421298637055, 8219420.283040727488697 ], [ 610342.242421298637055, 8219450.283040727488697 ], [ 610282.242421298637055, 8219450.283040727488697 ] ] ] } },
{ "type": "Feature", "properties": { "ano": 2020, "camada": "reassentamento", "area_km2": 0.009 }, "geometry": { "type": "Polygon", "coordinates": [ [ [ 610102.242421298637055, 8219510.283040727488697 ], [ 610102.242421298637055, 8219480.283040727488697 ], [ 610072.242421298637055, 8219480.283040727488697 ], [ 610072.242421298637055, 8219360.283040727488697 ], [ 610102.242421298637055, 8219360.283040727488697 ], [ 610102.242421298637055, 8219420.283040727488697 ], [ 610132.242421298637055, 8219420.283040727488697 ], [ 610132.242421298637055, 8219450.283040727488697 ], [ 610192.242421298637055, 8219450.283040727488697 ], [ 610192.242421298637055, 8219480.283040727488697 ], [ 610162.242421298637055, 8219480.283040727488697 ], [ 610162.242421298637055, 8219510.283040727488697 ], [ 610102.242421298637055, 8219510.283040727488697 ] ] ] } },
{ "type": "Feature", "properties": { "ano": 2020, "camada": "reassentamento", "area_km2": 0.0018 }, "geometry": { "type": "Polygon", "coordinates": [ [ [ 609622.242421298637055, 8219150.283040727488697 ], [ 609622.242421298637055, 8219120.283040727488697 ], [ 609682.242421298637055, 8219120.283040727488697 ], [ 609682.242421298637055, 8219150.283040727488697 ], [ 609622.242421298637055, 8219150.283040727488697 ] ] ] } },
{ "type": "Feature", "properties": { "ano": 2020, "camada": "reassentamento", "area_km2": 0.0009 }, "geometry": { "type": "Polygon", "coordinates": [ [ [ 611062.242421298637055, 8219090.283040727488697 ], [ 611062.242421298637055, 8219060.283040727488697 ], [ 611092.242421298637055, 8219060.283040727488697 ], [ 611092.242421298637055, 8219090.283040727488697 ], [ 611062.242421298637055, 8219090.283040727488697 ] ] ] } },
{ "type": "Feature", "properties": { "ano": 2020, "camada": "reassentamento", "area_km2": 0.0036 }, "geometry": { "type": "Polygon", "coordinates": [ [ [ 610252.242421298637055, 8219090.283040727488697 ], [ 610252.242421298637055, 8219030.283040727488697 ], [ 610312.242421298637055, 8219030.283040727488697 ], [ 610312.242421298637055, 8219090.283040727488697 ], [ 610252.242421298637055, 8219090.283040727488697 ] ] ] } },
{ "type": "Feature", "properties": { "ano": 2020, "camada": "reassentamento", "area_km2": 0.0009 }, "geometry": { "type": "Polygon", "coordinates": [ [ [ 610792.242421298637055, 8219060.283040727488697 ], [ 610792.242421298637055, 8219030.283040727488697 ], [ 610822.242421298637055, 8219030.283040727488697 ], [ 610822.242421298637055, 8219060.283040727488697 ], [ 610792.242421298637055, 8219060.283040727488697 ] ] ] } },
{ "type": "Feature", "properties": { "ano": 2020, "camada": "reassentamento", "area_km2": 0.0036 }, "geometry": { "type": "Polygon", "coordinates": [ [ [ 610162.242421298637055, 8219000.283040727488697 ], [ 610162.242421298637055, 8218940.283040727488697 ], [ 610222.242421298637055, 8218940.283040727488697 ], [ 610222.242421298637055, 8219000.283040727488697 ], [ 610162.242421298637055, 8219000.283040727488697 ] ] ] } },
{ "type": "Feature", "properties": { "ano": 2020, "camada": "reassentamento", "area_km2": 0.0045 }, "geometry": { "type": "Polygon", "coordinates": [ [ [ 611212.242421298637055, 8218970.283040727488697 ], [ 611212.242421298637055, 8218910.283040727488697 ], [ 611242.242421298637055, 8218910.283040727488697 ], [ 611242.242421298637055, 8218880.283040727488697 ], [ 611302.242421298637055, 8218880.283040727488697 ], [ 611302.242421298637055, 8218910.283040727488697 ], [ 611272.242421298637055, 8218910.283040727488697 ], [ 611272.242421298637055, 8218940.283040727488697 ], [ 611242.242421298637055, 8218940.283040727488697 ], [ 611242.242421298637055, 8218970.283040727488697 ], [ 611212.242421298637055, 8218970.283040727488697 ] ] ] } },
{ "type": "Feature", "properties": { "ano": 2020, "camada": "reassentamento", "area_km2": 0.0009 }, "geometry": { "type": "Polygon", "coordinates": [ [ [ 609892.242421298637055, 8218910.283040727488697 ], [ 609892.242421298637055, 8218880.283040727488697 ], [ 609922.242421298637055, 8218880.283040727488697 ], [ 609922.242421298637055, 8218910.283040727488697 ], [ 609892.242421298637055, 8218910.283040727488697 ] ] ] } },
{ "type": "Feature", "properties": { "ano": 2020, "camada": "reassentamento", "area_km2": 0.0018 }, "geometry": { "type": "Polygon", "coordinates": [ [ [ 610252.242421298637055, 8218910.283040727488697 ], [ 610252.242421298637055, 8218850.283040727488697 ], [ 610282.242421298637055, 8218850.283040727488697 ], [ 610282.242421298637055, 8218910.283040727488697 ], [ 610252.242421298637055, 8218910.283040727488697 ] ] ] } },
{ "type": "Feature", "properties": { "ano": 2020, "camada": "reassentamento", "area_km2": 0.0045 }, "geometry": { "type": "Polygon", "coordinates": [ [ [ 610492.242421298637055, 8218910.283040727488697 ], [ 610492.242421298637055, 8218880.283040727488697 ], [ 610552.242421298637055, 8218880.283040727488697 ], [ 610552.242421298637055, 8218850.283040727488697 ], [ 610612.242421298637055, 8218850.283040727488697 ], [ 610612.242421298637055, 8218880.283040727488697 ], [ 610582.242421298637055, 8218880.283040727488697 ], [ 610582.242421298637055, 8218910.283040727488697 ], [ 610492.242421298637055, 8218910.283040727488697 ] ] ] } },
{ "type": "Feature", "properties": { "ano": 2020, "camada": "reassentamento", "area_km2": 0.0009 }, "geometry": { "type": "Polygon", "coordinates": [ [ [ 611302.242421298637055, 8218880.283040727488697 ], [ 611302.242421298637055, 8218850.283040727488697 ], [ 611332.242421298637055, 8218850.283040727488697 ], [ 611332.242421298637055, 8218880.283040727488697 ], [ 611302.242421298637055, 8218880.283040727488697 ] ] ] } },
{ "type": "Feature", "properties": { "ano": 2020, "camada": "reassentamento", "area_km2": 0.0009 }, "geometry": { "type": "Polygon", "coordinates": [ [ [ 610612.242421298637055, 8218850.283040727488697 ], [ 610612.242421298637055, 8218820.283040727488697 ], [ 610642.242421298637055, 8218820.283040727488697 ], [ 610642.242421298637055, 8218850.283040727488697 ], [ 610612.242421298637055, 8218850.283040727488697 ] ] ] } },
{ "type": "Feature", "properties": { "ano": 2020, "camada": "reassentamento", "area_km2": 0.0018 }, "geometry": { "type": "Polygon", "coordinates": [ [ [ 611332.242421298637055, 8218850.283040727488697 ], [ 611332.242421298637055, 8218820.283040727488697 ], [ 611392.242421298637055, 8218820.283040727488697 ], [ 611392.242421298637055, 8218850.283040727488697 ], [ 611332.242421298637055, 8218850.283040727488697 ] ] ] } },
{ "type": "Feature", "properties": { "ano": 2020, "camada": "reassentamento", "area_km2": 0.0009 }, "geometry": { "type": "Polygon", "coordinates": [ [ [ 609712.242421298637055, 8218820.283040727488697 ], [ 609712.242421298637055, 8218790.283040727488697 ], [ 609742.242421298637055, 8218790.283040727488697 ], [ 609742.242421298637055, 8218820.283040727488697 ], [ 609712.242421298637055, 8218820.283040727488697 ] ] ] } },
{ "type": "Feature", "properties": { "ano": 2020, "camada": "reassentamento", "area_km2": 0.0045 }, "geometry": { "type": "Polygon", "coordinates": [ [ [ 610012.242421298637055, 8218850.283040727488697 ], [ 610012.242421298637055, 8218760.283040727488697 ], [ 610072.242421298637055, 8218760.283040727488697 ], [ 610072.242421298637055, 8218820.283040727488697 ], [ 610042.242421298637055, 8218820.283040727488697 ], [ 610042.242421298637055, 8218850.283040727488697 ], [ 610012.242421298637055, 8218850.283040727488697 ] ] ] } },
{ "type": "Feature", "properties": { "ano": 2020, "camada": "reassentamento", "area_km2": 0.0009 }, "geometry": { "type": "Polygon", "coordinates": [ [ [ 610462.242421298637055, 8218700.283040727488697 ], [ 610462.242421298637055, 8218670.283040727488697 ], [ 610492.242421298637055, 8218670.283040727488697 ], [ 610492.242421298637055, 8218700.283040727488697 ], [ 610462.242421298637055, 8218700.283040727488697 ] ] ] } },
{ "type": "Feature", "properties": { "ano": 2020, "camada": "reassentamento", "area_km2": 0.0009 }, "geometry": { "type": "Polygon", "coordinates": [ [ [ 610822.242421298637055, 8218670.283040727488697 ], [ 610822.242421298637055, 8218640.283040727488697 ], [ 610852.242421298637055, 8218640.283040727488697 ], [ 610852.242421298637055, 8218670.283040727488697 ], [ 610822.242421298637055, 8218670.283040727488697 ] ] ] } },
{ "type": "Feature", "properties": { "ano": 2020, "camada": "reassentamento", "area_km2": 0.0009 }, "geometry": { "type": "Polygon", "coordinates": [ [ [ 610852.242421298637055, 8218640.283040727488697 ], [ 610852.242421298637055, 8218610.283040727488697 ], [ 610882.242421298637055, 8218610.283040727488697 ], [ 610882.242421298637055, 8218640.283040727488697 ], [ 610852.242421298637055, 8218640.283040727488697 ] ] ] } },
{ "type": "Feature", "properties": { "ano": 2020, "camada": "reassentamento", "area_km2": 0.0009 }, "geometry": { "type": "Polygon", "coordinates": [ [ [ 610762.242421298637055, 8218490.283040727488697 ], [ 610762.242421298637055, 8218460.283040727488697 ], [ 610792.242421298637055, 8218460.283040727488697 ], [ 610792.242421298637055, 8218490.283040727488697 ], [ 610762.242421298637055, 8218490.283040727488697 ] ] ] } },
{ "type": "Feature", "properties": { "ano": 2020, "camada": "reassentamento", "area_km2": 0.0009 }, "geometry": { "type": "Polygon", "coordinates": [ [ [ 610462.242421298637055, 8218430.283040727488697 ], [ 610462.242421298637055, 8218400.283040727488697 ], [ 610492.242421298637055, 8218400.283040727488697 ], [ 610492.242421298637055, 8218430.283040727488697 ], [ 610462.242421298637055, 8218430.283040727488697 ] ] ] } },
{ "type": "Feature", "properties": { "ano": 2020, "camada": "reassentamento", "area_km2": 0.0009 }, "geometry": { "type": "Polygon", "coordinates": [ [ [ 610282.242421298637055, 8218340.283040727488697 ], [ 610282.242421298637055, 8218310.283040727488697 ], [ 610312.242421298637055, 8218310.283040727488697 ], [ 610312.242421298637055, 8218340.283040727488697 ], [ 610282.242421298637055, 8218340.283040727488697 ] ] ] } },
{ "type": "Feature", "properties": { "ano": 2020, "camada": "reassentamento", "area_km2": 0.0009 }, "geometry": { "type": "Polygon", "coordinates": [ [ [ 610342.242421298637055, 8218280.283040727488697 ], [ 610342.242421298637055, 8218250.283040727488697 ], [ 610372.242421298637055, 8218250.283040727488697 ], [ 610372.242421298637055, 8218280.283040727488697 ], [ 610342.242421298637055, 8218280.283040727488697 ] ] ] } },
{ "type": "Feature", "properties": { "ano": 2020, "camada": "reassentamento", "area_km2": 0.0009 }, "geometry": { "type": "Polygon", "coordinates": [ [ [ 610372.242421298637055, 8218250.283040727488697 ], [ 610372.242421298637055, 8218220.283040727488697 ], [ 610402.242421298637055, 8218220.283040727488697 ], [ 610402.242421298637055, 8218250.283040727488697 ], [ 610372.242421298637055, 8218250.283040727488697 ] ] ] } },
{ "type": "Feature", "properties": { "ano": 2020, "camada": "reassentamento", "area_km2": 0.0018 }, "geometry": { "type": "Polygon", "coordinates": [ [ [ 610522.242421298637055, 8218130.283040727488697 ], [ 610522.242421298637055, 8218100.283040727488697 ], [ 610582.242421298637055, 8218100.283040727488697 ], [ 610582.242421298637055, 8218130.283040727488697 ], [ 610522.242421298637055, 8218130.283040727488697 ] ] ] } }
]
}
