{
"type": "FeatureCollection",
"name": "reassentamento_2010",
"crs": { "type": "name", "properties": { "name": "urn:ogc:def:crs:EPSG::32736" } },
"features": [
{ "type": "Feature", "properties": { "ano": 2010, "camada": "reassentamento", "area_km2": 0.0018 }, "geometry": { "type": "Polygon", "coordinates": [ [ [ 603172.242421298637055, 8221340.283040727488697 ], [ 603172.242421298637055, 8221280.283040727488697 ], [ 603202.242421298637055, 8221280.283040727488697 ], [ 603202.242421298637055, 8221340.283040727488697 ], [ 603172.242421298637055, 8221340.283040727488697 ] ] ] } },
{ "type": "Feature", "properties": { "ano": 2010, "camada": "reassentamento", "area_km2": 0.0009 }, "geometry": { "type": "Polygon", "coordinates": [ [ [ 604342.242421298637055, 8219930.283040727488697 ], [ 604342.242421298637055, 8219900.283040727488697 ], [ 604372.242421298637055, 8219900.283040727488697 ], [ 604372.242421298637055, 8219930.283040727488697 ], [ 604342.242421298637055, 8219930.283040727488697 ] ] ] } },
{ "type": "Feature", "properties": { "ano": 2010, "camada": "reassentamento", "area_km2": 1.2015 }, "geometry": { "type": "Polygon", "coordinates": [ [ [ 604012.242421298637055, 8221880.283040727488697 ], [ 604012.242421298637055, 8221820.283040727488697 ], [ 603982.242421298637055, 8221820.283040727488697 ], [ 603982.242421298637055, 8221790.283040727488697 ], [ 603862.242421298637055, 8221790.283040727488697 ], [ 603862.242421298637055, 8221820.283040727488697 ], [ 603832.242421298637055, 8221820.283040727488697 ], [ 603832.242421298637055, 8221850.283040727488697 ], [ 603802.242421298637055, 8221850.283040727488697 ], [ 603802.242421298637055, 8221820.283040727488697 ], [ 603712.242421298637055, 8221820.283040727488697 ], [ 603712.242421298637055, 8221790.283040727488697 ], [ 603652.242421298637055, 8221790.283040727488697 ], [ 603652.242421298637055, 8221760.283040727488697 ], [ 603592.242421298637055, 8221760.283040727488697 ], [ 603592.242421298637055, 8221730.283040727488697 ], [ 603532.242421298637055, 8221730.283040727488697 ], [ 603532.242421298637055, 8221670.283040727488697 ], [ 603442.242421298637055, 8221670.283040727488697 ], [ 603442.242421298637055, 8221640.283040727488697 ], [ 603412.242421298637055, 8221640.283040727488697 ], [ 603412.242421298637055, 8221610.283040727488697 ], [ 603382.242421298637055, 8221610.283040727488697 ], [ 603382.242421298637055, 8221580.283040727488697 ], [ 603352.242421298637055, 8221580.283040727488697 ], [ 603352.242421298637055, 8221550.283040727488697 ], [ 603322.242421298637055, 8221550.283040727488697 ], [ 603322.242421298637055, 8221520.283040727488697 ], [ 603292.242421298637055, 8221520.283040727488697 ], [ 603292.242421298637055, 8221460.283040727488697 ], [ 603262.242421298637055, 8221460.283040727488697 ], [ 603262.242421298637055, 8221430.283040727488697 ], [ 603232.242421298637055, 8221430.283040727488697 ], [ 603232.242421298637055, 8221370.283040727488697 ], [ 603202.242421298637055, 8221370.283040727488697 ], [ 603202.242421298637055, 8221340.283040727488697 ], [ 603292.242421298637055, 8221340.283040727488697 ], [ 603292.242421298637055, 8221310.283040727488697 ], [ 603322.242421298637055, 8221310.283040727488697 ], [ 603322.242421298637055, 8221250.283040727488697 ], [ 603352.242421298637055, 8221250.283040727488697 ], [ 603352.242421298637055, 8221220.283040727488697 ], [ 603382.242421298637055, 8221220.283040727488697 ], [ 603382.242421298637055, 8221100.283040727488697 ], [ 603352.242421298637055, 8221100.283040727488697 ], [ 603352.242421298637055, 8221070.283040727488697 ], [ 603322.242421298637055, 8221070.283040727488697 ], [ 603322.242421298637055, 8221040.283040727488697 ], [ 603232.242421298637055, 8221040.283040727488697 ], [ 603232.242421298637055, 8221010.283040727488697 ], [ 603202.242421298637055, 8221010.283040727488697 ], [ 603202.242421298637055, 8220980.283040727488697 ], [ 603112.242421298637055, 8220980.283040727488697 ], [ 603112.242421298637055, 8220950.283040727488697 ], [ 603082.242421298637055, 8220950.283040727488697 ], [ 603082.242421298637055, 8220800.283040727488697 ], [ 603112.242421298637055, 8220800.283040727488697 ], [ 603112.242421298637055, 8220830.283040727488697 ], [ 603142.242421298637055, 8220830.283040727488697 ], [ 603142.242421298637055, 8220860.283040727488697 ], [ 603172.242421298637055, 8220860.283040727488697 ], [ 603172.242421298637055, 8220890.283040727488697 ], [ 603202.242421298637055, 8220890.283040727488697 ], [ 603202.242421298637055, 8220920.283040727488697 ], [ 603292.242421298637055, 8220920.283040727488697 ], [ 603292.242421298637055, 8220950.283040727488697 ], [ 603352.242421298637055, 8220950.283040727488697 ], [ 603352.242421298637055, 8221010.283040727488697 ], [ 603472.242421298637055, 8221010.283040727488697 ], [ 603472.242421298637055, 8220980.283040727488697 ], [ 603502.242421298637055, 8220980.283040727488697 ], [ 603502.242421298637055, 8220920.283040727488697 ], [ 603532.242421298637055, 8220920.283040727488697 ], [ 603532.242421298637055, 8220860.283040727488697 ], [ 603562.242421298637055, 8220860.283040727488697 ], [ 603562.242421298637055, 8220770.283040727488697 ], [ 603532.242421298637055, 8220770.283040727488697 ], [ 603532.242421298637055, 8220740.283040727488697 ], [ 603472.242421298637055, 8220740.283040727488697 ], [ 603472.242421298637055, 8220710.283040727488697 ], [ 603412.242421298637055, 8220710.283040727488697 ], [ 603412.242421298637055, 8220680.283040727488697 ], [ 603352.242421298637055, 8220680.283040727488697 ], [ 603352.242421298637055, 8220650.283040727488697 ], [ 603262.242421298637055, 8220650.283040727488697 ], [ 603262.242421298637055, 8220620.283040727488697 ], [ 603232.242421298637055, 8220620.283040727488697 ], [ 603232.242421298637055, 8220590.283040727488697 ], [ 603172.242421298637055, 8220590.283040727488697 ], [ 603172.242421298637055, 8220560.283040727488697 ], [ 603142.242421298637055, 8220560.283040727488697 ], [ 603142.242421298637055, 8220470.283040727488697 ], [ 603172.242421298637055, 8220470.283040727488697 ], [ 603172.242421298637055, 8220440.283040727488697 ], [ 603202.242421298637055, 8220440.283040727488697 ], [ 603202.242421298637055, 8220470.283040727488697 ], [ 603262.242421298637055, 8220470.283040727488697 ], [ 603262.242421298637055, 8220500.283040727488697 ], [ 603322.242421298637055, 8220500.283040727488697 ], [ 603322.242421298637055, 8220530.283040727488697 ], [ 603352.242421298637055, 8220530.283040727488697 ], [ 603352.242421298637055, 8220560.283040727488697 ], [ 603412.242421298637055, 8220560.283040727488697 ], [ 603412.242421298637055, 8220590.283040727488697 ], [ 603472.242421298637055, 8220590.283040727488697 ], [ 603472.242421298637055, 8220620.283040727488697 ], [ 603652.242421298637055, 8220620.283040727488697 ], [ 603652.242421298637055, 8220560.283040727488697 ], [ 603682.242421298637055, 8220560.283040727488697 ], [ 603682.242421298637055, 8220440.283040727488697 ], [ 603622.242421298637055, 8220440.283040727488697 ], [ 603622.242421298637055, 8220410.283040727488697 ], [ 603562.242421298637055, 8220410.283040727488697 ], [ 603562.242421298637055, 8220380.283040727488697 ], [ 603502.242421298637055, 8220380.283040727488697 ], [ 603502.242421298637055, 8220350.283040727488697 ], [ 603472.242421298637055, 8220350.283040727488697 ], [ 603472.242421298637055, 8220290.283040727488697 ], [ 603412.242421298637055, 8220290.283040727488697 ], [ 603412.242421298637055, 8220260.283040727488697 ], [ 603352.242421298637055, 8220260.283040727488697 ], [ 603352.242421298637055, 8220230.283040727488697 ], [ 603322.242421298637055, 8220230.283040727488697 ], [ 603322.242421298637055, 8220200.283040727488697 ], [ 603352.242421298637055, 8220200.283040727488697 ], [ 603352.242421298637055, 8220170.283040727488697 ], [ 603382.242421298637055, 8220170.283040727488697 ], [ 603382.242421298637055, 8220140.283040727488697 ], [ 603412.242421298637055, 8220140.283040727488697 ], [ 603412.242421298637055, 8220170.283040727488697 ], [ 603472.242421298637055, 8220170.283040727488697 ], [ 603472.242421298637055, 8220200.283040727488697 ], [ 603502.242421298637055, 8220200.283040727488697 ], [ 603502.242421298637055, 8220230.283040727488697 ], [ 603562.242421298637055, 8220230.283040727488697 ], [ 603562.242421298637055, 8220260.283040727488697 ], [ 603652.242421298637055, 8220260.283040727488697 ], [ 603652.242421298637055, 8220290.283040727488697 ], [ 603712.242421298637055, 8220290.283040727488697 ], [ 603712.242421298637055, 8220320.283040727488697 ], [ 603832.242421298637055, 8220320.283040727488697 ], [ 603832.242421298637055, 8220290.283040727488697 ], [ 603862.242421298637055, 8220290.283040727488697 ], [ 603862.242421298637055, 8220230.283040727488697 ], [ 603892.242421298637055, 8220230.283040727488697 ], [ 603892.242421298637055, 8220200.283040727488697 ], [ 603922.242421298637055, 8220200.283040727488697 ], [ 603922.242421298637055, 8220110.283040727488697 ], [ 603862.242421298637055, 8220110.283040727488697 ], [ 603862.242421298637055, 8220080.283040727488697 ], [ 603802.242421298637055, 8220080.283040727488697 ], [ 603802.242421298637055, 8220050.283040727488697 ], [ 603742.242421298637055, 8220050.283040727488697 ], [ 603742.242421298637055, 8220020.283040727488697 ], [ 603682.242421298637055, 8220020.283040727488697 ], [ 603682.242421298637055, 8219990.283040727488697 ], [ 603652.242421298637055, 8219990.283040727488697 ], [ 603652.242421298637055, 8219960.283040727488697 ], [ 603712.242421298637055, 8219960.283040727488697 ], [ 603712.242421298637055, 8219930.283040727488697 ], [ 603802.242421298637055, 8219930.283040727488697 ], [ 603802.242421298637055, 8219960.283040727488697 ], [ 603952.242421298637055, 8219960.283040727488697 ], [ 603952.242421298637055, 8219900.283040727488697 ], [ 603982.242421298637055, 8219900.283040727488697 ], [ 603982.242421298637055, 8219870.283040727488697 ], [ 604102.242421298637055, 8219870.283040727488697 ], [ 604102.242421298637055, 8219930.283040727488697 ], [ 604072.242421298637055, 8219930.283040727488697 ], [ 604072.242421298637055, 8220110.283040727488697 ], [ 604132.242421298637055, 8220110.283040727488697 ], [ 604132.242421298637055, 8220140.283040727488697 ], [ 604192.242421298637055, 8220140.283040727488697 ], [ 604192.242421298637055, 8220170.283040727488697 ], [ 604342.242421298637055, 8220170.283040727488697 ], [ 604342.242421298637055, 8220080.283040727488697 ], [ 604372.242421298637055, 8220080.283040727488697 ], [ 604372.242421298637055, 8219930.283040727488697 ], [ 604462.242421298637055, 8219930.283040727488697 ], [ 604462.242421298637055, 8219960.283040727488697 ], [ 604522.242421298637055, 8219960.283040727488697 ], [ 604522.242421298637055, 8219990.283040727488697 ], [ 604492.242421298637055, 8219990.283040727488697 ], [ 604492.242421298637055, 8220050.283040727488697 ], [ 604462.242421298637055, 8220050.283040727488697 ], [ 604462.242421298637055, 8220080.283040727488697 ], [ 604432.242421298637055, 8220080.283040727488697 ], [ 604432.242421298637055, 8220140.283040727488697 ], [ 604402.242421298637055, 8220140.283040727488697 ], [ 604402.242421298637055, 8220200.283040727488697 ], [ 604372.242421298637055, 8220200.283040727488697 ], [ 604372.242421298637055, 8220320.283040727488697 ], [ 604462.242421298637055, 8220320.283040727488697 ], [ 604462.242421298637055, 8220350.283040727488697 ], [ 604612.242421298637055, 8220350.283040727488697 ], [ 604612.242421298637055, 8220320.283040727488697 ], [ 604642.242421298637055, 8220320.283040727488697 ], [ 604642.242421298637055, 8220290.283040727488697 ], [ 604672.242421298637055, 8220290.283040727488697 ], [ 604672.242421298637055, 8220230.283040727488697 ], [ 604702.242421298637055, 8220230.283040727488697 ], [ 604702.242421298637055, 8220170.283040727488697 ], [ 604732.242421298637055, 8220170.283040727488697 ], [ 604732.242421298637055, 8220140.283040727488697 ], [ 604762.242421298637055, 8220140.283040727488697 ], [ 604762.242421298637055, 8220170.283040727488697 ], [ 604792.242421298637055, 8220170.283040727488697 ], [ 604792.242421298637055, 8220200.283040727488697 ], [ 604762.242421298637055, 8220200.283040727488697 ], [ 604762.242421298637055, 8220230.283040727488697 ], [ 604732.242421298637055, 8220230.283040727488697 ], [ 604732.242421298637055, 8220260.283040727488697 ], [ 604702.242421298637055, 8220260.283040727488697 ], [ 604702.242421298637055, 8220320.283040727488697 ], [ 604672.242421298637055, 8220320.283040727488697 ], [ 604672.242421298637055, 8220410.283040727488697 ], [ 604702.242421298637055, 8220410.283040727488697 ], [ 604702.242421298637055, 8220440.283040727488697 ], [ 604762.242421298637055, 8220440.283040727488697 ], [ 604762.242421298637055, 8220470.283040727488697 ], [ 604852.242421298637055, 8220470.283040727488697 ], [ 604852.242421298637055, 8220500.283040727488697 ], [ 604912.242421298637055, 8220500.283040727488697 ], [ 604912.242421298637055, 8220530.283040727488697 ], [ 604942.242421298637055, 8220530.283040727488697 ], [ 604942.242421298637055, 8220560.283040727488697 ], [ 604972.242421298637055, 8220560.283040727488697 ], [ 604972.242421298637055, 8220590.283040727488697 ], [ 605032.242421298637055, 8220590.283040727488697 ], [ 605032.242421298637055, 8220650.283040727488697 ], [ 605062.242421298637055, 8220650.283040727488697 ], [ 605062.242421298637055, 8220740.283040727488697 ], [ 605032.242421298637055, 8220740.283040727488697 ], [ 605032.242421298637055, 8220710.283040727488697 ], [ 605002.242421298637055, 8220710.283040727488697 ], [ 605002.242421298637055, 8220680.283040727488697 ], [ 604942.242421298637055, 8220680.283040727488697 ], [ 604942.242421298637055, 8220650.283040727488697 ], [ 604852.242421298637055, 8220650.283040727488697 ], [ 604852.242421298637055, 8220620.283040727488697 ], [ 604792.242421298637055, 8220620.283040727488697 ], [ 604792.242421298637055, 8220590.283040727488697 ], [ 604762.242421298637055, 8220590.283040727488697 ], [ 604762.242421298637055, 8220560.283040727488697 ], [ 604702.242421298637055, 8220560.283040727488697 ], [ 604702.242421298637055, 8220530.283040727488697 ], [ 604552.242421298637055, 8220530.283040727488697 ], [ 604552.242421298637055, 8220590.283040727488697 ], [ 604522.242421298637055, 8220590.283040727488697 ], [ 604522.242421298637055, 8220650.283040727488697 ], [ 604492.242421298637055, 8220650.283040727488697 ], [ 604492.242421298637055, 8220740.283040727488697 ], [ 604552.242421298637055, 8220740.283040727488697 ], [ 604552.242421298637055, 8220770.283040727488697 ], [ 604612.242421298637055, 8220770.283040727488697 ], [ 604612.242421298637055, 8220800.283040727488697 ], [ 604642.242421298637055, 8220800.283040727488697 ], [ 604642.242421298637055, 8220830.283040727488697 ], [ 604702.242421298637055, 8220830.283040727488697 ], [ 604702.242421298637055, 8220860.283040727488697 ], [ 604762.242421298637055, 8220860.283040727488697 ], [ 604762.242421298637055, 8220890.283040727488697 ], [ 604852.242421298637055, 8220890.283040727488697 ], [ 604852.242421298637055, 8220920.283040727488697 ], [ 604882.242421298637055, 8220920.283040727488697 ], [ 604882.242421298637055, 8220950.283040727488697 ], [ 604942.242421298637055, 8220950.283040727488697 ], [ 604942.242421298637055, 8220980.283040727488697 ], [ 605002.242421298637055, 8220980.283040727488697 ], [ 605002.242421298637055, 8221010.283040727488697 ], [ 605032.242421298637055, 8221010.283040727488697 ], [ 605032.242421298637055, 8221040.283040727488697 ], [ 605062.242421298637055, 8221040.283040727488697 ], [ 605062.242421298637055, 8221100.283040727488697 ], [ 605032.242421298637055, 8221100.283040727488697 ], [ 605032.242421298637055, 8221130.283040727488697 ], [ 604972.242421298637055, 8221130.283040727488697 ], [ 604972.242421298637055, 8221100.283040727488697 ], [ 604912.242421298637055, 8221100.283040727488697 ], [ 604912.242421298637055, 8221070.283040727488697 ], [ 604882.242421298637055, 8221070.283040727488697 ], [ 604882.242421298637055, 8221040.283040727488697 ], [ 604822.242421298637055, 8221040.283040727488697 ], [ 604822.242421298637055, 8221010.283040727488697 ], [ 604762.242421298637055, 8221010.283040727488697 ], [ 604762.242421298637055, 8220980.283040727488697 ], [ 604702.242421298637055, 8220980.283040727488697 ], [ 604702.242421298637055, 8220950.283040727488697 ], [ 604642.242421298637055, 8220950.283040727488697 ], [ 604642.242421298637055, 8220920.283040727488697 ], [ 604582.242421298637055, 8220920.283040727488697 ], [ 604582.242421298637055, 8220890.283040727488697 ], [ 604552.242421298637055, 8220890.283040727488697 ], [ 604552.242421298637055, 8220860.283040727488697 ], [ 604402.242421298637055, 8220860.283040727488697 ], [ 604402.242421298637055, 8220980.283040727488697 ], [ 604432.242421298637055, 8220980.283040727488697 ], [ 604432.242421298637055, 8221040.283040727488697 ], [ 604402.242421298637055, 8221040.283040727488697 ], [ 604402.242421298637055, 8221130.283040727488697 ], [ 604462.242421298637055, 8221130.283040727488697 ], [ 604462.242421298637055, 8221160.283040727488697 ], [ 604522.242421298637055, 8221160.283040727488697 ], [ 604522.242421298637055, 8221190.283040727488697 ], [ 604612.242421298637055, 8221190.283040727488697 ], [ 604612.242421298637055, 8221220.283040727488697 ], [ 604672.242421298637055, 8221220.283040727488697 ], [ 604672.242421298637055, 8221250.283040727488697 ], [ 604732.242421298637055, 8221250.283040727488697 ], [ 604732.242421298637055, 8221280.283040727488697 ], [ 604822.242421298637055, 8221280.283040727488697 ], [ 604822.242421298637055, 8221250.283040727488697 ], [ 604852.242421298637055, 8221250.283040727488697 ], [ 604852.242421298637055, 8221190.283040727488697 ], [ 604882.242421298637055, 8221190.283040727488697 ], [ 604882.242421298637055, 8221340.283040727488697 ], [ 604912.242421298637055, 8221340.283040727488697 ], [ 604912.242421298637055, 8221370.283040727488697 ], [ 604942.242421298637055, 8221370.283040727488697 ], [ 604942.242421298637055, 8221400.283040727488697 ], [ 604912.242421298637055, 8221400.283040727488697 ], [ 604912.242421298637055, 8221430.283040727488697 ], [ 604882.242421298637055, 8221430.283040727488697 ], [ 604882.242421298637055, 8221460.283040727488697 ], [ 604792.242421298637055, 8221460.283040727488697 ], [ 604792.242421298637055, 8221430.283040727488697 ], [ 604702.242421298637055, 8221430.283040727488697 ], [ 604702.242421298637055, 8221400.283040727488697 ], [ 604672.242421298637055, 8221400.283040727488697 ], [ 604672.242421298637055, 8221340.283040727488697 ], [ 604612.242421298637055, 8221340.283040727488697 ], [ 604612.242421298637055, 8221310.283040727488697 ], [ 604522.242421298637055, 8221310.283040727488697 ], [ 604522.242421298637055, 8221280.283040727488697 ], [ 604492.242421298637055, 8221280.283040727488697 ], [ 604492.242421298637055, 8221250.283040727488697 ], [ 604432.242421298637055, 8221250.283040727488697 ], [ 604432.242421298637055, 8221220.283040727488697 ], [ 604372.242421298637055, 8221220.283040727488697 ], [ 604372.242421298637055, 8221190.283040727488697 ], [ 604222.242421298637055, 8221190.283040727488697 ], [ 604222.242421298637055, 8221250.283040727488697 ], [ 604192.242421298637055, 8221250.283040727488697 ], [ 604192.242421298637055, 8221400.283040727488697 ], [ 604222.242421298637055, 8221400.283040727488697 ], [ 604222.242421298637055, 8221430.283040727488697 ], [ 604282.242421298637055, 8221430.283040727488697 ], [ 604282.242421298637055, 8221460.283040727488697 ], [ 604342.242421298637055, 8221460.283040727488697 ], [ 604342.242421298637055, 8221490.283040727488697 ], [ 604372.242421298637055, 8221490.283040727488697 ], [ 604372.242421298637055, 8221520.283040727488697 ], [ 604432.242421298637055, 8221520.283040727488697 ], [ 604432.242421298637055, 8221550.283040727488697 ], [ 604492.242421298637055, 8221550.283040727488697 ], [ 604492.242421298637055, 8221580.283040727488697 ], [ 604552.242421298637055, 8221580.283040727488697 ], [ 604552.242421298637055, 8221610.283040727488697 ], [ 604612.242421298637055, 8221610.283040727488697 ], [ 604612.242421298637055, 8221670.283040727488697 ], [ 604582.242421298637055, 8221670.283040727488697 ], [ 604582.242421298637055, 8221730.283040727488697 ], [ 604552.242421298637055, 8221730.283040727488697 ], [ 604552.242421298637055, 8221700.283040727488697 ], [ 604522.242421298637055, 8221700.283040727488697 ], [ 604522.242421298637055, 8221670.283040727488697 ], [ 604462.242421298637055, 8221670.283040727488697 ], [ 604462.242421298637055, 8221640.283040727488697 ], [ 604432.242421298637055, 8221640.283040727488697 ], [ 604432.242421298637055, 8221610.283040727488697 ], [ 604402.242421298637055, 8221610.283040727488697 ], [ 604402.242421298637055, 8221580.283040727488697 ], [ 604312.242421298637055, 8221580.283040727488697 ], [ 604312.242421298637055, 8221550.283040727488697 ], [ 604222.242421298637055, 8221550.283040727488697 ], [ 604222.242421298637055, 8221520.283040727488697 ], [ 604162.242421298637055, 8221520.283040727488697 ], [ 604162.242421298637055, 8221490.283040727488697 ], [ 604072.242421298637055, 8221490.283040727488697 ], [ 604072.242421298637055, 8221520.283040727488697 ], [ 604042.242421298637055, 8221520.283040727488697 ], [ 604042.242421298637055, 8221640.283040727488697 ], [ 604012.242421298637055, 8221640.283040727488697 ], [ 604012.242421298637055, 8221760.283040727488697 ], [ 604102.242421298637055, 8221760.283040727488697 ], [ 604102.242421298637055, 8221790.283040727488697 ], [ 604162.242421298637055, 8221790.283040727488697 ], [ 604162.242421298637055, 8221820.283040727488697 ], [ 604192.242421298637055, 8221820.283040727488697 ], [ 604192.242421298637055, 8221880.283040727488697 ], [ 604012.242421298637055, 8221880.283040727488697 ] ], [ [ 603802.242421298637055, 8221670.283040727488697 ], [ 603892.242421298637055, 8221670.283040727488697 ], [ 603892.242421298637055, 8221640.283040727488697 ], [ 603922.242421298637055, 8221640.283040727488697 ], [ 603922.242421298637055, 8221610.283040727488697 ], [ 603952.242421298637055, 8221610.283040727488697 ], [ 603952.242421298637055, 8221580.283040727488697 ], [ 603982.242421298637055, 8221580.283040727488697 ], [ 603982.242421298637055, 8221490.283040727488697 ], [ 604012.242421298637055, 8221490.283040727488697 ], [ 604012.242421298637055, 8221430.283040727488697 ], [ 604042.242421298637055, 8221430.283040727488697 ], [ 604042.242421298637055, 8221370.283040727488697 ], [ 604072.242421298637055, 8221370.283040727488697 ], [ 604072.242421298637055, 8221340.283040727488697 ], [ 604102.242421298637055, 8221340.283040727488697 ], [ 604102.242421298637055, 8221280.283040727488697 ], [ 604132.242421298637055, 8221280.283040727488697 ], [ 604132.242421298637055, 8221220.283040727488697 ], [ 604162.242421298637055, 8221220.283040727488697 ], [ 604162.242421298637055, 8221160.283040727488697 ], [ 604192.242421298637055, 8221160.283040727488697 ], [ 604192.242421298637055, 8221100.283040727488697 ], [ 604222.242421298637055, 8221100.283040727488697 ], [ 604222.242421298637055, 8221040.283040727488697 ], [ 604252.242421298637055, 8221040.283040727488697 ], [ 604252.242421298637055, 8221010.283040727488697 ], [ 604282.242421298637055, 8221010.283040727488697 ], [ 604282.242421298637055, 8220950.283040727488697 ], [ 604312.242421298637055, 8220950.283040727488697 ], [ 604312.242421298637055, 8220890.283040727488697 ], [ 604342.242421298637055, 8220890.283040727488697 ], [ 604342.242421298637055, 8220800.283040727488697 ], [ 604402.242421298637055, 8220800.283040727488697 ], [ 604402.242421298637055, 8220770.283040727488697 ], [ 604432.242421298637055, 8220770.283040727488697 ], [ 604432.242421298637055, 8220680.283040727488697 ], [ 604462.242421298637055, 8220680.283040727488697 ], [ 604462.242421298637055, 8220620.283040727488697 ], [ 604492.242421298637055, 8220620.283040727488697 ], [ 604492.242421298637055, 8220530.283040727488697 ], [ 604522.242421298637055, 8220530.283040727488697 ], [ 604522.242421298637055, 8220440.283040727488697 ], [ 604462.242421298637055, 8220440.283040727488697 ], [ 604462.242421298637055, 8220380.283040727488697 ], [ 604432.242421298637055, 8220380.283040727488697 ], [ 604432.242421298637055, 8220350.283040727488697 ], [ 604312.242421298637055, 8220350.283040727488697 ], [ 604312.242421298637055, 8220380.283040727488697 ], [ 604282.242421298637055, 8220380.283040727488697 ], [ 604282.242421298637055, 8220440.283040727488697 ], [ 604252.242421298637055, 8220440.283040727488697 ], [ 604252.242421298637055, 8220500.283040727488697 ], [ 604222.242421298637055, 8220500.283040727488697 ], [ 604222.242421298637055, 8220530.283040727488697 ], [ 604192.242421298637055, 8220530.283040727488697 ], [ 604192.242421298637055, 8220560.283040727488697 ], [ 604162.242421298637055, 8220560.283040727488697 ], [ 604162.242421298637055, 8220650.283040727488697 ], [ 604192.242421298637055, 8220650.283040727488697 ], [ 604192.242421298637055, 8220680.283040727488697 ], [ 604222.242421298637055, 8220680.283040727488697 ], [ 604222.242421298637055, 8220710.283040727488697 ], [ 604252.242421298637055, 8220710.283040727488697 ], [ 604252.242421298637055, 8220740.283040727488697 ], [ 604102.242421298637055, 8220740.283040727488697 ], [ 604102.242421298637055, 8220770.283040727488697 ], [ 604072.242421298637055, 8220770.283040727488697 ], [ 604072.242421298637055, 8220860.283040727488697 ], [ 604042.242421298637055, 8220860.283040727488697 ], [ 604042.242421298637055, 8220890.283040727488697 ], [ 604012.242421298637055, 8220890.283040727488697 ], [ 604012.242421298637055, 8220950.283040727488697 ], [ 603982.242421298637055, 8220950.283040727488697 ], [ 603982.242421298637055, 8221010.283040727488697 ], [ 603952.242421298637055, 8221010.283040727488697 ], [ 603952.242421298637055, 8221070.283040727488697 ], [ 603922.242421298637055, 8221070.283040727488697 ], [ 603922.242421298637055, 8221130.283040727488697 ], [ 603892.242421298637055, 8221130.283040727488697 ], [ 603892.242421298637055, 8221220.283040727488697 ], [ 603862.242421298637055, 8221220.283040727488697 ], [ 603862.242421298637055, 8221250.283040727488697 ], [ 603832.242421298637055, 8221250.283040727488697 ], [ 603832.242421298637055, 8221280.283040727488697 ], [ 603802.242421298637055, 8221280.283040727488697 ], [ 603802.242421298637055, 8221340.283040727488697 ], [ 603772.242421298637055, 8221340.283040727488697 ], [ 603772.242421298637055, 8221400.283040727488697 ], [ 603742.242421298637055, 8221400.283040727488697 ], [ 603742.242421298637055, 8221460.283040727488697 ], [ 603712.242421298637055, 8221460.283040727488697 ], [ 603712.242421298637055, 8221580.283040727488697 ], [ 603742.242421298637055, 8221580.283040727488697 ], [ 603742.242421298637055, 8221610.283040727488697 ], [ 603802.242421298637055, 8221610.283040727488697 ], [ 603802.242421298637055, 8221670.283040727488697 ] ], [ [ 603472.242421298637055, 8221460.283040727488697 ], [ 603592.242421298637055, 8221460.283040727488697 ], [ 603592.242421298637055, 8221430.283040727488697 ], [ 603652.242421298637055, 8221430.283040727488697 ], [ 603652.242421298637055, 8221340.283040727488697 ], [ 603682.242421298637055, 8221340.283040727488697 ], [ 603682.242421298637055, 8221310.283040727488697 ], [ 603712.242421298637055, 8221310.283040727488697 ], [ 603712.242421298637055, 8221250.283040727488697 ], [ 603742.242421298637055, 8221250.283040727488697 ], [ 603742.242421298637055, 8221160.283040727488697 ], [ 603682.242421298637055, 8221160.283040727488697 ], [ 603682.242421298637055, 8221130.283040727488697 ], [ 603622.242421298637055, 8221130.283040727488697 ], [ 603622.242421298637055, 8221070.283040727488697 ], [ 603652.242421298637055, 8221070.283040727488697 ], [ 603652.242421298637055, 8221040.283040727488697 ], [ 603682.242421298637055, 8221040.283040727488697 ], [ 603682.242421298637055, 8220980.283040727488697 ], [ 603712.242421298637055, 8220980.283040727488697 ], [ 603712.242421298637055, 8221010.283040727488697 ], [ 603862.242421298637055, 8221010.283040727488697 ], [ 603862.242421298637055, 8220950.283040727488697 ], [ 603892.242421298637055, 8220950.283040727488697 ], [ 603892.242421298637055, 8220860.283040727488697 ], [ 603922.242421298637055, 8220860.283040727488697 ], [ 603922.242421298637055, 8220830.283040727488697 ], [ 603952.242421298637055, 8220830.283040727488697 ], [ 603952.242421298637055, 8220740.283040727488697 ], [ 603982.242421298637055, 8220740.283040727488697 ], [ 603982.242421298637055, 8220620.283040727488697 ], [ 603892.242421298637055, 8220620.283040727488697 ], [ 603892.242421298637055, 8220650.283040727488697 ], [ 603862.242421298637055, 8220650.283040727488697 ], [ 603862.242421298637055, 8220680.283040727488697 ], [ 603832.242421298637055, 8220680.283040727488697 ], [ 603832.242421298637055, 8220770.283040727488697 ], [ 603802.242421298637055, 8220770.283040727488697 ], [ 603802.242421298637055, 8220800.283040727488697 ], [ 603652.242421298637055, 8220800.283040727488697 ], [ 603652.242421298637055, 8220830.283040727488697 ], [ 603622.242421298637055, 8220830.283040727488697 ], [ 603622.242421298637055, 8220860.283040727488697 ], [ 603592.242421298637055, 8220860.283040727488697 ], [ 603592.242421298637055, 8220950.283040727488697 ], [ 603562.242421298637055, 8220950.283040727488697 ], [ 603562.242421298637055, 8221010.283040727488697 ], [ 603532.242421298637055, 8221010.283040727488697 ], [ 603532.242421298637055, 8221070.283040727488697 ], [ 603502.242421298637055, 8221070.283040727488697 ], [ 603502.242421298637055, 8221100.283040727488697 ], [ 603472.242421298637055, 8221100.283040727488697 ], [ 603472.242421298637055, 8221190.283040727488697 ], [ 603442.242421298637055, 8221190.283040727488697 ], [ 603442.242421298637055, 8221250.283040727488697 ], [ 603412.242421298637055, 8221250.283040727488697 ], [ 603412.242421298637055, 8221280.283040727488697 ], [ 603382.242421298637055, 8221280.283040727488697 ], [ 603382.242421298637055, 8221430.283040727488697 ], [ 603472.242421298637055, 8221430.283040727488697 ], [ 603472.242421298637055, 8221460.283040727488697 ] ], [ [ 603982.242421298637055, 8220590.283040727488697 ], [ 604072.242421298637055, 8220590.283040727488697 ], [ 604072.242421298637055, 8220560.283040727488697 ], [ 604102.242421298637055, 8220560.283040727488697 ], [ 604102.242421298637055, 8220530.283040727488697 ], [ 604132.242421298637055, 8220530.283040727488697 ], [ 604132.242421298637055, 8220440.283040727488697 ], [ 604162.242421298637055, 8220440.283040727488697 ], [ 604162.242421298637055, 8220380.283040727488697 ], [ 604192.242421298637055, 8220380.283040727488697 ], [ 604192.242421298637055, 8220320.283040727488697 ], [ 604222.242421298637055, 8220320.283040727488697 ], [ 604222.242421298637055, 8220230.283040727488697 ], [ 604192.242421298637055, 8220230.283040727488697 ], [ 604192.242421298637055, 8220200.283040727488697 ], [ 604132.242421298637055, 8220200.283040727488697 ], [ 604132.242421298637055, 8220170.283040727488697 ], [ 604012.242421298637055, 8220170.283040727488697 ], [ 604012.242421298637055, 8220200.283040727488697 ], [ 603952.242421298637055, 8220200.283040727488697 ], [ 603952.242421298637055, 8220260.283040727488697 ], [ 603922.242421298637055, 8220260.283040727488697 ], [ 603922.242421298637055, 8220320.283040727488697 ], [ 603892.242421298637055, 8220320.283040727488697 ], [ 603892.242421298637055, 8220350.283040727488697 ], [ 603862.242421298637055, 8220350.283040727488697 ], [ 603862.242421298637055, 8220440.283040727488697 ], [ 603832.242421298637055, 8220440.283040727488697 ], [ 603832.242421298637055, 8220560.283040727488697 ], [ 603982.242421298637055, 8220560.283040727488697 ], [ 603982.242421298637055, 8220590.283040727488697 ] ] ] } }
]
}
