{"type":"FeatureCollection","features":[{"type":"Feature","properties":{"aeroway":"runway","length":"2500","ref":"01/19","surface":"asphalt","width":"30","osm_id":44077639,"osm_type":"way"},"geometry":{"type":"LineString","coordinates":[[33.640034,-16.11599],[33.640221,-16.10851],[33.640231,-16.10811],[33.64024,-16.107762],[33.640349,-16.103404],[33.640597,-16.093512]]}},{"type":"Feature","properties":{"aeroway":"aerodrome","ele":"160","iata":"TET","icao":"FQTT","name":"Tete","name:en":"Chingodzi Airport","wikidata":"Q3275527","osm_id":324845413,"osm_type":"way"},"geometry":{"type":"Polygon","coordinates":[[[33.637021,-16.121813],[33.637335,-16.121526],[33.637971,-16.120994],[33.638668,-16.120364],[33.639631,-16.119501],[33.64039,-16.118834],[33.640607,-16.118636],[33.641419,-16.117815],[33.641939,-16.117282],[33.642624,-16.11659],[33.642909,-16.116287],[33.643158,-16.11605],[33.643735,-16.115474],[33.644246,-16.114959],[33.644676,-16.114513],[33.644899,-16.114288],[33.644927,-16.113786],[33.64493,-16.113182],[33.644933,-16.112789],[33.644934,-16.111958],[33.644963,-16.111034],[33.644975,-16.110603],[33.644678,-16.110596],[33.64469,-16.110137],[33.644359,-16.110127],[33.644374,-16.109458],[33.644698,-16.109462],[33.6447,-16.109331],[33.644744,-16.109331],[33.644747,-16.109105],[33.644748,-16.109039],[33.64475,-16.10893],[33.644471,-16.108926],[33.644474,-16.108731],[33.644478,-16.108385],[33.644505,-16.108384],[33.644732,-16.10839],[33.64474,-16.10814],[33.644748,-16.10798],[33.644754,-16.107701],[33.645018,-16.107718],[33.64504,-16.106091],[33.645044,-16.104419],[33.645036,-16.104367],[33.644804,-16.103881],[33.644742,-16.103713],[33.644328,-16.101938],[33.644117,-16.101451],[33.644091,-16.101401],[33.644058,-16.101357],[33.643985,-16.101275],[33.64392,-16.101201],[33.643942,-16.101129],[33.64407,-16.10083],[33.644335,-16.10024],[33.644442,-16.100015],[33.644449,-16.099975],[33.644446,-16.099932],[33.64443,-16.09985],[33.644156,-16.098429],[33.644018,-16.097775],[33.643979,-16.097481],[33.643618,-16.095708],[33.642761,-16.09136],[33.642563,-16.090269],[33.642557,-16.090185],[33.642575,-16.090107],[33.642936,-16.089025],[33.643201,-16.08819],[33.643227,-16.088096],[33.643223,-16.088029],[33.643205,-16.087968],[33.642811,-16.086728],[33.642885,-16.08621],[33.642948,-16.085749],[33.642399,-16.085283],[33.640898,-16.084009],[33.640849,-16.083978],[33.640791,-16.083961],[33.640681,-16.08396],[33.639504,-16.083936],[33.637206,-16.083889],[33.637154,-16.085215],[33.637101,-16.08672],[33.637023,-16.088467],[33.636993,-16.092024],[33.636859,-16.101196],[33.63684,-16.102984],[33.636831,-16.103511],[33.635512,-16.103437],[33.632959,-16.103275],[33.631961,-16.10569],[33.632994,-16.108656],[33.636718,-16.108731],[33.636779,-16.109511],[33.636891,-16.111362],[33.636995,-16.112842],[33.637011,-16.113524],[33.636949,-16.114675],[33.636842,-16.116466],[33.636769,-16.117587],[33.636702,-16.118596],[33.636669,-16.119118],[33.636824,-16.120272],[33.636911,-16.120877],[33.637021,-16.121813]]]}}]}