{"type":"FeatureCollection","features":[{"type":"Feature","properties":{"osm_type":"node","osm_id":560241406,"name":"Tete","place":"city"},"geometry":{"type":"Point","coordinates":[33.587147,-16.160399]}},{"type":"Feature","properties":{"osm_type":"node","osm_id":561173471,"name":"Moatize","place":"town"},"geometry":{"type":"Point","coordinates":[33.728844,-16.117752]}},{"type":"Feature","properties":{"osm_type":"node","osm_id":3184395971,"name":"Benga","place":"village"},"geometry":{"type":"Point","coordinates":[33.632377,-16.190096]}},{"type":"Feature","properties":{"osm_type":"node","osm_id":3808164533,"name":"Cravina","place":"village"},"geometry":{"type":"Point","coordinates":[33.521751,-16.305228]}},{"type":"Feature","properties":{"osm_type":"node","osm_id":3899065178,"name":"Cateme","place":"town"},"geometry":{"type":"Point","coordinates":[33.973133,-16.089931]}},{"type":"Feature","properties":{"osm_type":"node","osm_id":3899065179,"name":"Mwaladzi","place":"village"},"geometry":{"type":"Point","coordinates":[34.032618,-16.105713]}},{"type":"Feature","properties":{"osm_type":"node","osm_id":4426246942,"name":null,"place":"hamlet"},"geometry":{"type":"Point","coordinates":[33.887844,-16.214293]}},{"type":"Feature","properties":{"osm_type":"node","osm_id":4426247362,"name":null,"place":"hamlet"},"geometry":{"type":"Point","coordinates":[33.938745,-16.228346]}},{"type":"Feature","properties":{"osm_type":"node","osm_id":4426248160,"name":null,"place":"hamlet"},"geometry":{"type":"Point","coordinates":[33.902991,-16.228634]}},{"type":"Feature","properties":{"osm_type":"node","osm_id":4426248169,"name":null,"place":"hamlet"},"geometry":{"type":"Point","coordinates":[33.92321,-16.228583]}},{"type":"Feature","properties":{"osm_type":"node","osm_id":4426269591,"name":null,"place":"hamlet"},"geometry":{"type":"Point","coordinates":[33.842816,-16.248993]}},{"type":"Feature","properties":{"osm_type":"node","osm_id":4426269616,"name":null,"place":"hamlet"},"geometry":{"type":"Point","coordinates":[33.880232,-16.241752]}},{"type":"Feature","properties":{"osm_type":"node","osm_id":4426323684,"name":null,"place":"hamlet"},"geometry":{"type":"Point","coordinates":[33.88786,-16.220053]}},{"type":"Feature","properties":{"osm_type":"node","osm_id":4426324658,"name":null,"place":"hamlet"},"geometry":{"type":"Point","coordinates":[33.892178,-16.235772]}},{"type":"Feature","properties":{"osm_type":"node","osm_id":4426324882,"name":null,"place":"hamlet"},"geometry":{"type":"Point","coordinates":[33.895794,-16.219259]}},{"type":"Feature","properties":{"osm_type":"node","osm_id":4780761707,"name":null,"place":"village"},"geometry":{"type":"Point","coordinates":[33.480035,-16.114375]}},{"type":"Feature","properties":{"osm_type":"node","osm_id":4780920086,"name":null,"place":"village"},"geometry":{"type":"Point","coordinates":[33.470804,-16.10578]}},{"type":"Feature","properties":{"osm_type":"node","osm_id":4782624826,"name":null,"place":"village"},"geometry":{"type":"Point","coordinates":[33.462001,-16.09394]}},{"type":"Feature","properties":{"osm_type":"node","osm_id":4782692553,"name":null,"place":"village"},"geometry":{"type":"Point","coordinates":[33.630678,-16.261282]}},{"type":"Feature","properties":{"osm_type":"node","osm_id":4784156389,"name":null,"place":"village"},"geometry":{"type":"Point","coordinates":[33.527429,-16.122166]}},{"type":"Feature","properties":{"osm_type":"way","osm_id":486293301,"name":"Deghe","place":"village"},"geometry":{"type":"Point","coordinates":[33.494841,-16.131019]}},{"type":"Feature","properties":{"osm_type":"way","osm_id":1342107017,"name":"Chimbonde 2022","place":"neighbourhood"},"geometry":{"type":"Point","coordinates":[33.562685,-16.111265]}},{"type":"Feature","properties":{"osm_type":"way","osm_id":1342109173,"name":"Chimbonde 2019","place":"neighbourhood"},"geometry":{"type":"Point","coordinates":[33.572003,-16.11551]}}]}