{"type":"FeatureCollection","features":[{"type":"Feature","properties":{"ano":2020,"camada":"reassentamento","area_km2":0.0009},"geometry":{"type":"Polygon","coordinates":[[[33.971954,-16.08272],[33.971955,-16.082991],[33.972236,-16.08299],[33.972234,-16.082719],[33.971954,-16.08272]]]}},{"type":"Feature","properties":{"ano":2020,"camada":"reassentamento","area_km2":0.0009},"geometry":{"type":"Polygon","coordinates":[[[33.978688,-16.083232],[33.978689,-16.083503],[33.97897,-16.083502],[33.978968,-16.08323],[33.978688,-16.083232]]]}},{"type":"Feature","properties":{"ano":2020,"camada":"reassentamento","area_km2":0.0189},"geometry":{"type":"Polygon","coordinates":[[[33.977561,-16.082152],[33.977563,-16.082695],[33.976722,-16.082698],[33.976444,-16.083242],[33.975883,-16.083245],[33.975885,-16.083516],[33.975324,-16.083518],[33.975325,-16.083789],[33.976727,-16.083783],[33.976725,-16.083241],[33.977005,-16.083239],[33.977004,-16.082968],[33.978406,-16.082962],[33.978403,-16.082419],[33.978123,-16.082421],[33.978122,-16.08215],[33.977561,-16.082152]]]}},{"type":"Feature","properties":{"ano":2020,"camada":"reassentamento","area_km2":0.0009},"geometry":{"type":"Polygon","coordinates":[[[33.978415,-16.08486],[33.978417,-16.085131],[33.978697,-16.08513],[33.978696,-16.084859],[33.978415,-16.08486]]]}},{"type":"Feature","properties":{"ano":2020,"camada":"reassentamento","area_km2":0.0009},"geometry":{"type":"Polygon","coordinates":[[[33.980379,-16.084851],[33.98038,-16.085122],[33.980661,-16.085121],[33.980659,-16.08485],[33.980379,-16.084851]]]}},{"type":"Feature","properties":{"ano":2020,"camada":"reassentamento","area_km2":0.0153},"geometry":{"type":"Polygon","coordinates":[[[33.966073,-16.084645],[33.966075,-16.084916],[33.965514,-16.084919],[33.965518,-16.085732],[33.964676,-16.085736],[33.964677,-16.086007],[33.96608,-16.086001],[33.966081,-16.086272],[33.966362,-16.086271],[33.966354,-16.084644],[33.966073,-16.084645]]]}},{"type":"Feature","properties":{"ano":2020,"camada":"reassentamento","area_km2":0.0135},"geometry":{"type":"Polygon","coordinates":[[[33.9801,-16.085123],[33.980101,-16.085395],[33.97954,-16.085397],[33.979541,-16.085668],[33.979822,-16.085667],[33.980108,-16.086751],[33.980669,-16.086748],[33.980667,-16.086477],[33.980948,-16.086475],[33.980945,-16.085933],[33.980384,-16.085936],[33.98038,-16.085122],[33.9801,-16.085123]]]}},{"type":"Feature","properties":{"ano":2020,"camada":"reassentamento","area_km2":0.0099},"geometry":{"type":"Polygon","coordinates":[[[33.977861,-16.086218],[33.977862,-16.08649],[33.976741,-16.086495],[33.976463,-16.087038],[33.977024,-16.087036],[33.977022,-16.086765],[33.978425,-16.086758],[33.978423,-16.086487],[33.978704,-16.086486],[33.978703,-16.086215],[33.977861,-16.086218]]]}},{"type":"Feature","properties":{"ano":2020,"camada":"reassentamento","area_km2":0.0009},"geometry":{"type":"Polygon","coordinates":[[[33.976182,-16.08704],[33.976184,-16.087311],[33.976464,-16.08731],[33.976463,-16.087038],[33.976182,-16.08704]]]}},{"type":"Feature","properties":{"ano":2020,"camada":"reassentamento","area_km2":0.0063},"geometry":{"type":"Polygon","coordinates":[[[33.981796,-16.087827],[33.981797,-16.088099],[33.981236,-16.088101],[33.981519,-16.088642],[33.9818,-16.088641],[33.981798,-16.08837],[33.982359,-16.088367],[33.982357,-16.087825],[33.981796,-16.087827]]]}},{"type":"Feature","properties":{"ano":2020,"camada":"reassentamento","area_km2":0.0135},"geometry":{"type":"Polygon","coordinates":[[[33.975063,-16.087587],[33.975064,-16.087858],[33.975345,-16.087857],[33.97535,-16.088942],[33.975912,-16.08921],[33.976185,-16.087582],[33.975063,-16.087587]]]}},{"type":"Feature","properties":{"ano":2020,"camada":"reassentamento","area_km2":0.0216},"geometry":{"type":"Polygon","coordinates":[[[33.96693,-16.087895],[33.966933,-16.088438],[33.965251,-16.088716],[33.965253,-16.088987],[33.964692,-16.08899],[33.964694,-16.089532],[33.965536,-16.089529],[33.965814,-16.088985],[33.967216,-16.088979],[33.967217,-16.08925],[33.967778,-16.089247],[33.967776,-16.088705],[33.967215,-16.088707],[33.967211,-16.087894],[33.96693,-16.087895]]]}},{"type":"Feature","properties":{"ano":2020,"camada":"reassentamento","area_km2":0.0117},"geometry":{"type":"Polygon","coordinates":[[[33.978996,-16.088925],[33.978999,-16.089467],[33.978438,-16.08947],[33.978439,-16.089741],[33.978159,-16.089742],[33.978162,-16.090285],[33.978722,-16.090282],[33.97872,-16.08974],[33.979842,-16.089735],[33.979839,-16.089192],[33.979278,-16.089195],[33.979277,-16.088924],[33.978996,-16.088925]]]}},{"type":"Feature","properties":{"ano":2020,"camada":"reassentamento","area_km2":0.0018},"geometry":{"type":"Polygon","coordinates":[[[33.966099,-16.090068],[33.966101,-16.09034],[33.966662,-16.090337],[33.96666,-16.090066],[33.966099,-16.090068]]]}},{"type":"Feature","properties":{"ano":2020,"camada":"reassentamento","area_km2":0.0081},"geometry":{"type":"Polygon","coordinates":[[[33.967778,-16.089247],[33.967782,-16.090061],[33.967502,-16.090062],[33.967503,-16.090333],[33.968345,-16.090329],[33.968339,-16.089245],[33.967778,-16.089247]]]}},{"type":"Feature","properties":{"ano":2020,"camada":"reassentamento","area_km2":0.0009},"geometry":{"type":"Polygon","coordinates":[[[33.975916,-16.090024],[33.975918,-16.090295],[33.976198,-16.090294],[33.976197,-16.090023],[33.975916,-16.090024]]]}},{"type":"Feature","properties":{"ano":2020,"camada":"reassentamento","area_km2":0.0063},"geometry":{"type":"Polygon","coordinates":[[[33.97704,-16.09029],[33.976762,-16.090833],[33.977884,-16.090828],[33.977881,-16.090286],[33.97704,-16.09029]]]}},{"type":"Feature","properties":{"ano":2020,"camada":"reassentamento","area_km2":0.0027},"geometry":{"type":"Polygon","coordinates":[[[33.96386,-16.090892],[33.963863,-16.091706],[33.964144,-16.091704],[33.96414,-16.090891],[33.96386,-16.090892]]]}},{"type":"Feature","properties":{"ano":2020,"camada":"reassentamento","area_km2":0.0009},"geometry":{"type":"Polygon","coordinates":[[[33.965265,-16.091428],[33.965266,-16.091699],[33.965546,-16.091698],[33.965545,-16.091427],[33.965265,-16.091428]]]}},{"type":"Feature","properties":{"ano":2020,"camada":"reassentamento","area_km2":0.0009},"geometry":{"type":"Polygon","coordinates":[[[33.982094,-16.091351],[33.982095,-16.091623],[33.982375,-16.091621],[33.982374,-16.09135],[33.982094,-16.091351]]]}},{"type":"Feature","properties":{"ano":2020,"camada":"reassentamento","area_km2":0.0009},"geometry":{"type":"Polygon","coordinates":[[[33.964144,-16.091704],[33.964145,-16.091975],[33.964426,-16.091974],[33.964424,-16.091703],[33.964144,-16.091704]]]}},{"type":"Feature","properties":{"ano":2020,"camada":"reassentamento","area_km2":0.0009},"geometry":{"type":"Polygon","coordinates":[[[33.966389,-16.091965],[33.96639,-16.092236],[33.966671,-16.092235],[33.96667,-16.091964],[33.966389,-16.091965]]]}},{"type":"Feature","properties":{"ano":2020,"camada":"reassentamento","area_km2":0.0072},"geometry":{"type":"Polygon","coordinates":[[[33.981534,-16.091625],[33.981535,-16.091896],[33.980974,-16.091899],[33.980977,-16.092441],[33.982098,-16.092165],[33.982095,-16.091623],[33.981534,-16.091625]]]}},{"type":"Feature","properties":{"ano":2020,"camada":"reassentamento","area_km2":0.0009},"geometry":{"type":"Polygon","coordinates":[[[33.96611,-16.092238],[33.966111,-16.092509],[33.966392,-16.092508],[33.96639,-16.092236],[33.96611,-16.092238]]]}},{"type":"Feature","properties":{"ano":2020,"camada":"reassentamento","area_km2":0.0117},"geometry":{"type":"Polygon","coordinates":[[[33.96527,-16.092513],[33.965271,-16.092784],[33.96443,-16.092788],[33.964434,-16.093601],[33.964995,-16.093599],[33.964993,-16.093327],[33.965554,-16.093325],[33.965553,-16.093054],[33.965833,-16.093053],[33.965831,-16.09251],[33.96527,-16.092513]]]}},{"type":"Feature","properties":{"ano":2020,"camada":"reassentamento","area_km2":0.0279},"geometry":{"type":"Polygon","coordinates":[[[33.97705,-16.092459],[33.977055,-16.093544],[33.977336,-16.093543],[33.977337,-16.093814],[33.978179,-16.09381],[33.97818,-16.094081],[33.978461,-16.09408],[33.978463,-16.094622],[33.978744,-16.094621],[33.97874,-16.093807],[33.979859,-16.09326],[33.979858,-16.092989],[33.978176,-16.093268],[33.978175,-16.092996],[33.977894,-16.092998],[33.977611,-16.092457],[33.97705,-16.092459]]]}},{"type":"Feature","properties":{"ano":2020,"camada":"reassentamento","area_km2":0.0135},"geometry":{"type":"Polygon","coordinates":[[[33.973969,-16.093287],[33.973971,-16.093829],[33.974252,-16.093828],[33.974538,-16.094911],[33.9751,-16.09518],[33.975095,-16.094095],[33.974814,-16.094096],[33.974812,-16.093554],[33.974531,-16.093555],[33.97453,-16.093284],[33.973969,-16.093287]]]}},{"type":"Feature","properties":{"ano":2020,"camada":"reassentamento","area_km2":0.4185},"geometry":{"type":"Polygon","coordinates":[[[33.969704,-16.081374],[33.969705,-16.081646],[33.969144,-16.081648],[33.969145,-16.081919],[33.969708,-16.082188],[33.969712,-16.083001],[33.969431,-16.083003],[33.969432,-16.083274],[33.968591,-16.083278],[33.968588,-16.082735],[33.968308,-16.082737],[33.968305,-16.082194],[33.968025,-16.082196],[33.96803,-16.08328],[33.967469,-16.083283],[33.967472,-16.083825],[33.967752,-16.083824],[33.967753,-16.084095],[33.968595,-16.084091],[33.968598,-16.084634],[33.968878,-16.084632],[33.968879,-16.084903],[33.96944,-16.084901],[33.969444,-16.085714],[33.969725,-16.085713],[33.969727,-16.086255],[33.970008,-16.086254],[33.970014,-16.08761],[33.969453,-16.087613],[33.969455,-16.087884],[33.969174,-16.087885],[33.969177,-16.088427],[33.969457,-16.088426],[33.969459,-16.088697],[33.9703,-16.088693],[33.970299,-16.088422],[33.972544,-16.088683],[33.972548,-16.089497],[33.971706,-16.089501],[33.971708,-16.089772],[33.971427,-16.089773],[33.971429,-16.090044],[33.97199,-16.090042],[33.971999,-16.09194],[33.971157,-16.091944],[33.971156,-16.091673],[33.970876,-16.091674],[33.970587,-16.090048],[33.968345,-16.090329],[33.968349,-16.091143],[33.968068,-16.091144],[33.968069,-16.091415],[33.967508,-16.091418],[33.96751,-16.091689],[33.96779,-16.091688],[33.967792,-16.091959],[33.968072,-16.091958],[33.968071,-16.091687],[33.968912,-16.091683],[33.968914,-16.091954],[33.969194,-16.091953],[33.969197,-16.092495],[33.969477,-16.092494],[33.96948,-16.093036],[33.96976,-16.093035],[33.969765,-16.094119],[33.969205,-16.094122],[33.969206,-16.094393],[33.968925,-16.094394],[33.968927,-16.094666],[33.968366,-16.094668],[33.968088,-16.095212],[33.966967,-16.095488],[33.966689,-16.096032],[33.96725,-16.096029],[33.967249,-16.095758],[33.96809,-16.095754],[33.968089,-16.095483],[33.968931,-16.095479],[33.968929,-16.095208],[33.96921,-16.095207],[33.969488,-16.094663],[33.970329,-16.094659],[33.970328,-16.094388],[33.970889,-16.094386],[33.970886,-16.093843],[33.970606,-16.093844],[33.970599,-16.092489],[33.972562,-16.09248],[33.97284,-16.091936],[33.973682,-16.091932],[33.973686,-16.092746],[33.973966,-16.092744],[33.973961,-16.09166],[33.974241,-16.091658],[33.97424,-16.091387],[33.975642,-16.091381],[33.975641,-16.09111],[33.9748,-16.091114],[33.974798,-16.090842],[33.974518,-16.090844],[33.974515,-16.090301],[33.974235,-16.090303],[33.974229,-16.089218],[33.973669,-16.089221],[33.973665,-16.088407],[33.973384,-16.088408],[33.973379,-16.087324],[33.973659,-16.087322],[33.973658,-16.087051],[33.973097,-16.087054],[33.973092,-16.085969],[33.973653,-16.085966],[33.973649,-16.085153],[33.973929,-16.085152],[33.973927,-16.084609],[33.973085,-16.084613],[33.973082,-16.084071],[33.972802,-16.084072],[33.972803,-16.084343],[33.971401,-16.08435],[33.971404,-16.084892],[33.971965,-16.084889],[33.971972,-16.086516],[33.970288,-16.086253],[33.970286,-16.085711],[33.970005,-16.085712],[33.969999,-16.084356],[33.969438,-16.084359],[33.969434,-16.083545],[33.970275,-16.083541],[33.970279,-16.084355],[33.97112,-16.084351],[33.971119,-16.08408],[33.970558,-16.084082],[33.970552,-16.082726],[33.971113,-16.082724],[33.97111,-16.082182],[33.970269,-16.082185],[33.970265,-16.081372],[33.969704,-16.081374]],[[33.971134,-16.087063],[33.971975,-16.087059],[33.971979,-16.087872],[33.971138,-16.087876],[33.971134,-16.087063]]]}},{"type":"Feature","properties":{"ano":2020,"camada":"reassentamento","area_km2":0.0009},"geometry":{"type":"Polygon","coordinates":[[[33.979311,-16.095974],[33.979313,-16.096245],[33.979593,-16.096244],[33.979592,-16.095973],[33.979311,-16.095974]]]}},{"type":"Feature","properties":{"ano":2020,"camada":"reassentamento","area_km2":0.0009},"geometry":{"type":"Polygon","coordinates":[[[33.975668,-16.096533],[33.975669,-16.096804],[33.975949,-16.096803],[33.975948,-16.096532],[33.975668,-16.096533]]]}},{"type":"Feature","properties":{"ano":2020,"camada":"reassentamento","area_km2":0.0036},"geometry":{"type":"Polygon","coordinates":[[[33.975949,-16.096803],[33.975951,-16.097074],[33.976231,-16.097073],[33.976234,-16.097615],[33.976514,-16.097614],[33.97651,-16.0968],[33.975949,-16.096803]]]}},{"type":"Feature","properties":{"ano":2020,"camada":"reassentamento","area_km2":0.0009},"geometry":{"type":"Polygon","coordinates":[[[33.976517,-16.098156],[33.976518,-16.098428],[33.976799,-16.098426],[33.976798,-16.098155],[33.976517,-16.098156]]]}},{"type":"Feature","properties":{"ano":2020,"camada":"reassentamento","area_km2":0.0207},"geometry":{"type":"Polygon","coordinates":[[[33.971182,-16.097096],[33.971184,-16.097367],[33.970623,-16.09737],[33.970625,-16.097912],[33.970906,-16.097911],[33.970905,-16.09764],[33.972027,-16.097634],[33.97203,-16.098448],[33.972311,-16.098447],[33.972312,-16.098718],[33.973434,-16.098713],[33.973433,-16.098442],[33.972872,-16.098444],[33.972586,-16.097361],[33.972025,-16.097363],[33.972024,-16.097092],[33.971182,-16.097096]]]}},{"type":"Feature","properties":{"ano":2020,"camada":"reassentamento","area_km2":0.0036},"geometry":{"type":"Polygon","coordinates":[[[34.028978,-16.099808],[34.028701,-16.100352],[34.029542,-16.100348],[34.029541,-16.100077],[34.028978,-16.099808]]]}},{"type":"Feature","properties":{"ano":2020,"camada":"reassentamento","area_km2":0.0009},"geometry":{"type":"Polygon","coordinates":[[[34.03459,-16.100052],[34.034591,-16.100324],[34.034872,-16.100322],[34.03487,-16.100051],[34.03459,-16.100052]]]}},{"type":"Feature","properties":{"ano":2020,"camada":"reassentamento","area_km2":0.0009},"geometry":{"type":"Polygon","coordinates":[[[34.024777,-16.100913],[34.024778,-16.101184],[34.025059,-16.101183],[34.025057,-16.100912],[34.024777,-16.100913]]]}},{"type":"Feature","properties":{"ano":2020,"camada":"reassentamento","area_km2":0.0009},"geometry":{"type":"Polygon","coordinates":[[[34.033194,-16.101415],[34.033196,-16.101686],[34.033476,-16.101685],[34.033475,-16.101414],[34.033194,-16.101415]]]}},{"type":"Feature","properties":{"ano":2020,"camada":"reassentamento","area_km2":0.0009},"geometry":{"type":"Polygon","coordinates":[[[34.033476,-16.101685],[34.033478,-16.101956],[34.033758,-16.101955],[34.033757,-16.101684],[34.033476,-16.101685]]]}},{"type":"Feature","properties":{"ano":2020,"camada":"reassentamento","area_km2":0.0018},"geometry":{"type":"Polygon","coordinates":[[[34.031236,-16.102509],[34.031238,-16.10278],[34.031799,-16.102778],[34.031797,-16.102507],[34.031236,-16.102509]]]}},{"type":"Feature","properties":{"ano":2020,"camada":"reassentamento","area_km2":0.009},"geometry":{"type":"Polygon","coordinates":[[[34.029551,-16.101975],[34.029552,-16.102246],[34.029272,-16.102248],[34.029277,-16.103332],[34.029558,-16.103331],[34.029555,-16.102789],[34.029835,-16.102787],[34.029834,-16.102516],[34.030395,-16.102513],[34.030112,-16.101972],[34.029551,-16.101975]]]}},{"type":"Feature","properties":{"ano":2020,"camada":"reassentamento","area_km2":0.0018},"geometry":{"type":"Polygon","coordinates":[[[34.025079,-16.105251],[34.025081,-16.105522],[34.025642,-16.105519],[34.02564,-16.105248],[34.025079,-16.105251]]]}},{"type":"Feature","properties":{"ano":2020,"camada":"reassentamento","area_km2":0.0009},"geometry":{"type":"Polygon","coordinates":[[[34.038546,-16.105728],[34.038548,-16.105999],[34.038828,-16.105998],[34.038827,-16.105727],[34.038546,-16.105728]]]}},{"type":"Feature","properties":{"ano":2020,"camada":"reassentamento","area_km2":0.0036},"geometry":{"type":"Polygon","coordinates":[[[34.030973,-16.105765],[34.030975,-16.106307],[34.031536,-16.106304],[34.031534,-16.105762],[34.030973,-16.105765]]]}},{"type":"Feature","properties":{"ano":2020,"camada":"reassentamento","area_km2":0.0009},"geometry":{"type":"Polygon","coordinates":[[[34.036023,-16.106011],[34.036024,-16.106282],[34.036305,-16.106281],[34.036304,-16.10601],[34.036023,-16.106011]]]}},{"type":"Feature","properties":{"ano":2020,"camada":"reassentamento","area_km2":0.0036},"geometry":{"type":"Polygon","coordinates":[[[34.030135,-16.106582],[34.030138,-16.107124],[34.030699,-16.107122],[34.030696,-16.106579],[34.030135,-16.106582]]]}},{"type":"Feature","properties":{"ano":2020,"camada":"reassentamento","area_km2":0.0045},"geometry":{"type":"Polygon","coordinates":[[[34.039954,-16.106806],[34.039957,-16.107348],[34.040238,-16.107347],[34.040239,-16.107618],[34.0408,-16.107615],[34.040799,-16.107344],[34.040518,-16.107345],[34.040517,-16.107074],[34.039954,-16.106806]]]}},{"type":"Feature","properties":{"ano":2020,"camada":"reassentamento","area_km2":0.0009},"geometry":{"type":"Polygon","coordinates":[[[34.027615,-16.107408],[34.027616,-16.107679],[34.027897,-16.107678],[34.027896,-16.107406],[34.027615,-16.107408]]]}},{"type":"Feature","properties":{"ano":2020,"camada":"reassentamento","area_km2":0.0018},"geometry":{"type":"Polygon","coordinates":[[[34.030981,-16.107392],[34.030984,-16.107934],[34.031264,-16.107933],[34.031262,-16.10739],[34.030981,-16.107392]]]}},{"type":"Feature","properties":{"ano":2020,"camada":"reassentamento","area_km2":0.0045},"geometry":{"type":"Polygon","coordinates":[[[34.033225,-16.107381],[34.033226,-16.107652],[34.03435,-16.107918],[34.034067,-16.107377],[34.033225,-16.107381]]]}},{"type":"Feature","properties":{"ano":2020,"camada":"reassentamento","area_km2":0.0009},"geometry":{"type":"Polygon","coordinates":[[[34.0408,-16.107615],[34.040801,-16.107886],[34.041082,-16.107885],[34.04108,-16.107614],[34.0408,-16.107615]]]}},{"type":"Feature","properties":{"ano":2020,"camada":"reassentamento","area_km2":0.0009},"geometry":{"type":"Polygon","coordinates":[[[34.03435,-16.107918],[34.034351,-16.108189],[34.034632,-16.108187],[34.03463,-16.107916],[34.03435,-16.107918]]]}},{"type":"Feature","properties":{"ano":2020,"camada":"reassentamento","area_km2":0.0018},"geometry":{"type":"Polygon","coordinates":[[[34.041082,-16.107885],[34.041083,-16.108156],[34.041644,-16.108153],[34.041643,-16.107882],[34.041082,-16.107885]]]}},{"type":"Feature","properties":{"ano":2020,"camada":"reassentamento","area_km2":0.0009},"geometry":{"type":"Polygon","coordinates":[[[34.025936,-16.108229],[34.025938,-16.108501],[34.026218,-16.108499],[34.026217,-16.108228],[34.025936,-16.108229]]]}},{"type":"Feature","properties":{"ano":2020,"camada":"reassentamento","area_km2":0.0045},"geometry":{"type":"Polygon","coordinates":[[[34.02874,-16.107945],[34.028744,-16.108758],[34.029305,-16.108756],[34.029302,-16.108213],[34.02874,-16.107945]]]}},{"type":"Feature","properties":{"ano":2020,"camada":"reassentamento","area_km2":0.0009},"geometry":{"type":"Polygon","coordinates":[[[34.032954,-16.10928],[34.032956,-16.109551],[34.033236,-16.10955],[34.033235,-16.109279],[34.032954,-16.10928]]]}},{"type":"Feature","properties":{"ano":2020,"camada":"reassentamento","area_km2":0.0009},"geometry":{"type":"Polygon","coordinates":[[[34.036322,-16.109535],[34.036323,-16.109806],[34.036604,-16.109805],[34.036602,-16.109534],[34.036322,-16.109535]]]}},{"type":"Feature","properties":{"ano":2020,"camada":"reassentamento","area_km2":0.0009},"geometry":{"type":"Polygon","coordinates":[[[34.036604,-16.109805],[34.036605,-16.110076],[34.036886,-16.110075],[34.036884,-16.109804],[34.036604,-16.109805]]]}},{"type":"Feature","properties":{"ano":2020,"camada":"reassentamento","area_km2":0.0009},"geometry":{"type":"Polygon","coordinates":[[[34.035769,-16.111165],[34.035771,-16.111436],[34.036051,-16.111435],[34.03605,-16.111163],[34.035769,-16.111165]]]}},{"type":"Feature","properties":{"ano":2020,"camada":"reassentamento","area_km2":0.0009},"geometry":{"type":"Polygon","coordinates":[[[34.032967,-16.111721],[34.032968,-16.111992],[34.033249,-16.111991],[34.033248,-16.111719],[34.032967,-16.111721]]]}},{"type":"Feature","properties":{"ano":2020,"camada":"reassentamento","area_km2":0.0009},"geometry":{"type":"Polygon","coordinates":[[[34.031288,-16.112542],[34.03129,-16.112814],[34.03157,-16.112812],[34.031569,-16.112541],[34.031288,-16.112542]]]}},{"type":"Feature","properties":{"ano":2020,"camada":"reassentamento","area_km2":0.0009},"geometry":{"type":"Polygon","coordinates":[[[34.031852,-16.113082],[34.031853,-16.113353],[34.032134,-16.113352],[34.032133,-16.113081],[34.031852,-16.113082]]]}},{"type":"Feature","properties":{"ano":2020,"camada":"reassentamento","area_km2":0.0009},"geometry":{"type":"Polygon","coordinates":[[[34.032134,-16.113352],[34.032135,-16.113623],[34.032416,-16.113622],[34.032414,-16.11335],[34.032134,-16.113352]]]}},{"type":"Feature","properties":{"ano":2020,"camada":"reassentamento","area_km2":0.0018},"geometry":{"type":"Polygon","coordinates":[[[34.033542,-16.11443],[34.033543,-16.114701],[34.034105,-16.114698],[34.034103,-16.114427],[34.033542,-16.11443]]]}}]}