{"type":"FeatureCollection","features":[{"type":"Feature","properties":{"ano":2010,"camada":"reassentamento","area_km2":0.0018},"geometry":{"type":"Polygon","coordinates":[[[33.964676,-16.085736],[33.964679,-16.086278],[33.964959,-16.086277],[33.964957,-16.085735],[33.964676,-16.085736]]]}},{"type":"Feature","properties":{"ano":2010,"camada":"reassentamento","area_km2":0.0009},"geometry":{"type":"Polygon","coordinates":[[[33.975677,-16.098431],[33.975678,-16.098703],[33.975959,-16.098701],[33.975957,-16.09843],[33.975677,-16.098431]]]}},{"type":"Feature","properties":{"ano":2010,"camada":"reassentamento","area_km2":1.2015},"geometry":{"type":"Polygon","coordinates":[[[33.972506,-16.080819],[33.972508,-16.081362],[33.972228,-16.081363],[33.972229,-16.081634],[33.971107,-16.081639],[33.970824,-16.081098],[33.970544,-16.081099],[33.970545,-16.081371],[33.969704,-16.081374],[33.969705,-16.081646],[33.969144,-16.081648],[33.969145,-16.081919],[33.968025,-16.082196],[33.968027,-16.082738],[33.967186,-16.082742],[33.967187,-16.083013],[33.966907,-16.083014],[33.966908,-16.083285],[33.966628,-16.083287],[33.966629,-16.083558],[33.966348,-16.083559],[33.96635,-16.08383],[33.96579,-16.084104],[33.965793,-16.084646],[33.965233,-16.08492],[33.965236,-16.085462],[33.964955,-16.085464],[33.964957,-16.085735],[33.965798,-16.085731],[33.965799,-16.086002],[33.96608,-16.086001],[33.966082,-16.086543],[33.966645,-16.086812],[33.96665,-16.087896],[33.966369,-16.087898],[33.966092,-16.088441],[33.96525,-16.088445],[33.964972,-16.088989],[33.964131,-16.088993],[33.964132,-16.089264],[33.963852,-16.089265],[33.963858,-16.090621],[33.964139,-16.09062],[33.964137,-16.090348],[33.964418,-16.090347],[33.964417,-16.090076],[33.964697,-16.090075],[33.964975,-16.089531],[33.965816,-16.089527],[33.965815,-16.089256],[33.966376,-16.089254],[33.966373,-16.088711],[33.967495,-16.088706],[33.967497,-16.088977],[33.967777,-16.088976],[33.96778,-16.089518],[33.96806,-16.089517],[33.968063,-16.090059],[33.968343,-16.090058],[33.968347,-16.090872],[33.968067,-16.090873],[33.968068,-16.091144],[33.967507,-16.091147],[33.967508,-16.091418],[33.966947,-16.09142],[33.966949,-16.091692],[33.966388,-16.091694],[33.966389,-16.091965],[33.965548,-16.091969],[33.96527,-16.092513],[33.964709,-16.092515],[33.96471,-16.092786],[33.96443,-16.092788],[33.964434,-16.093601],[33.964996,-16.09387],[33.964995,-16.093599],[33.966115,-16.093322],[33.966393,-16.092779],[33.966954,-16.092776],[33.966953,-16.092505],[33.967514,-16.092503],[33.967512,-16.092231],[33.969195,-16.092224],[33.969198,-16.092766],[33.969478,-16.092765],[33.969484,-16.09385],[33.968923,-16.093852],[33.968924,-16.094123],[33.967803,-16.0944],[33.967805,-16.094671],[33.967524,-16.094672],[33.967527,-16.095214],[33.966406,-16.095491],[33.966128,-16.096034],[33.966409,-16.096033],[33.96641,-16.096304],[33.966972,-16.096573],[33.966971,-16.096302],[33.967532,-16.096299],[33.967531,-16.096028],[33.967811,-16.096027],[33.96781,-16.095755],[33.968371,-16.095753],[33.96837,-16.095482],[33.969211,-16.095478],[33.96921,-16.095207],[33.969771,-16.095204],[33.969769,-16.094933],[33.970891,-16.094928],[33.970893,-16.095199],[33.971173,-16.095198],[33.971176,-16.09574],[33.971738,-16.096009],[33.971742,-16.096822],[33.971181,-16.096825],[33.971182,-16.097096],[33.970621,-16.097098],[33.970623,-16.09737],[33.969502,-16.097646],[33.969224,-16.09819],[33.969785,-16.098187],[33.969787,-16.098458],[33.970628,-16.098454],[33.970627,-16.098183],[33.972029,-16.098177],[33.972032,-16.098719],[33.972312,-16.098718],[33.972314,-16.098989],[33.973436,-16.098984],[33.973433,-16.098442],[33.973152,-16.098443],[33.973145,-16.096816],[33.973706,-16.096813],[33.973704,-16.096542],[33.974265,-16.09654],[33.974264,-16.096268],[33.975666,-16.096262],[33.97567,-16.097076],[33.975951,-16.097074],[33.975957,-16.09843],[33.976799,-16.098426],[33.976798,-16.098155],[33.977359,-16.098152],[33.977357,-16.097881],[33.977077,-16.097883],[33.977074,-16.09734],[33.976512,-16.097072],[33.976226,-16.095988],[33.975945,-16.09599],[33.97594,-16.094905],[33.976782,-16.094901],[33.97678,-16.09463],[33.978183,-16.094623],[33.978184,-16.094895],[33.978746,-16.095163],[33.979032,-16.096247],[33.979313,-16.096245],[33.979314,-16.096516],[33.979874,-16.096243],[33.979872,-16.095972],[33.979592,-16.095973],[33.97959,-16.095702],[33.979028,-16.095433],[33.979026,-16.094891],[33.978745,-16.094892],[33.978741,-16.094079],[33.979022,-16.094077],[33.97902,-16.093806],[33.979581,-16.093804],[33.97958,-16.093532],[33.980421,-16.093528],[33.98042,-16.093257],[33.980981,-16.093255],[33.98098,-16.092984],[33.98126,-16.092982],[33.981538,-16.092439],[33.982099,-16.092436],[33.982096,-16.091894],[33.982377,-16.091892],[33.982373,-16.091079],[33.982092,-16.09108],[33.981814,-16.091624],[33.981253,-16.091626],[33.981255,-16.091898],[33.980413,-16.091901],[33.980415,-16.092173],[33.979854,-16.092175],[33.979855,-16.092446],[33.979575,-16.092448],[33.979576,-16.092719],[33.979015,-16.092721],[33.979016,-16.092993],[33.977614,-16.092999],[33.977611,-16.092457],[33.977331,-16.092458],[33.977328,-16.091916],[33.977048,-16.091917],[33.977044,-16.091103],[33.977605,-16.091101],[33.977603,-16.09083],[33.978164,-16.090827],[33.978442,-16.090283],[33.979003,-16.090281],[33.979002,-16.09001],[33.979563,-16.090007],[33.979561,-16.089736],[33.980403,-16.089732],[33.980681,-16.089188],[33.981801,-16.088912],[33.9818,-16.088641],[33.982359,-16.088367],[33.982357,-16.087825],[33.982076,-16.087826],[33.982075,-16.087555],[33.981514,-16.087558],[33.981515,-16.087829],[33.980954,-16.087831],[33.980677,-16.088375],[33.980116,-16.088378],[33.980117,-16.088649],[33.979556,-16.088651],[33.979557,-16.088922],[33.978996,-16.088925],[33.978998,-16.089196],[33.977877,-16.089472],[33.977599,-16.090016],[33.976197,-16.090023],[33.976192,-16.088938],[33.976472,-16.088937],[33.976469,-16.088394],[33.976189,-16.088395],[33.976185,-16.087582],[33.976746,-16.087579],[33.976745,-16.087308],[33.977305,-16.087306],[33.977304,-16.087035],[33.978146,-16.087031],[33.978144,-16.086759],[33.978705,-16.086757],[33.978704,-16.086486],[33.979265,-16.086483],[33.979263,-16.086212],[33.980105,-16.086208],[33.980106,-16.086479],[33.980387,-16.086478],[33.980389,-16.08702],[33.98067,-16.087019],[33.980663,-16.085663],[33.980944,-16.085662],[33.981222,-16.085118],[33.980941,-16.08512],[33.980658,-16.084579],[33.979816,-16.084582],[33.979818,-16.084854],[33.978976,-16.084857],[33.978978,-16.085129],[33.978697,-16.08513],[33.9787,-16.085672],[33.978139,-16.085675],[33.97814,-16.085946],[33.977299,-16.08595],[33.977021,-16.086493],[33.97646,-16.086496],[33.976461,-16.086767],[33.9759,-16.08677],[33.975902,-16.087041],[33.974499,-16.087047],[33.974497,-16.086505],[33.974216,-16.086506],[33.97421,-16.08515],[33.97449,-16.085149],[33.974489,-16.084878],[33.97505,-16.084875],[33.975048,-16.084604],[33.975609,-16.084602],[33.975887,-16.084058],[33.976448,-16.084055],[33.976447,-16.083784],[33.977008,-16.083782],[33.977006,-16.083511],[33.978127,-16.083234],[33.978124,-16.082692],[33.977844,-16.082693],[33.977841,-16.082151],[33.977561,-16.082152],[33.977562,-16.082423],[33.977282,-16.082425],[33.977283,-16.082696],[33.976722,-16.082698],[33.976723,-16.08297],[33.976443,-16.082971],[33.976165,-16.083514],[33.975324,-16.083518],[33.975325,-16.083789],[33.974484,-16.083793],[33.974485,-16.084064],[33.973924,-16.084067],[33.973925,-16.084338],[33.973084,-16.084342],[33.973082,-16.084071],[33.972802,-16.084072],[33.972797,-16.082987],[33.972516,-16.082989],[33.972511,-16.081904],[33.973352,-16.0819],[33.973351,-16.081629],[33.973912,-16.081626],[33.973911,-16.081355],[33.974191,-16.081354],[33.974189,-16.080812],[33.972506,-16.080819]],[[33.970552,-16.082726],[33.971393,-16.082723],[33.971394,-16.082994],[33.971675,-16.082993],[33.971676,-16.083264],[33.972238,-16.083532],[33.972242,-16.084346],[33.972523,-16.084345],[33.972809,-16.085428],[33.973371,-16.085697],[33.973374,-16.086239],[33.973654,-16.086238],[33.973657,-16.08678],[33.973937,-16.086779],[33.97394,-16.087321],[33.97422,-16.08732],[33.974506,-16.088403],[33.975068,-16.088672],[33.975071,-16.089214],[33.975351,-16.089213],[33.975354,-16.089755],[33.975635,-16.089754],[33.975638,-16.090567],[33.976199,-16.090565],[33.976201,-16.090836],[33.976481,-16.090835],[33.976485,-16.091648],[33.976766,-16.091647],[33.976768,-16.092189],[33.977049,-16.092188],[33.977053,-16.093002],[33.977333,-16.093],[33.977337,-16.093814],[33.976776,-16.093816],[33.976779,-16.094359],[33.976498,-16.09436],[33.9765,-16.094631],[33.975378,-16.094636],[33.975377,-16.094365],[33.975096,-16.094366],[33.975093,-16.093824],[33.974813,-16.093825],[33.97481,-16.093283],[33.97453,-16.093284],[33.974528,-16.093013],[33.973966,-16.092744],[33.973962,-16.091931],[33.974243,-16.09193],[33.974241,-16.091658],[33.974522,-16.091657],[33.9748,-16.091114],[33.973397,-16.09112],[33.973396,-16.090849],[33.973115,-16.09085],[33.973112,-16.090037],[33.972549,-16.089768],[33.972547,-16.089226],[33.972266,-16.089227],[33.972263,-16.088685],[33.971983,-16.088686],[33.97198,-16.088143],[33.9717,-16.088145],[33.971697,-16.087602],[33.971417,-16.087604],[33.971413,-16.08679],[33.971132,-16.086791],[33.971131,-16.08652],[33.970569,-16.086252],[33.970566,-16.085709],[33.970286,-16.085711],[33.970283,-16.085168],[33.970003,-16.08517],[33.97,-16.084627],[33.969719,-16.084628],[33.969714,-16.083544],[33.969995,-16.083542],[33.969993,-16.083271],[33.970554,-16.083269],[33.970552,-16.082726]],[[33.967476,-16.084639],[33.968598,-16.084634],[33.968599,-16.084905],[33.96916,-16.084902],[33.969164,-16.085716],[33.969726,-16.085984],[33.969729,-16.086527],[33.970009,-16.086525],[33.970013,-16.087339],[33.968892,-16.087615],[33.968895,-16.088157],[33.969457,-16.088426],[33.96946,-16.088968],[33.96974,-16.088967],[33.969739,-16.088696],[33.971142,-16.08869],[33.971144,-16.089232],[33.971425,-16.089231],[33.971429,-16.090044],[33.971991,-16.090313],[33.971995,-16.091126],[33.972275,-16.091125],[33.972281,-16.09221],[33.971439,-16.092214],[33.971438,-16.091942],[33.970876,-16.091674],[33.970872,-16.09086],[33.970591,-16.090862],[33.97059,-16.09059],[33.969187,-16.090597],[33.969186,-16.090326],[33.968624,-16.090057],[33.96862,-16.089243],[33.968339,-16.089245],[33.968054,-16.088161],[33.967491,-16.087893],[33.967487,-16.087079],[33.967207,-16.08708],[33.967204,-16.086538],[33.966642,-16.086269],[33.966636,-16.084914],[33.967477,-16.08491],[33.967476,-16.084639]],[[33.972282,-16.092481],[33.973123,-16.092477],[33.973125,-16.092748],[33.973687,-16.093017],[33.973691,-16.09383],[33.973971,-16.093829],[33.973974,-16.094371],[33.974255,-16.09437],[33.974257,-16.094913],[33.974538,-16.094911],[33.974542,-16.095725],[33.974261,-16.095726],[33.974263,-16.095997],[33.973702,-16.096],[33.973703,-16.096271],[33.972581,-16.096276],[33.97258,-16.096005],[33.972019,-16.096007],[33.971733,-16.094924],[33.971171,-16.094655],[33.971167,-16.093842],[33.970886,-16.093843],[33.970881,-16.092758],[33.972283,-16.092752],[33.972282,-16.092481]]]}}]}